id,address,city,state,zip,state,county,tract,longitude,latitude
1,1619 E 24th Ter, Kansas City, MO,64108,29,95,16200,-94.351829,38.390027
2,3039 Troost Ave, Kansas City, MO,64109,29,95,16200,-94.347452,38.400096
3,22 E 32nd St, Kansas City, MO,64111,29,95,17800,-94.336569,40.247864
4,3101 Main St, Kansas City, MO,64111,29,95,17800,-94.329796,40.247095
5,3450 Warwick Blvd, Kansas City, MO,64111,29,95,17800,-89.599597,37.627625
6,3101 Main St, Kansas City, MO,64111,29,95,17800,-94.357523,38.394473
8,3101 Main St, Kansas City, MO,64111,29,95,17800,-94.893159,39.892269
9,3701 SW Cheddington Dr, Lees Summit, MO,64082,29,95,18100,-94.453036,36.645564
12,2108 S Main St, Joplin, MO,64804,29,97,10800,-94.02347,38.183372
13,1918 S Sergeant Ave, Joplin, MO,64804,29,97,10800,-94.023425,38.188432
14,2130 Michigan Ave, Arnold, MO,63010,29,99,700110,-94.450803,36.6461
15,38 Fox Valley Ctr, Arnold, MO,63010,29,99,700110,-94.356172,38.483421
16,1051 Old Gravois Rd, Fenton, MO,63026,29,99,700303,-90.416714,38.434822
18,1550 Saint Marys Ln, Festus, MO,63028,29,99,700801,-94.354078,38.475658
19,3775 Athena School Rd, De Soto, MO,63020,29,99,701300,-90.379777,38.436544
20,926 Lynn St, Lebanon, MO,65536,29,105,960400,-90.401912,38.444881
21,332 Harwood Ave, Lebanon, MO,65536,29,105,960400,-90.369581,38.446608
23,145 N Monroe St, Lebanon, MO,65536,29,105,960400,-90.384414,38.411676
24,100 N 4th St, Odessa, MO,64076,29,107,90601,-90.370215,38.406889
25,607 S 3rd St, Odessa, MO,64076,29,107,90601,-90.386099,38.404582
26,5 W Delta St, Aurora, MO,65605,29,109,470601,-90.405417,38.416099
27,1011 Jamison St, Kirksville, MO,63501,29,1,950400,-90.376468,38.402993
28,601 Learning Ln, Monett, MO,65708,29,9,960300,-90.353357,38.444185
29,307 15th St, Monett, MO,65708,29,9,960300,-92.253584,38.778847
30,309 15th St, Monett, MO,65708,29,9,960300,-92.259509,38.760124
31,1410 Hinkson Ave, Columbia, MO,65201,29,19,200,-92.255775,38.767124
32,1509 Hinkson Ave, Columbia, MO,65201,29,19,200,-93.585731,37.313468
33,1112 E Broadway, Columbia, MO,65201,29,19,500,-92.260884,38.769837
34,1208 Locust St, Columbia, MO,65201,29,19,500,-92.262165,38.775411
35,10 E Broadway, Columbia, MO,65203,29,19,600,-93.578412,37.313618
36,1800 W Rollins Rd, Columbia, MO,65203,29,19,600,-92.26262,38.777676
37,301 W Broadway, Columbia, MO,65203,29,19,700,-93.719797,36.98183
40,312 Ridgeway Ave, Columbia, MO,65203,29,19,700,-90.555692,38.561385
41,450 W Sexton St, Harrisburg, MO,65256,29,19,1901,-93.703018,36.983176
42,2697 County Rd 650, Broseley, MO,63932,29,23,950600,-92.658846,36.949007
43,9348 Highway 51, Broseley, MO,63932,29,23,950600,-90.4655,38.580245
44,8067 State Road C, Fulton, MO,65251,29,27,70600,-90.55762,38.584241
46,307 Redwood Dr, New Bloomfield, MO,65063,29,27,70600,-90.564581,38.605915
47,4197 State Hwy E, Oak Ridge, MO,63769,29,31,880100,-90.557715,38.575601
48,608 Rosamund St, Jackson, MO,63755,29,31,880500,-90.618681,38.605616
49,1327 E Main St, Jackson, MO,63755,29,31,880500,-90.507017,38.567948
50,735 N Clark St, Cape Girardeau, MO,63701,29,31,881100,-90.549429,38.610102
51,1912 Broadway St, Cape Girardeau, MO,63701,29,31,881100,-90.52138,38.576908
52,601 N Kingshighway St, Cape Girardeau, MO,63701,29,31,881100,-93.363557,37.12432
53,2089 Bessie St, Cape Girardeau, MO,63701,29,31,881100,-91.150306,38.418168
54,1111 Linden St, Cape Girardeau, MO,63703,29,31,881400,-90.538208,38.567719
55,8301 E 163rd St, Belton, MO,64012,29,37,60003,-90.54371,38.567739
56,16311 Cornerstone Dr, Belton, MO,64012,29,37,60003,-93.367537,37.127458
57,127 Congress St, Belton, MO,64012,29,37,60004,-89.820894,37.024758
58,202 Old Highway 7, Garden City, MO,64747,29,37,60700,-91.726308,38.286994
59,1305 Sanders St, Harrisonville, MO,64701,29,37,61400,-94.495015,38.827444
60,1008 County Rd, Brunswick, MO,65236,29,41,470200,-91.726338,38.285665
61,601 E Broadway St, Brunswick, MO,65236,29,41,470200,-94.541536,38.814988
62,131 W Cedar St, Nixa, MO,65714,29,43,20202,-94.5172,38.826493
64,1375 W Mount Vernon St, Nixa, MO,65714,29,43,20202,-94.544264,38.822295
65,1911 Fitz Ln, Nixa, MO,65714,29,43,20202,-94.53544,38.800116
66,890 Cheyenne Rd, Nixa, MO,65714,29,43,20305,-94.520536,38.814382
67,900 Cheyenne Rd, Nixa, MO,65714,29,43,20305,-94.038422,40.265412
68,5940 N Flora Ave, Gladstone, MO,64118,29,47,21001,-94.548189,38.811857
69,300 NE 58th Ter, Gladstone, MO,64118,29,47,21001,-94.028134,40.26378
70,423 N Chestnut St, Cameron, MO,64429,29,49,960100,-90.265191,38.792796
71,417 N Nettleton St, Cameron, MO,64429,29,49,960100,-90.335215,38.762418
72,602 S Harris St, Cameron, MO,64429,29,49,960100,-89.928813,36.889652
73,707 Linden Dr, Jefferson City, MO,65109,29,51,10600,-90.248686,38.043298
76,1002 Myrtle Ave, Jefferson City, MO,65109,29,51,10600,-93.395762,36.504586
77,623 Ohio St, Jefferson City, MO,65109,29,51,10600,-94.321181,39.032305
78,812 Saint Marys Blvd, Jefferson City, MO,65109,29,51,10600,-94.305761,39.028363
1822,,,,,,,,-94.79622,39.378561
79,609 Marshall St, Jefferson City, MO,65101,29,51,20700,-90.270733,38.788383
80,605 Cherry St, Jefferson City, MO,65101,29,51,20700,-94.273086,38.995717
81,700 W High St, Jefferson City, MO,65101,29,51,20700,-94.304466,39.026751
83,209 W Main St, Malden, MO,63863,29,69,360100,-94.281219,39.029147
84,507 Arnold Blvd, Malden, MO,63863,29,69,360200,-94.262213,39.023444
85,505 Burkhart St, Malden, MO,63863,29,69,360200,-93.506759,37.251638
86,334 W 9th St, Hermann, MO,65041,29,73,960100,-93.396653,37.619149
87,4035 W Weaver Rd, Battlefield, MO,65619,29,77,4101,-93.390871,37.618116
88,4222 W Sandy St, Battlefield, MO,65619,29,77,4101,-93.412491,37.606194
89,112 S 4th St, Maitland, MO,64466,29,87,960100,-93.39703,37.577981
90,1100 E 4th St, Kansas City, MO,64106,29,95,300,-93.409075,37.605935
92,335 N Elmwood Ave, Kansas City, MO,64123,29,95,700,-93.42307,37.611244
95,5208 E 24th St, Kansas City, MO,64127,29,95,3400,-90.550241,37.922001
97,2426 Indiana Ave, Kansas City, MO,64127,29,95,3700,-90.535991,37.921381
98,2415 Agnes Ave, Kansas City, MO,64127,29,95,3700,-90.553012,37.920523
100,3740 Forest Ave, Kansas City, MO,64109,29,95,5300,-92.745601,38.970839
101,3827 Troost Ave, Kansas City, MO,64109,29,95,5300,-92.743823,38.944664
102,4329 Troost Ave, Kansas City, MO,64110,29,95,6300,-92.74331,38.967685
103,4848 Woodland Ave, Kansas City, MO,64110,29,95,7500,-91.200263,39.333859
104,1648 E 63rd St, Kansas City, MO,64110,29,95,8000,-91.213829,39.34443
105,5809 Michigan Ave, Kansas City, MO,64130,29,95,8000,-91.246374,38.152545
106,7118 Prospect Ave, Kansas City, MO,64132,29,95,9000,-93.244018,36.659112
107,7403 Troost Ave, Kansas City, MO,64131,29,95,9000,-91.200347,39.337098
108,711 E 92nd St, Kansas City, MO,64131,29,95,9700,-93.224995,36.699943
110,404 W 86th St, Kansas City, MO,64114,29,95,9900,-93.238115,36.700871
111,11400 Cleveland Ave, Kansas City, MO,64137,29,95,10204,-93.278329,36.623653
112,1403 W Linden Ave, Independence, MO,64052,29,95,11700,-93.244243,36.659002
113,11804 E 23rd St S, Independence, MO,64050,29,95,11700,-90.37249,38.722689
114,3700 S Delaware Ave, Independence, MO,64055,29,95,12200,-92.907908,36.787285
116,8650 Ruskin Way, Kansas City, MO,64134,29,95,13210,-90.351292,38.612495
117,15010 White Ave, Grandview, MO,64030,29,95,13410,-93.37557,36.690631
118,800 Church St, Lees Summit, MO,64063,29,95,13904,-90.417005,38.726003
119,1905 E Langsford Rd, Lees Summit, MO,64063,29,95,13904,-90.422405,38.756071
120,120 SW Garden St, Grain Valley, MO,64029,29,95,14006,-93.077427,39.780606
121,4300 Phelps Rd, Independence, MO,64055,29,95,14501,-90.244138,36.675235
122,4300 S Phelps Rd, Independence, MO,64055,29,95,14501,-93.076888,39.788262
123,16716 E US 40, Independence, MO,64055,29,95,14501,-93.06657,39.780948
124,1000 Brookwood Ctr, Fenton, MO,63026,29,189,221424,-90.242363,36.676141
125,1157 Smizer Mill Rd, Fenton, MO,63026,29,189,221424,-93.117952,39.424969
126,945 N Miami Ave, Marshall, MO,65340,29,195,90200,-94.197207,39.13478
127,2 Corporate Dr, Dexter, MO,63841,29,207,470500,-93.124614,39.422446
128,11 W Castor St, Dexter, MO,63841,29,207,470500,-93.104364,37.633982
129,829 S Falls Ave, Branson, MO,65616,29,213,480105,-93.09963,37.644023
130,500 W Highland Ave, Nevada, MO,64772,29,217,950300,-93.108745,37.64328
133,304 Beverly St, Brookfield, MO,64628,29,115,490400,-92.1066,37.124733
134,210 W John St, Brookfield, MO,64628,29,115,490400,-94.331717,38.25886
135,510 S Monroe St, Brookfield, MO,64628,29,115,490400,-93.626601,38.464555
136,1303 Bryan St, Chillicothe, MO,64601,29,117,480300,-92.102239,37.126453
138,1317 Lyon St, Hannibal, MO,63401,29,127,960800,-93.62541,38.464354
139,1110 Jones Ave, Eldon, MO,65026,29,131,962900,-93.62541,38.464354
141,400 S Oak St, California, MO,65018,29,135,385200,-92.566403,38.629388
142,800 Lake Dr, California, MO,65018,29,135,385200,-92.561247,38.620954
143,707 E Smith St, California, MO,65018,29,135,385200,-92.561558,38.629506
144,202 W Patrick St, California, MO,65018,29,135,385200,-92.739777,38.010664
145,114 S Jefferson, Neosho, MO,64850,29,145,20100,-92.567789,38.629722
146,301 Big Spring Dr, Neosho, MO,64850,29,145,20100,-92.740425,38.013085
147,800 University Dr, Maryville, MO,64468,29,147,470300,-92.741541,38.015975
150,129 Highway C, Altenburg, MO,63732,29,157,470500,-92.759727,38.000127
151,500 School St, Frankford, MO,63441,29,163,460200,-92.738296,38.003777
152,23526 Pike 9247, Louisiana, MO,63353,29,163,460200,-94.238326,39.742568
153,2001 NW 87th St, Kansas City, MO,64154,29,165,30205,-94.247601,39.742709
155,707 Sinnock Ave, Moberly, MO,65270,29,175,490300,-94.234294,39.755853
156,1078 Bryan Rd, O Fallon, MO,63366,29,183,311712,-94.243682,39.73505
157,8970 Mexico Rd, O Fallon, MO,63366,29,183,311712,-89.546934,37.316486
1823,,,,,,,,-90.954605,38.963792
158,712 Maple St, Farmington, MO,63640,29,187,950902,-89.544205,37.312949
159,905 Maple St, Farmington, MO,63640,29,187,950902,-89.569035,37.335062
160,101 Hyler Dr, Farmington, MO,63640,29,187,950902,-89.570308,37.307862
161,15444 New Halls Ferry Rd, Florissant, MO,63031,29,189,210928,-89.570308,37.307862
162,6200 Howdershell Rd, Hazelwood, MO,63042,29,189,211401,-89.534217,37.289579
163,6255 Howdershell Rd, Hazelwood, MO,63042,29,189,211401,-89.552911,37.314738
164,11222 Olive Blvd, Creve Coeur, MO,63141,29,189,215301,-89.566135,37.291985
165,405 Country Club Dr, Ballwin, MO,63011,29,189,217807,-94.557417,37.161892
166,510 Big Bend Rd, Ballwin, MO,63021,29,189,217932,-89.560704,37.32398
167,497 Big Bend Rd, Ballwin, MO,63021,29,189,217932,-89.526419,37.307084
168,2002 W 32, Joplin, MO,64804,29,97,10900,-94.567519,37.176579
169,1001 W 7th St, Joplin, MO,64801,29,97,11000,-93.494166,39.362092
170,1200 N Main St, Joplin, MO,64801,29,97,11100,-89.548969,37.310182
171,610 W F St, Joplin, MO,64801,29,97,11100,-93.484812,39.373261
172,26230 Fir Rd, Joplin, MO,64801,29,97,11200,-94.440755,37.149979
173,6339 Joplin St, Carl Junction, MO,64834,29,97,11300,-93.508979,39.359977
175,210 E Hall St, Carterville, MO,64835,29,97,11500,-89.655339,36.179186
176,1810 S Baker Blvd, Carthage, MO,64836,29,97,11800,-89.659814,36.185761
177,1814 E Fir Rd, Carthage, MO,64836,29,97,12000,-93.496947,39.363394
178,4215 Old State Route 21, Imperial, MO,63052,29,99,700107,-94.328088,37.157596
179,1000 W 17th St, Kansas City, MO,64108,29,95,15300,-93.885299,36.673647
181,2008 E 12th St, Kansas City, MO,64127,29,95,15400,-90.644341,38.353801
182,610 E 22nd St, Kansas City, MO,64108,29,95,15800,-93.865817,36.683607
183,601 E 12th St, Kansas City, MO,64106,29,95,15900,-94.169774,37.138296
185,2214 E Truman Rd, Kansas City, MO,64127,29,95,16100,-89.652718,37.184822
187,2400 Prospect Ave, Kansas City, MO,64127,29,95,16600,-89.657218,37.177569
188,2905 Wabash Ave, Kansas City, MO,64109,29,95,16600,-93.055988,36.937484
189,3201 Southwest Trfy, Kansas City, MO,64111,29,95,16700,-89.667197,37.162582
190,3930 Baltimore Ave, Kansas City, MO,64111,29,95,16800,-90.582982,38.658996
191,4231 Pennsylvania Ave, Kansas City, MO,0,29,95,16800,-90.635597,38.655238
192,201 Westport Rd, Kansas City, MO,64111,29,95,16800,-90.499195,38.671946
193,9915 E 38th Ter, Kansas City, MO,64133,29,95,17000,-89.341529,36.923355
194,9915 E 38th Ter, Kansas City, MO,64133,29,95,17000,-90.6194,38.665994
195,4600 Elmwood Ave, Kansas City, MO,64130,29,95,17100,-90.499971,38.675256
197,401 E Red Bridge Rd, Kansas City, MO,64131,29,95,17300,-90.581715,38.660386
198,10781 Oak St, Kansas City, MO,64114,29,95,17300,-90.520407,38.623114
199,6800 E Bannister Rd, Kansas City, MO,64134,29,95,17400,-90.613048,38.644833
200,8908 Old Santa Fe Rd, Kansas City, MO,64138,29,95,17400,-90.550079,38.659156
201,9209 Old Santa Fe Rd, Kansas City, MO,64138,29,95,17400,-90.5282,38.669901
202,19401 E US Highway 24, Independence, MO,64056,29,95,17700,-90.57092,38.655426
204,1200 NE Windsor Dr, Lees Summit, MO,64086,29,95,17900,-93.537251,39.792361
205,816 NW Commerce Dr, Lees Summit, MO,64086,29,95,17900,-93.55922,39.797711
206,244 NE Chipman Rd, Lees Summit, MO,64063,29,95,17900,-93.552394,39.788985
207,826 SW Blue Pkwy, Lees Summit, MO,64063,29,95,18000,-93.482062,39.920082
208,604 SW Jefferson St, Lees Summit, MO,64063,29,95,18000,-90.94937,39.291845
209,5021 NE Lakewood Way, Lees Summit, MO,64064,29,95,18500,-90.317997,38.638284
210,5000 NW Valley View Rd, Blue Springs, MO,64015,29,95,19300,-90.328046,38.639181
211,3605 NW Valley View Pl, Blue Springs, MO,64015,29,95,19300,-90.331109,38.651013
212,821 NW Woods Chapel Rd, Blue Springs, MO,64015,29,95,19300,-93.472986,37.0361
213,610 S Forest Ave, Joplin, MO,0,29,97,10100,-93.473228,37.030257
214,5065 N Main St, Joplin, MO,64801,29,97,10200,-93.473228,37.030257
215,5601 N Main St, Joplin, MO,64801,29,97,10200,-90.496575,38.680216
216,2100 Rolla St, Joplin, MO,64801,29,97,10200,-93.774024,38.375532
217,3950 Newman Rd, Joplin, MO,64801,29,97,10300,-93.769154,38.365324
218,3132 E 12th St, Joplin, MO,64801,29,97,10400,-93.780627,38.591
219,4954 E 20th St, Joplin, MO,64801,29,97,10400,-93.766952,38.373125
220,2602 S Wall Ave, Joplin, MO,64804,29,97,10700,-93.209735,38.457277
221,3001 MC Clelland Blvd, Joplin, MO,64804,29,97,10700,-93.782525,38.359793
222,1323 E 28th St, Joplin, MO,64804,29,97,10700,-93.757067,38.382637
223,603 Maple St, Hillsboro, MO,63050,29,99,700502,-92.30481,38.968324
224,1000 Viking Dr, Hillsboro, MO,63050,29,99,700502,-92.342359,38.951456
225,101 Leon Hall Pkwy, Hillsboro, MO,63050,29,99,700502,-92.285764,38.949053
226,6180 Highway MM, House Springs, MO,63051,29,99,700503,-92.331626,38.959524
227,6180 Highway MM, House Springs, MO,63051,29,99,700503,-92.33451,38.915112
228,7063 Highway BB, Cedar Hill, MO,63016,29,99,700504,-92.293516,38.983686
229,450 Bailey Rd, Crystal City, MO,63019,29,99,700700,-92.432157,38.972934
230,600 Mississippi Ave, Crystal City, MO,63019,29,99,700700,-92.393936,38.955799
231,1302 Kenner St, Crystal City, MO,63019,29,99,700802,-92.334098,38.955769
232,821 American Legion Dr, Festus, MO,63028,29,99,700900,-92.321018,38.974954
234,544 Karen Dr, Hillsboro, MO,63050,29,99,701000,-92.32527,38.951457
1824,,,,,,,,-90.991691,38.984539
235,10850 Hwy 21, Hillsboro, MO,63050,29,99,701000,-92.35912,38.959981
236,6008 Highway B, Hillsboro, MO,63050,29,99,701101,-92.334182,38.959434
238,1812 Rock Rd, De Soto, MO,63020,29,99,701200,-92.349305,38.951861
239,1675 Rock Rd, De Soto, MO,63020,29,99,701200,-92.326627,38.989347
240,650 Vineland School Rd, De Soto, MO,63020,29,99,701200,-92.332941,38.954694
241,4485 Sunrise School Rd, De Soto, MO,63020,29,99,701401,-92.338706,38.951522
242,2862 Seckman Rd, Imperial, MO,63052,29,99,700109,-92.335082,38.892232
243,1508 Professional Dr, Imperial, MO,63052,29,99,700109,-92.338567,38.974138
245,3607 Richardson Square Dr, Arnold, MO,63010,29,99,700114,-92.29782,38.937596
246,933 Windsor Harbor Rd, Imperial, MO,63052,29,99,700114,-92.319034,38.990521
247,3642 Telegraph Rd, Arnold, MO,63010,29,99,700115,-92.366078,38.946066
248,4045 Jeffco Blvd, Arnold, MO,63010,29,99,700115,-92.381,38.944194
249,2000 El Lago Dr, Arnold, MO,63010,29,99,700117,-92.307903,38.907395
250,3228 Miller Rd, Arnold, MO,63010,29,99,700117,-92.273016,38.937015
252,17 Municipal Dr, Arnold, MO,63010,29,99,700118,-92.323508,38.949351
254,1201 Saline Rd, Fenton, MO,63026,29,99,700210,-92.319831,38.956589
257,2713 Capetown Village Rd, High Ridge, MO,63049,29,99,700304,-92.297219,38.98719
260,1119 E High, Aurora, MO,65605,29,109,470602,-92.33714,38.959998
261,188 Tomahawk Dr, Elsberry, MO,63343,29,113,810100,-92.384407,38.958159
262,287 Lovelace Ln, Elsberry, MO,63343,29,113,810100,-92.324709,38.961228
263,106 W 4th St, Holden, MO,64040,29,101,960200,-92.307837,38.921338
264,59 NE D Hwy, Knob Noster, MO,65336,29,101,960700,-92.326133,38.913071
265,402 Angus Ln, Knob Noster, MO,65336,29,101,960700,-92.376736,38.95758
266,806 S State St, Knob Noster, MO,65336,29,101,960700,-92.28259,39.002748
268,502 E Lucas St, Knob Noster, MO,65336,29,101,960700,-92.331501,38.95913
269,101 MO 2, Chilhowee, MO,64733,29,101,960900,-92.353667,38.913177
270,600 N Main St, Leeton, MO,64761,29,101,960900,-92.330435,38.960585
271,500 N Main St, Leeton, MO,64761,29,101,960900,-92.318263,38.956695
272,401 N 1st St, Edina, MO,63537,29,103,960200,-92.302204,38.993894
273,28461 Highway 5, Lebanon, MO,65536,29,105,960300,-92.342296,38.957685
274,22951 Professional Ln, Lebanon, MO,65536,29,105,960500,-92.331745,38.953727
275,511 Harrison Ave, Lebanon, MO,65536,29,105,960600,-92.338733,38.912263
276,811 S 13th St, Lexington, MO,64067,29,107,90100,-92.264624,38.979032
277,715 Main St, Higginsville, MO,64037,29,107,90200,-92.375021,38.981813
278,624 S 20th St, Lexington, MO,64067,29,107,90200,-92.347445,38.956562
279,735 S 13th St, Lexington, MO,64067,29,107,90200,-92.304243,38.95304
280,15 E 22nd St, Higginsville, MO,64037,29,107,90400,-92.364792,38.961519
281,10733 Hwy 39, Mount Vernon, MO,65712,29,109,470200,-92.295524,38.916679
282,97 Smithson Dr, Cassville, MO,65625,29,9,960500,-92.323558,38.997097
283,1501 Main St, Cassville, MO,65625,29,9,960500,-92.340976,38.964347
284,400 Main St, Golden City, MO,64748,29,11,960100,-92.372795,38.946776
285,401 E Yale, Liberal, MO,64762,29,11,960200,-92.315624,38.960189
286,801 E 12th St, Lamar, MO,64759,29,11,960300,-92.341734,38.909181
288,220 Skyline Dr, Adrian, MO,64720,29,13,70100,-92.322554,38.961124
289,618 N Ohio St, Adrian, MO,64720,29,13,70100,-90.428642,38.671864
290,311 W 1st St, Adrian, MO,64720,29,13,70100,-92.265384,37.943728
291,600 Rombauer Ave, Novinger, MO,63559,29,1,950200,-90.475248,38.683974
292,1123 N Osteopathy, Kirksville, MO,63501,29,1,950500,-90.383546,38.217674
293,416 W Hickory St, Kirksville, MO,63501,29,1,950500,-90.389532,38.230986
294,915 W Locust St, Kirksville, MO,63501,29,1,950500,-91.424394,38.186908
295,1405 S Cottage Grove Ave, Kirksville, MO,63501,29,1,950500,-90.377743,38.226087
297,21080 Osage St, Helena, MO,64459,29,3,10400,-92.300918,38.953075
298,35063 Highway BB, Laddonia, MO,63352,29,7,950200,-91.410039,38.061014
299,409 W Love St, Mexico, MO,65265,29,7,950500,-90.564038,38.151577
300,307 W Jackson St, Mexico, MO,65265,29,7,950500,-90.573817,38.140514
301,801 E Breckenridge St, Mexico, MO,65265,29,7,950700,-91.405927,38.062083
302,704 W Boulevard St, Mexico, MO,65265,29,7,950700,-90.572479,38.140065
304,6157 E Forsee Rd, Ashland, MO,65010,29,19,1701,-90.550073,38.045207
305,701 E Liberty Ln, Ashland, MO,65010,29,19,1701,-90.569469,38.126346
306,600 S Henry Clay Blvd, Ashland, MO,65010,29,19,1701,-90.473876,38.123604
307,303 N Main St, Ashland, MO,65010,29,19,1701,-90.771635,38.707212
308,407 North St, Ashland, MO,65010,29,19,1701,-90.462694,38.604106
309,5151 S Highway 163, Columbia, MO,65203,29,19,1702,-90.519195,37.88007
310,6405 Highway 40 W, Columbia, MO,65202,29,19,1803,-90.526506,37.877037
311,405 E Hwy 124, Hallsville, MO,65255,29,19,1902,-89.968756,36.80172
312,701 Washington Ave, Columbia, MO,65201,29,19,2100,-94.773087,39.52328
314,705 N Providence Rd, Columbia, MO,65203,29,19,2100,-89.971131,36.810802
315,403 Park Ave, Columbia, MO,65201,29,19,2100,-89.969139,36.792733
318,600 Wilkes Blvd, Columbia, MO,65201,29,19,2100,-94.314913,36.991852
319,404 McBaine Ave, Columbia, MO,65203,29,19,2100,-94.605296,38.478262
320,505 E Ash St, Columbia, MO,65201,29,19,2100,-89.957955,36.796906
322,500 S Keeney St, Cole Camp, MO,65325,29,15,460100,-92.33584,38.892878
325,205 Highview Ave, Columbia, MO,65203,29,19,900,-89.387261,36.779783
326,1609 Paris Rd, Columbia, MO,65201,29,19,900,-89.383097,36.78088
327,1002 Fay St, Columbia, MO,65201,29,19,900,-92.175225,40.171461
328,2616 Shepard Blvd, Columbia, MO,65201,29,19,1001,-89.384591,36.780174
329,2311 E Walnut St, Columbia, MO,65201,29,19,1001,-94.021302,37.879928
330,3003 Falling Leaf Ct, Columbia, MO,65201,29,19,1001,-94.021786,37.870344
331,2505 E Walnut St, Columbia, MO,65201,29,19,1001,-94.020437,37.870203
332,9 Dorado Dr, Columbia, MO,65201,29,19,1002,-90.573744,38.606324
333,1100 S Roseta Ave, Columbia, MO,65201,29,19,1002,-92.565949,38.351906
334,3210 S Providence Rd, Columbia, MO,65203,29,19,1101,-90.597083,38.57994
335,2200 Nifong Blvd, Columbia, MO,65201,29,19,1101,-90.747158,36.937368
336,2505 Old 63 S, Columbia, MO,65201,29,19,1101,-90.795219,39.162366
337,800 Gray Oak Dr, Columbia, MO,65201,29,19,1101,-90.786923,39.177483
339,102 Sieville Ave, Columbia, MO,65203,29,19,1103,-90.648383,38.504275
341,5155 S Providence Rd, Columbia, MO,65203,29,19,1104,-90.63147,38.504468
342,4006 W Broadway, Columbia, MO,65203,29,19,1300,-94.240861,39.345585
343,201 Park de Ville Dr, Columbia, MO,65203,29,19,1300,-90.629244,38.501774
344,2416 W Ash St, Columbia, MO,65203,29,19,1300,-94.228222,39.337856
345,606 Claudell Ln, Columbia, MO,65203,29,19,1300,-94.234995,39.356323
346,3900 White Tiger Ln, Columbia, MO,65202,29,19,1400,-94.244666,39.338547
347,111 Parkade Blvd, Columbia, MO,65202,29,19,1400,-94.227227,39.340441
348,2601 N Stadium Blvd, Columbia, MO,65202,29,19,1400,-93.155315,37.376804
349,1626 Towne Dr, Columbia, MO,65202,29,19,1502,-93.706179,37.346189
350,4914 Prairieridge St, Columbia, MO,65202,29,19,1503,-93.576157,37.634233
351,3309 N Brown Station Rd, Columbia, MO,65202,29,19,1504,-93.576157,37.634233
352,1400 Elleta Blvd, Columbia, MO,65202,29,19,1504,-90.40181,37.797353
353,4000 Derby Ridge Dr, Columbia, MO,65202,29,19,1504,-92.564544,38.357906
355,2401 Thornberry Dr, Columbia, MO,65202,29,19,1504,-90.406509,37.779521
356,4470 N Highway 763, Columbia, MO,65202,29,19,1504,-90.431239,37.786052
357,2700 N Ballenger Ln, Columbia, MO,65202,29,19,1601,-90.434367,37.786489
358,7650 NW Harley Rd, Hamilton, MO,64644,29,25,950200,-93.151334,37.385448
359,501 W Samuel St, Hamilton, MO,64644,29,25,950200,-90.406497,37.779552
360,5893 County Rd 148, Kingdom City, MO,65262,29,27,70100,-90.452899,37.816973
362,1805 Wood St, Fulton, MO,65251,29,27,70300,-90.414514,37.780658
364,640 Gaylord Dr, Fulton, MO,65251,29,27,70400,-90.455123,37.768312
365,1871 County Road 358, Fulton, MO,65251,29,27,70500,-90.418719,37.781304
366,6637 Miranda Loop, Fulton, MO,65251,29,27,70500,-90.439936,37.773771
367,3037 Lexington Ave, Cape Girardeau, MO,63701,29,31,881200,-90.474393,38.498603
368,1215 N Kingshighway St, Cape Girardeau, MO,63701,29,31,881200,-92.689305,39.139672
369,6 Girardeau Ct, Cape Girardeau, MO,63703,29,31,881300,-90.451989,38.542536
370,6 Girardeau Ct, Cape Girardeau, MO,63703,29,31,881300,-90.47216,38.522546
371,254 S Silver Springs Rd, Cape Girardeau, MO,63703,29,31,881500,-90.489619,38.529721
372,306 N Jefferson St, Carrollton, MO,64633,29,33,960300,-90.459473,38.490132
373,1202 N US Highway 65, Carrollton, MO,64633,29,33,960300,-90.469316,38.523198
374,108 Walnut Dr, Carrollton, MO,64633,29,33,960300,-90.301607,38.731721
375,212 N Folger St, Carrollton, MO,64633,29,33,960300,-90.397925,38.20591
376,63 N Herren Ave, Ellsinore, MO,63937,29,35,960100,-90.413518,38.217622
1793,,,,,,,,-89.824475,36.081932
377,405 Westover Rd, Belton, MO,64012,29,37,60001,-90.413426,38.222387
379,109 W Cambridge Rd, Belton, MO,64012,29,37,60202,-90.323506,38.781141
380,614 Mill St, Belton, MO,64012,29,37,60202,-90.492664,38.504101
381,550 Karen Dr, Holts Summit, MO,65043,29,27,70700,-90.358063,38.808363
382,618 Halifax Rd, Holts Summit, MO,65043,29,27,70700,-90.4162,38.225832
383,482 Karen Dr, Holts Summit, MO,65043,29,27,70700,-90.32928,38.800292
384,285 S Summit Dr, Holts Summit, MO,65043,29,27,70800,-90.310449,38.827187
385,6088 St Moritz Dr, Osage Beach, MO,65065,29,29,950200,-90.288617,38.79467
386,88 3rd St, Camdenton, MO,65020,29,29,950400,-90.296815,38.807635
387,455 3rd St, Camdenton, MO,65020,29,29,950400,-90.363397,38.803025
388,115 Hickory St, Camdenton, MO,65020,29,29,950500,-90.293565,38.780708
389,765 W US Highway 54, Camdenton, MO,65020,29,29,950500,-90.320629,38.791619
390,190 Rodeo Rd, Camdenton, MO,65020,29,29,950500,-90.326123,38.794184
391,245 State Rd N, Macks Creek, MO,65786,29,29,950800,-90.294769,38.802593
392,6409 S MO 7, Montreal, MO,65591,29,29,950900,-90.344156,38.792116
394,190 Bavarian Rdg, Jackson, MO,63755,29,31,880400,-90.354998,38.806502
395,234 N Sprigg St, Cape Girardeau, MO,63701,29,31,881000,-90.238177,38.797697
397,2003 NE Englewood Rd, Kansas City, MO,64118,29,47,20300,-90.320263,38.830516
399,4433 N Topping Ave, Kansas City, MO,64117,29,47,20604,-90.344237,38.805643
400,4735 N Brighton Ave, Kansas City, MO,64117,29,47,20604,-90.319874,38.815308
401,7 Victory Dr, Liberty, MO,64068,29,47,20801,-90.293214,38.800174
402,1004 Wilshire Blvd, Liberty, MO,64068,29,47,20801,-90.300312,38.811229
403,5026 N Brighton Ave, Kansas City, MO,64119,29,47,20901,-90.317537,38.821364
404,1904 NE Englewood Rd, Gladstone, MO,64118,29,47,21004,-92.938707,37.158631
405,6968 N Broadway St, Gladstone, MO,64118,29,47,21101,-92.947475,37.158351
406,404 NE 76th St, Gladstone, MO,64118,29,47,21101,-90.958957,38.816056
407,7260 NE Antioch Rd, Gladstone, MO,64119,29,47,21103,-90.956031,38.814792
408,4008 NE Barry Rd, Kansas City, MO,64156,29,47,21205,-90.325094,38.825012
409,900 NE Barry Rd, Kansas City, MO,64155,29,47,21205,-90.330943,38.791922
410,9333 N Oak Trfy, Kansas City, MO,64155,29,47,21205,-90.281763,37.553367
411,3100 NE 83rd St, Kansas City, MO,64119,29,47,21206,-90.280742,37.563677
412,3100 NE 83rd St, Kansas City, MO,64119,29,47,21206,-91.319114,39.495628
413,8630 N Oak Trfy, Kansas City, MO,64155,29,47,21207,-90.28351,37.554869
414,9071 NE 81st Ter, Kansas City, MO,64158,29,47,21307,-92.126695,38.901192
415,2305 E South St, Harrisonville, MO,64701,29,37,60800,-91.953322,38.866748
416,207 S 4th St, Drexel, MO,64742,29,37,61100,-91.945123,38.880904
417,302 W State Route A, Archie, MO,64725,29,37,61200,-90.282261,37.556194
418,406 S Main St, Archie, MO,64725,29,37,61200,-91.935568,38.865145
419,508 N Main St, El Dorado Springs, MO,64744,29,39,870200,-91.926896,38.76754
420,107 E Fields Blvd, El Dorado Springs, MO,64744,29,39,870200,-91.969942,38.850563
422,412 N Public Ave, Clever, MO,65631,29,43,20102,-91.989585,38.820339
423,103 S Public Ave, Clever, MO,65631,29,43,20102,-90.272689,38.81732
424,103 S Public Ave, Clever, MO,65631,29,43,20102,-91.322271,38.406551
425,1879 N State Highway CC, Nixa, MO,65714,29,43,20203,-94.190819,38.562993
426,312 N Market St, Nixa, MO,65714,29,43,20203,-94.557268,39.195509
427,732 E North St, Nixa, MO,65714,29,43,20203,-94.585443,39.220969
428,245 Downing St, Nixa, MO,65714,29,43,20203,-94.562541,39.20123
430,208 S Main St, Nixa, MO,65714,29,43,20204,-94.577321,39.200676
431,301 S Main St, Nixa, MO,65714,29,43,20204,-92.837549,39.229575
432,605 S Gregg Rd, Nixa, MO,65714,29,43,20205,-94.534685,39.224985
433,220 S Gregg Rd, Nixa, MO,65714,29,43,20205,-94.575872,39.231946
435,757 3rd St, Boonville, MO,65233,29,53,950300,-92.836706,39.226774
436,16711 Oak Ridge Rd, Boonville, MO,65233,29,53,950300,-94.090051,37.392985
437,385 Ashley Rd, Boonville, MO,65233,29,53,950300,-94.214175,39.03934
438,201 Rutz Rd, Cuba, MO,65453,29,55,450101,-94.20363,39.010087
439,279 Pine St, Bourbon, MO,65441,29,55,450102,-94.203924,39.021295
440,427 E Kansas Ave, Liberty, MO,64068,29,47,21401,-94.197639,39.028512
442,101 N Clayview Dr, Liberty, MO,64068,29,47,21404,-94.250213,36.91499
443,3 Westowne St, Liberty, MO,64068,29,47,21404,-94.256556,36.90999
445,1225 N Jesse James Rd, Excelsior Springs, MO,64024,29,47,21701,-94.532721,38.887431
446,1452 Kearney Rd, Excelsior Springs, MO,64024,29,47,21701,-94.521896,38.85252
447,501 Leavenworth St, Excelsior Springs, MO,64024,29,47,21702,-94.513011,38.877735
448,416 S Kansas City Ave, Excelsior Springs, MO,64024,29,47,21702,-94.520775,38.890834
450,205 Southbrook Pkwy, Kearney, MO,64060,29,47,21805,-90.838136,38.499708
454,2551 Clay Edwards Dr, North Kansas City, MO,64116,29,47,22100,-93.413299,38.620812
455,2901 Rockcreek Pkwy, North Kansas City, MO,64117,29,47,22100,-94.346407,38.851577
456,2701 Burlington St, North Kansas City, MO,64116,29,47,22100,-94.343938,38.851617
457,3200 Ameristar Dr, Kansas City, MO,64161,29,47,22200,-94.354797,38.851881
458,3250 Ameristar Dr, Kansas City, MO,64161,29,47,22200,-92.311999,39.119836
459,650 E Ruth Ewing Rd, Liberty, MO,64068,29,47,22301,-94.002951,39.754297
460,2810 E McCarty St, Jefferson City, MO,65101,29,51,10300,-94.00327,39.746097
461,1229 E McCarty St, Jefferson City, MO,65101,29,51,10300,-92.951321,40.272347
462,2702 E McCarty St, Jefferson City, MO,65101,29,51,10300,-91.393789,39.699821
463,603 Ellis Blvd, Jefferson City, MO,65101,29,51,10400,-91.380545,39.689435
464,2113 Schotthill Woods Dr, Jefferson City, MO,65101,29,51,10400,-91.380449,39.689423
465,1410 Hough Park Rd, Jefferson City, MO,65101,29,51,10400,-91.365687,39.705445
466,312 Stadium Blvd, Jefferson City, MO,65101,29,51,10500,-92.601319,37.404723
467,1448 Aaron Ct, Jefferson City, MO,65101,29,51,10500,-91.39074,39.687522
468,424 Stadium Blvd, Jefferson City, MO,65101,29,51,10500,-91.446949,39.705174
470,1115 Fairgrounds Rd, Jefferson City, MO,65109,29,51,10701,-94.35325,38.645934
471,1108 Fairgrounds Rd, Jefferson City, MO,65109,29,51,10701,-94.330553,38.646059
472,925 S Country Club Dr, Jefferson City, MO,65109,29,51,10701,-92.480788,39.146918
474,1950 Rolling Hills Dr, Jefferson City, MO,65109,29,51,10702,-91.368583,39.702784
475,1914 Southridge Dr, Jefferson City, MO,65109,29,51,10702,-89.749678,36.231055
476,2003 Southridge Dr, Jefferson City, MO,65109,29,51,10702,-90.377214,38.783338
477,2411 Allison Dr, Jefferson City, MO,65109,29,51,10702,-90.33533,38.770052
478,1510 Vieth Dr, Jefferson City, MO,65109,29,51,10702,-90.380248,38.78297
479,116 Commerce Dr, Jefferson City, MO,65109,29,51,10800,-90.37148,38.781606
480,3525 Country Club Dr, Jefferson City, MO,65109,29,51,10800,-90.357101,38.784073
481,136 Scott Station Rd, Jefferson City, MO,65109,29,51,10800,-90.379584,38.783591
482,601 Scott Station Rd, Jefferson City, MO,65109,29,51,10800,-90.357,38.784149
483,2500 Country Club Dr, Jefferson City, MO,65109,29,51,10800,-90.35924,38.790751
484,701 Belair Dr, Jefferson City, MO,65109,29,51,10900,-90.3699,38.796087
485,100 DIX Rd, Jefferson City, MO,65109,29,51,10900,-94.651672,39.914381
488,6124 Falcon Ln, Jefferson City, MO,65101,29,51,20200,-93.313238,37.940339
490,1128 S Ash St, Buffalo, MO,65622,29,59,480200,-93.318595,37.942072
491,315 S Hickory St, Buffalo, MO,65622,29,59,480200,-93.716716,39.089547
492,221 Elder, Buffalo, MO,65622,29,59,480200,-91.443911,38.70039
493,1903 N Walnut St, Cameron, MO,64429,29,63,80100,-93.716904,39.072885
494,206 S Hillcrest Dr, Maysville, MO,64469,29,63,80100,-90.525129,38.468113
495,507 SE 3rd St, Ava, MO,65608,29,67,950500,-90.535941,38.457574
496,903 W Washington St, Cuba, MO,65453,29,55,450302,-90.493648,38.486458
497,401 W Washington St, Cuba, MO,65453,29,55,450302,-90.561945,38.227643
498,211 W School St, Everton, MO,65646,29,57,480100,-90.564588,38.229724
499,105 N Van Buren St, Albany, MO,64402,29,75,960100,-90.555416,38.25842
500,202 S East St, Albany, MO,64402,29,75,960100,-90.562714,38.237999
501,300 N Grand St, King City, MO,64463,29,75,960200,-93.989994,38.715862
502,1100 Homecrest St, Kennett, MO,63857,29,69,360500,-93.194077,36.623483
503,803 S Jackson St, Kennett, MO,63857,29,69,360700,-90.618254,38.251754
504,601 Emerson St, Kennett, MO,63857,29,69,360700,-90.570912,38.225043
505,3251 Highway MM, Gray Summit, MO,63039,29,71,800100,-93.233655,36.607955
506,443 Charles Cook Plz, New Haven, MO,63068,29,71,800401,-92.117839,38.639507
507,200 Circle Dr, New Haven, MO,63068,29,71,800401,-92.116838,38.637833
508,3200 Hwy 50, Beaufort, MO,63013,29,71,800500,-92.1179,38.641254
509,450 E Fitzgerald Ave, Gerald, MO,63037,29,71,800500,-92.117416,38.651541
512,803 S 24th St, Bethany, MO,64424,29,81,950300,-91.957447,37.32448
513,206 W 7th St, Calhoun, MO,65323,29,83,950200,-91.960993,37.311171
514,409 S College St, Calhoun, MO,65323,29,83,950200,-90.557684,38.422117
515,409 S College St, Calhoun, MO,65323,29,83,950200,-90.557431,38.402369
516,163 W Saddle Club Rd, Fair Grove, MO,65648,29,77,4600,-90.557431,38.402369
517,103 N Main St, Fair Grove, MO,65648,29,77,4600,-89.591009,36.569755
519,117 S Calhoun Ave, Ash Grove, MO,65604,29,77,5001,-92.546742,39.439596
520,100 S Maple Ln, Ash Grove, MO,65604,29,77,5001,-90.481258,38.420429
521,321 S Knob St, Ironton, MO,63650,29,93,950300,-92.295027,38.089749
523,408 W Rogers St, Clinton, MO,64735,29,83,950500,-90.4332,38.400413
524,502 S 5th St, Clinton, MO,64735,29,83,950600,-90.371522,38.362169
525,619 E Lincoln St, Clinton, MO,64735,29,83,950600,-90.384411,38.395786
526,1003 Clark St, Clinton, MO,64735,29,83,950600,-94.406384,39.08957
527,302 E Polk St, Hermitage, MO,65668,29,85,470300,-94.377783,39.114452
528,105 Oak St, Hermitage, MO,65668,29,85,470300,-90.388574,38.36309
529,1530 Nebraska St, Mound City, MO,64470,29,87,960200,-94.347858,39.133085
530,860 Randolph St, Glasgow, MO,65254,29,89,960100,-94.380905,39.072298
531,718 8th St, Glasgow, MO,65254,29,89,960100,-94.37712,39.067104
532,103 Furr St, Fayette, MO,65248,29,89,960300,-94.415974,39.125476
533,122 S Jackson St, Mountain View, MO,65548,29,91,90200,-94.414642,39.060494
534,1402 E US 60, Mountain View, MO,65548,29,91,90200,-94.37435,39.119818
536,8900 Manchester Rd, Brentwood, MO,63144,29,189,217400,-94.457749,39.11049
537,13133 Manchester Rd, Des Peres, MO,63131,29,189,217701,-94.362463,39.106746
538,459 Lafayette Ctr, Manchester, MO,63011,29,189,217802,-94.374668,39.112379
539,230 Henry Ave, Manchester, MO,63011,29,189,217802,-94.39765,39.049474
540,930 Kehrs Mill Rd, Ballwin, MO,63011,29,189,217806,-94.379026,39.075301
541,2275 Village Green Pkwy, Chesterfield, MO,63017,29,189,217842,-94.406464,39.087853
542,15642 Clayton Rd, Ellisville, MO,63011,29,189,217852,-94.425565,39.054385
543,412 Old State Rd, Ellisville, MO,63021,29,189,217921,-94.425565,39.054385
545,354 New Ballwin Rd, Ballwin, MO,63021,29,189,217923,-94.402492,39.042441
547,655 Wren Ave, Ballwin, MO,63021,29,189,217941,-94.415974,39.125476
548,1108 Sulphur Spring Rd, Manchester, MO,63021,29,189,217941,-94.373008,39.072475
549,720 Hanna Rd, Manchester, MO,63021,29,189,217941,-94.412442,39.107285
550,115 N Martha St, Marquand, MO,63655,29,123,960100,-94.39765,39.049474
552,600 S Chamber Dr, Fredericktown, MO,63645,29,123,960200,-94.402492,39.042441
553,323 N Chamber Dr, Fredericktown, MO,63645,29,123,960200,-94.337645,39.091113
554,400 Graham Dr, Fredericktown, MO,63645,29,123,960200,-94.437802,39.063577
555,400 S Chamber Dr, Fredericktown, MO,63645,29,123,960200,-94.39079,39.071489
556,402 W 3rd St, Belle, MO,0,29,125,880100,-94.406464,39.087853
557,408 Oak Ave, Belle, MO,65013,29,125,880100,-94.39079,39.071489
558,850 New Ballwin Rd, Ballwin, MO,63021,29,189,217944,-94.374668,39.112379
559,2809 Barrett Station Rd, Ballwin, MO,63021,29,189,218011,-94.412442,39.107285
560,2005 Dougherty Ferry Rd, Kirkwood, MO,63122,29,189,218401,-94.455559,39.077998
563,1481 Hawkins Rd, Fenton, MO,63026,29,189,221422,-94.433604,39.084442
564,570 S Highway Dr, Fenton, MO,63026,29,189,221423,-94.377783,39.114452
565,600 Top Notch Ln, Eureka, MO,63025,29,189,221502,-94.43694,39.080042
566,213 Walton Dr, Eureka, MO,63025,29,189,221503,-94.375969,39.048594
567,138 S Virginia Ave, Eureka, MO,63025,29,189,221503,-90.626563,37.597822
568,150 Medical Dr, Hannibal, MO,63401,29,127,960100,-94.373008,39.072475
569,661 Clinic Rd, Hannibal, MO,63401,29,127,960900,-89.675166,37.393335
571,2161 Johnson St, Hannibal, MO,63401,29,127,960900,-89.653654,37.432868
572,3101 Market St, Hannibal, MO,63401,29,127,960900,-89.660052,37.376663
573,210 W Depot St, Huntsville, MO,65259,29,175,490200,-89.653539,37.380844
574,2172 Highway JJ, Moberly, MO,65270,29,175,490400,-92.219086,38.552031
575,1416 E McKinsey St, Moberly, MO,65270,29,175,490500,-92.119429,38.552318
577,241 Hill St, Fordland, MO,65652,29,225,470402,-92.288747,38.569509
578,871 North St, Fordland, MO,65652,29,225,470402,-92.158045,38.564883
579,9457 Highway 5, Grovespring, MO,65662,29,229,490100,-92.184162,38.571197
580,8939 Highway 95, Mountain Grove, MO,65711,29,229,490100,-92.185394,38.579667
582,604 W Commercial St, Mansfield, MO,65704,29,229,490300,-92.059117,38.515194
583,507 W 5th St, Mountain Grove, MO,65711,29,229,490400,-92.169759,38.569035
584,1 YMCA Dr, Mountain Grove, MO,65711,29,229,490400,-92.202269,38.553393
585,920 N Main St, Mountain Grove, MO,65711,29,229,490400,-92.167478,38.566953
586,16554 Clayton Rd, Ballwin, MO,63011,29,189,221626,-92.27079,38.570402
587,1633 Kehrs Mill Rd, Chesterfield, MO,63005,29,189,221627,-92.225747,38.594102
588,15405 Olive Blvd, Chesterfield, MO,63017,29,189,221628,-92.194185,38.581815
589,16464 Burkhardt Pl, Chesterfield, MO,63017,29,189,221628,-92.250748,38.584043
590,16629 Wild Horse Creek Rd, Chesterfield, MO,63005,29,189,221629,-92.180156,38.582625
591,17661 Wild Horse Creek Rd, Chesterfield, MO,63005,29,189,221629,-92.085447,38.533326
592,200 Chesterfield Business Pkwy, Chesterfield, MO,63005,29,189,221629,-92.190674,38.551276
593,16801 Baxter Rd, Chesterfield, MO,63005,29,189,221629,-92.190458,38.576219
594,101 W Normal St, Iberia, MO,65486,29,131,962500,-92.168206,38.572219
595,81 N Shore Dr, Lake Ozark, MO,65049,29,131,962700,-92.270756,38.570215
596,2624 Bagnell Dam Blvd, Lake Ozark, MO,65049,29,131,962800,-92.148489,38.547395
597,1501 School Rd, Lake Ozark, MO,0,29,131,962800,-92.252349,38.59246
598,2881 Bagnell Dam Blvd, Lake Ozark, MO,65049,29,131,962800,-92.256835,38.601286
599,1501 School Rd, Lake Ozark, MO,0,29,131,962800,-92.18645,38.579433
600,100 Kirkham St, Orrick, MO,64077,29,177,80300,-94.384406,39.034383
601,316 N Jefferson Ave, Marshall, MO,65340,29,195,90300,-92.264791,38.577651
602,411 N Benton Ave, Marshall, MO,65340,29,195,90300,-92.182672,38.563796
603,1498 Lexington Ave, Marshall, MO,65340,29,195,90500,-92.223949,38.582743
605,611 N Main St, Chaffee, MO,63740,29,201,780200,-92.120923,38.553296
606,129 Gray Ave, Chaffee, MO,63740,29,201,780200,-92.185394,38.579667
608,711 E Commercial St, Charleston, MO,63834,29,133,950200,-92.20507,38.551443
609,121 E Pine St, East Prairie, MO,63845,29,133,950400,-92.217674,38.539458
610,409 N Martin St, East Prairie, MO,63845,29,133,950400,-92.187259,38.560288
611,115 N Lincoln St, East Prairie, MO,63845,29,133,950400,-92.181161,38.562732
612,309 3rd St, Monroe City, MO,63456,29,137,960100,-92.215465,38.595622
613,3450 Pheasant Meadow Dr, O Fallon, MO,63368,29,183,311124,-92.173538,38.492955
614,309 S Thomas St, Madison, MO,65263,29,137,960300,-92.209003,38.56256
615,1060 N Walker St, Montgomery City, MO,63361,29,139,970200,-92.270743,38.570474
616,908 S Sturgeon St, Montgomery City, MO,63361,29,139,970200,-94.395189,39.104182
617,7375 Weldon Springs Rd, O Fallon, MO,63368,29,183,311151,-92.201998,38.590355
618,2650 Tri Sprots Cir, O Fallon, MO,63368,29,183,311152,-90.267706,38.712016
619,7068 S Outer Rd 364, O Fallon, MO,63368,29,183,311152,-92.177344,38.564515
620,4088 Winghaven Blvd, O Fallon, MO,63368,29,183,311153,-90.27125,38.725274
621,7767 Highway N, O Fallon, MO,63368,29,183,311153,-90.252965,38.729569
622,7778 Winghaven Blvd, O Fallon, MO,63368,29,183,311153,-94.510776,37.120857
623,9008 Phoenix Pkwy, O Fallon, MO,63368,29,183,311153,-92.170267,38.551657
624,9983 Winghaven Blvd, O Fallon, MO,63368,29,183,311153,-94.474448,37.077975
625,7104 Twin Chimneys Blvd, O Fallon, MO,63368,29,183,311154,-94.523048,37.071984
626,7396 Twin Chimneys Blvd, O Fallon, MO,63368,29,183,311154,-94.514292,37.068106
627,916 Withrow Dr, Oran, MO,63771,29,201,780300,-94.566897,37.144176
628,27991 Rock Ave, Bell City, MO,63735,29,207,470100,-94.520973,37.07061
629,615 N Prairie St, Bloomfield, MO,63825,29,207,470300,-94.512823,37.102098
631,864 Homefield Blvd, O Fallon, MO,63366,29,183,311601,-94.516804,37.062226
632,140 TR Hughes Blvd, O Fallon, MO,63366,29,183,311601,-94.495115,37.054596
633,900 Homefield Blvd, O Fallon, MO,63366,29,183,311601,-94.46126,37.097994
634,220 Sonderen St, O Fallon, MO,63366,29,183,311602,-94.514182,37.05247
635,128 E Elm St, O Fallon, MO,63366,29,183,311602,-94.511312,37.125112
636,610 Prince Ruppert Dr, O Fallon, MO,63366,29,183,311602,-94.449482,37.069195
637,401 Glengate Estates Dr, O Fallon, MO,63366,29,183,311722,-94.538518,37.055351
638,9295 Mexico Rd, O Fallon, MO,63366,29,183,311722,-94.489842,37.106761
640,200 Meriwether Lewis Dr, O Fallon, MO,63368,29,183,311732,-94.479676,37.078252
642,206 McDonald Ln, O Fallon, MO,63366,29,183,311734,-94.514352,37.044331
643,2796 Highway K, O Fallon, MO,63368,29,183,311735,-94.518663,37.098619
644,123 Hutchings Farm Dr, O Fallon, MO,63368,29,183,311735,-94.532205,37.057208
645,2688 Highway K, O Fallon, MO,63368,29,183,311735,-94.524307,37.084402
646,1075 Highway P, O Fallon, MO,63366,29,183,311801,-94.500922,37.059442
648,203 W 3rd St, O Fallon, MO,63366,29,183,311802,-94.575023,39.099588
649,10390 Veterans Memorial Pkwy, Lake Saint Louis, MO,63367,29,183,311904,-94.556986,38.997673
650,1880 Henke Rd, Lake Saint Louis, MO,0,29,183,311904,-94.593031,38.920637
651,1306 Feise Rd, O Fallon, MO,63368,29,183,311904,-94.566357,39.012983
652,1031 Bryan Rd, O Fallon, MO,63366,29,183,311907,-94.49058,37.08486
653,808 Chautauqua Ln, Dexter, MO,63841,29,207,470600,-91.718711,40.421396
654,512 MO 13, Blue Eye, MO,65611,29,209,90400,-94.529567,39.081994
655,6916 US Hwy 61, Howardville, MO,0,29,143,960300,-94.564514,39.068383
656,801 Main St, New Madrid, MO,63869,29,143,960300,-94.575716,39.086424
657,1120 Carl Sweeney Pkwy, Neosho, MO,64850,29,145,20200,-94.558754,39.007225
659,401 S Main St, Diamond, MO,64840,29,145,20400,-94.557741,38.983372
660,3208 Finley Ave, Joplin, MO,64804,29,145,20501,-94.531658,39.245766
661,1000 Wyndgate Ridge Dr, Lake Saint Louis, MO,63367,29,183,311908,-94.584461,39.069209
662,2998 Technology Dr, Lake Saint Louis, MO,63367,29,183,311909,-94.600874,39.167082
663,2240 Lake Saint Louis Blvd, Lake Saint Louis, MO,63367,29,183,311909,-94.543115,39.081721
664,161 N Main St, Foristell, MO,63348,29,183,312097,-94.493478,38.962194
665,57 Highway T, Foristell, MO,63348,29,183,312097,-94.595191,38.973503
666,107 Crevis Rd, Reeds Spring, MO,65737,29,209,90602,-94.595341,38.972689
667,301 Northeast St, Green City, MO,63545,29,211,480100,-94.54258,39.105959
668,306 N Main St, Newtown, MO,64667,29,211,480200,-94.51891,39.104293
669,370 S Market St, Milan, MO,63556,29,211,480300,-94.555348,39.022579
670,115 E Grand Ave, Milan, MO,63556,29,211,480300,-94.569777,39.111909
671,402 Cedar Ridge Dr, Branson, MO,65616,29,213,480201,-94.540496,39.102071
672,414 Buchanan Rd, Branson, MO,65616,29,213,480201,-94.568493,39.246412
673,1000 Buchanan Rd, Branson, MO,65616,29,213,480201,-94.539787,39.047667
674,404 Cedar Ridge Dr, Branson, MO,65616,29,213,480201,-94.574478,39.032725
675,101 Plaza Dr, Joplin, MO,64804,29,145,20502,-94.411009,39.033681
676,101 E 41st St, Joplin, MO,64804,29,145,20502,-94.507758,38.931739
677,750 National Guard Rd, Neosho, MO,64850,29,145,20800,-94.595315,38.967911
679,7441 Westview Rd, Neosho, MO,64850,29,145,20800,-94.570827,39.058728
680,12350 Norway Rd, Neosho, MO,64850,29,145,20800,-94.556621,39.062444
682,550 Fortune Teller Rd, Granby, MO,64844,29,145,20900,-94.585254,39.071008
683,712 S Main St, Granby, MO,64844,29,145,20900,-94.562382,39.062887
684,3925 Highway D, Defiance, MO,63341,29,183,980000,-94.509183,38.952535
685,409 E Dover St, Appleton City, MO,64724,29,185,480100,-94.502194,38.964317
686,216 Beech St, Appleton City, MO,64724,29,185,480100,-94.486871,38.932666
687,16474 N MO 125, Bradleyville, MO,65614,29,213,480401,-94.560051,39.108285
688,415 Staake Spur, Kissee Mills, MO,65680,29,213,480402,-94.539625,39.076728
689,1794 State Hwy BB, Hollister, MO,65672,29,213,480502,-94.476827,38.95104
690,178 Jessica St, Hollister, MO,65672,29,213,480502,-94.512087,39.174741
691,418 E 2nd St, Maryville, MO,64468,29,147,470400,-94.596383,38.996008
692,418 E 2nd St, Maryville, MO,64468,29,147,470400,-94.563923,39.038546
693,6279 Hwy 61, Bloomsdale, MO,63627,29,186,960100,-94.545277,38.998659
694,16 N Allen St, Bonne Terre, MO,63628,29,187,950300,-94.563558,39.082227
695,110 Pointview Dr, Bonne Terre, MO,63628,29,187,950300,-94.537992,38.996313
696,120 NE Main St, Bonne Terre, MO,63628,29,187,950300,-94.549105,38.990319
697,909 S Fairview Rd, Columbia, MO,65203,29,19,1201,-94.547557,39.081546
698,2201 W Rollins Rd, Columbia, MO,65203,29,19,1201,-94.462431,39.052844
699,5900 NW Prairie View Rd, Kansas City, MO,64151,29,165,30102,-94.593075,39.013701
700,5755 N Northwood Rd, Kansas City, MO,64151,29,165,30102,-94.583379,39.063892
701,6218 N Chatham Ave, Kansas City, MO,64151,29,165,30102,-94.552291,39.083071
702,9661 N McKinley Ave, Kansas City, MO,64157,29,47,21310,-94.58543,38.980858
703,312 Walker St, Licking, MO,65542,29,215,480100,-94.57285,39.019862
704,123 Cedar St, Licking, MO,65542,29,215,480100,-94.550752,39.109039
705,402 S 1st St, Houston, MO,65483,29,215,480300,-94.531239,39.042738
706,1470 S Sam Houston Blvd, Houston, MO,65483,29,215,480300,-94.59572,39.093193
707,807 Summit St, Cabool, MO,65689,29,215,480400,-94.513768,39.114185
708,903 Broadway Ave, Cabool, MO,65689,29,215,480400,-94.509153,39.083065
709,710 E 18th St, Caruthersville, MO,63830,29,155,470400,-94.595315,38.967911
710,1100 Ward Ave, Caruthersville, MO,63830,29,155,470400,-94.490603,38.919119
711,5562 State Hwy 32, Farmington, MO,63640,29,187,950400,-94.505457,38.913515
712,4067 MO 221, Farmington, MO,63640,29,187,950400,-94.494028,38.950001
713,705 Burks Rd, Farmington, MO,63640,29,187,950800,-94.59279,38.886376
714,135 Vierse Dr, Farmington, MO,63640,29,187,950800,-94.503296,38.953892
715,137 Vierse Dr, Farmington, MO,63640,29,187,950800,-94.546677,38.918376
716,209 N Carleton St, Farmington, MO,63640,29,187,950800,-94.485373,38.915522
717,120 N Henry St, Farmington, MO,63640,29,187,950800,-94.568721,39.067701
718,1109 N Desloge Dr, Desloge, MO,63601,29,187,951100,-94.576398,39.075092
719,801 N Desloge Dr, Desloge, MO,63601,29,187,951100,-94.510145,39.090172
720,500 Woodland Ave, Kansas City, MO,64106,29,95,1000,-94.527235,39.053508
721,436 Prospect Ave, Kansas City, MO,64124,29,95,1000,-94.527791,39.115796
722,3221 Independence Ave, Kansas City, MO,64124,29,95,1800,-94.494102,38.925914
723,3505 E 9th St, Kansas City, MO,64124,29,95,1800,-94.513921,38.922477
725,614 Hardesty Ave, Kansas City, MO,64124,29,95,1900,-94.564934,38.974423
726,6400 E 23rd St, Kansas City, MO,64129,29,95,2100,-94.542625,39.007947
727,6201 E 17th St, Kansas City, MO,64126,29,95,2100,-94.494944,38.951718
728,1201 Ewing Ave, Kansas City, MO,64126,29,95,2100,-94.509537,38.922213
729,2830 Holmes St, Kansas City, MO,64109,29,95,4300,-94.541012,39.100743
730,2939 Cherry St, Kansas City, MO,64108,29,95,4300,-94.569867,39.013956
731,2911 Main St, Kansas City, MO,64108,29,95,4400,-94.486871,38.932666
732,3200 Wayne Ave, Kansas City, MO,64109,29,95,5200,-94.594509,39.069517
733,1320 E 32nd Ter, Kansas City, MO,64109,29,95,5200,-94.476827,38.95104
734,1320 E 32nd Ter, Kansas City, MO,64109,29,95,5200,-94.556771,39.195394
735,3400 Paseo Blvd, Kansas City, MO,64109,29,95,5200,-94.529056,38.936705
736,2310 E Linwood Blvd, Kansas City, MO,64109,29,95,5400,-94.549105,38.990319
737,3515 Park Ave, Kansas City, MO,64109,29,95,5500,-94.568721,39.067701
738,3501 Woodland Ave, Kansas City, MO,64109,29,95,5500,-94.537992,38.996313
739,3441 Indiana Ave, Kansas City, MO,64128,29,95,5700,-94.58543,38.980858
740,3831 E 43rd St, Kansas City, MO,64130,29,95,6000,-94.462431,39.052844
741,4245 Indiana Ave, Kansas City, MO,64130,29,95,6000,-94.560313,39.104682
742,1617 W 45th St, Kansas City, MO,64111,29,95,7100,-94.57285,39.019862
743,1012 E 52nd St, Kansas City, MO,64110,29,95,7400,-94.522151,39.081691
744,1025 E Wooter St, Nevada, MO,64772,29,217,950400,-94.514844,38.914495
745,301 S Washington St, La Monte, MO,65337,29,159,480200,-94.54463,39.04892
746,401 W Pettis St, Green Ridge, MO,65332,29,159,480300,-94.543874,39.063402
747,3175 Cross Keys Dr, Florissant, MO,63033,29,189,210803,-94.575497,38.99329
1794,,,,,,,,-91.357899,37.977828
748,6645 Parker Rd, Florissant, MO,63033,29,189,210804,-94.53066,39.162429
749,4417 N US Highway 67, Florissant, MO,63034,29,189,210804,-94.574376,39.017992
750,80 Black Jack Ct, Black Jack, MO,63033,29,189,210806,-94.567417,38.973754
751,11950 Old Halls Ferry Rd, Black Jack, MO,63033,29,189,210806,-94.563558,39.082227
752,3325 Chicory Creek Ln, Florissant, MO,63031,29,189,210924,-94.629414,39.201704
753,2939 Patterson Rd, Florissant, MO,63031,29,189,210924,-94.587977,38.9261
754,1105 Wiethaupt Rd, Florissant, MO,63031,29,189,210924,-94.553755,39.073395
755,1085 Saint Charles St, Florissant, MO,63031,29,189,210925,-94.465483,39.240182
756,14275 New Halls Ferry Rd, Florissant, MO,63033,29,189,210925,-94.58743,39.055599
757,405 Jana Dr, Florissant, MO,63031,29,189,210926,-94.647993,39.211657
758,13100 New Halls Ferry Rd, Florissant, MO,63033,29,189,211000,-94.541756,39.016839
759,1101 Saint Louis St, Florissant, MO,63031,29,189,211000,-94.447695,39.048903
760,13775 New Halls Ferry Rd, Florissant, MO,63033,29,189,211000,-94.555501,39.02065
761,13585 New Halls Ferry Rd, Florissant, MO,63033,29,189,211000,-94.575947,38.987241
762,1700 Derhake Rd, Florissant, MO,63033,29,189,211102,-94.631154,39.249248
763,696 N Jefferson St, Florissant, MO,63031,29,189,211201,-94.606398,38.942052
764,300 Saint Jean St, Florissant, MO,63031,29,189,211201,-94.631478,39.199443
765,390 W Saint Anthony Ln, Florissant, MO,63031,29,189,211202,-94.586488,38.948371
766,975 Lindsay Ln, Florissant, MO,63031,29,189,211301,-94.527443,38.953035
767,2096 Charbonier Rd, Florissant, MO,63031,29,189,211331,-94.507593,38.958143
768,2051 Croftdale Dr, Florissant, MO,63031,29,189,211331,-94.52132,39.185688
769,600 Florland Dr, Florissant, MO,63031,29,189,211331,-94.571981,39.057377
770,1830 Charbonier Rd, Florissant, MO,63031,29,189,211331,-94.577519,39.073639
772,5717 Prospect Ave, Kansas City, MO,64130,29,95,7900,-94.575918,39.250675
773,6007 Swope Pkwy, Kansas City, MO,64130,29,95,7900,-94.477276,39.152197
774,5825 Prospect Ave, Kansas City, MO,64130,29,95,7900,-94.571192,39.071585
775,5900 Swope Pkwy, Kansas City, MO,64130,29,95,7900,-94.556628,39.002268
776,1215 E 59th St, Kansas City, MO,64110,29,95,8100,-94.581539,38.960892
777,6175 Paseo Blvd, Kansas City, MO,64110,29,95,8100,-94.605207,39.046323
778,1215 E 59th St, Kansas City, MO,64110,29,95,8100,-94.557524,38.984884
779,5500 Woodland Ave, Kansas City, MO,64110,29,95,8100,-94.521243,39.179985
780,6016 Troost Ave, Kansas City, MO,64110,29,95,8200,-94.643438,39.208534
781,2 E 59th St, Kansas City, MO,64113,29,95,8300,-94.564562,39.026797
782,6321 Wornall Rd, Kansas City, MO,64113,29,95,8600,-94.477279,39.153258
783,6903 Oak St, Kansas City, MO,64113,29,95,8600,-94.575586,39.263102
784,2316 E Meyer Blvd, Kansas City, MO,64132,29,95,8700,-94.589983,39.051097
785,7050 Askew Ave, Kansas City, MO,64132,29,95,8800,-94.556248,39.068214
786,6410 Swope Pkwy, Kansas City, MO,64132,29,95,8800,-94.542008,39.018801
787,6845 Prospect Ave, Kansas City, MO,64132,29,95,8800,-94.52209,39.112973
788,7227 Jackson Ave, Kansas City, MO,64132,29,95,8900,-94.56358,39.021193
789,3301 E 75th St, Kansas City, MO,64132,29,95,8900,-94.543179,38.993657
790,3301 E 75th St, Kansas City, MO,64132,29,95,8900,-94.587471,39.02047
791,7227 Jackson Ave, Kansas City, MO,64132,29,95,8900,-94.520799,39.07795
792,7304 Cleveland Ave, Kansas City, MO,64132,29,95,8900,-94.477917,39.269364
793,7302 Pennsylvania Ave, Kansas City, MO,64114,29,95,9200,-94.585254,39.071008
794,8111 Oak St, Kansas City, MO,64114,29,95,9400,-94.552425,39.074839
795,8111 Oak St, Kansas City, MO,64114,29,95,9400,-94.570205,39.105361
796,7714 Troost Ave, Kansas City, MO,64131,29,95,9400,-94.56704,39.064853
797,8401 Euclid Ave, Kansas City, MO,64132,29,95,9500,-94.582258,38.951839
798,8434 Paseo Blvd, Kansas City, MO,64131,29,95,9500,-94.572504,39.048202
799,7908 Prospect Ave, Kansas City, MO,64132,29,95,9600,-94.558212,39.099168
800,7815 Prospect Ave, Kansas City, MO,64132,29,95,9600,-94.508251,38.944381
801,8817 Wornall Rd, Kansas City, MO,64114,29,95,9800,-94.588435,39.054234
802,8817 Wornall Rd, Kansas City, MO,64114,29,95,9800,-94.556073,39.094943
803,1170 W 103rd St, Kansas City, MO,64114,29,95,10001,-94.584283,39.00274
804,9901 Locust St, Kansas City, MO,64131,29,95,10002,-94.503272,39.097304
805,9700 Holmes Rd, Kansas City, MO,64131,29,95,10002,-94.668422,39.24107
806,9810 Grand Ave, Kansas City, MO,64114,29,95,10002,-94.585048,39.074562
807,11430 Wornall Rd, Kansas City, MO,64114,29,95,10105,-94.578557,39.064882
808,800 E Main St, Marthasville, MO,63357,29,219,820202,-94.60789,39.251853
809,819 Hazelwest Dr, Hazelwood, MO,63042,29,189,211332,-94.585254,39.071008
810,733 Dunn Rd, Hazelwood, MO,63042,29,189,211332,-94.589318,38.950158
811,444 Candle Light Ln, Hazelwood, MO,63042,29,189,211332,-94.58761,38.931441
812,445 Candle Light Ln, Hazelwood, MO,63042,29,189,211332,-94.541773,39.243396
813,585 Coachway Ln, Hazelwood, MO,63042,29,189,211332,-94.541773,39.243396
814,7350 Howdershell Rd, Hazelwood, MO,63042,29,189,211332,-94.358613,39.372795
815,8608 Frost Ave, Berkeley, MO,63134,29,189,211500,-94.540888,39.033308
816,7118 N Hanley Rd, Hazelwood, MO,63042,29,189,211600,-94.36732,39.37089
817,8420 Sunbury Ave, Jennings, MO,63136,29,189,212001,-94.359664,39.35795
818,8920 Cozens Ave, Jennings, MO,63136,29,189,212001,-94.388987,39.366755
819,7047 Emma Ave, Jennings, MO,63136,29,189,212101,-90.059157,36.230173
820,2601 N Liberty St, Independence, MO,64050,29,95,11300,-90.064811,36.24188
821,912 Atherton Rd, Independence, MO,64056,29,95,11300,-94.521356,40.053711
822,2601 N Liberty St, Independence, MO,64050,29,95,11300,-91.926439,38.957651
823,1525 N Noland Rd, Independence, MO,64050,29,95,11300,-92.590948,40.203658
824,1525 N Noland Rd, Independence, MO,64050,29,95,11300,-90.060053,36.250084
826,16995 E Dover Ln, Independence, MO,64056,29,95,11405,-92.558272,40.190046
827,16995 E Dover Ln, Independence, MO,64056,29,95,11405,-92.586659,40.198861
828,18400 E Salisbury Rd, Independence, MO,64056,29,95,11406,-92.592128,40.202874
829,509 Jennings Rd, Independence, MO,64056,29,95,11406,-92.56722,40.1849
830,509 Jennings Rd, Independence, MO,64056,29,95,11406,-93.047379,36.688664
831,315 S Leslie St, Independence, MO,64050,29,95,11500,-90.402036,38.564572
832,429 S Leslie St, Independence, MO,64050,29,95,11500,-93.533738,38.762127
833,429 S Leslie St, Independence, MO,64050,29,95,11500,-93.57554,38.769261
834,2437 S Hardy Ave, Independence, MO,64052,29,95,11900,-93.55715,38.757472
835,4010 Sterling Ave, Kansas City, MO,64133,29,95,12000,-93.5754,38.769272
836,11801 E 32nd St S, Independence, MO,64052,29,95,12100,-93.419623,38.772076
837,8945 James A Reed Rd, Kansas City, MO,64138,29,95,12903,-90.440648,38.585452
838,9400 Eastern Ave, Kansas City, MO,64138,29,95,12903,-93.551204,38.767442
1795,,,,,,,,-90.052894,37.981054
839,10601 Blue Ridge Blvd, Kansas City, MO,64134,29,95,12906,-91.646323,39.162892
840,10530 Greenwood Rd, Kansas City, MO,64134,29,95,12906,-92.4926,40.023502
841,9201 E Bannister Rd, Kansas City, MO,64134,29,95,12906,-92.640096,38.186641
842,9601 James A Reed Rd, Kansas City, MO,64134,29,95,12906,-92.636333,38.196175
843,8101 E Bannister Rd, Kansas City, MO,64134,29,95,12906,-92.633844,38.182989
844,10530 Greenwood Rd, Kansas City, MO,64134,29,95,12906,-92.636333,38.196175
845,9201 E Bannister Rd, Kansas City, MO,64134,29,95,12906,-90.788832,38.777993
847,10450 Hickman Mills Dr, Kansas City, MO,64137,29,95,13003,-92.632973,38.221495
848,5305 E Bannister Rd, Kansas City, MO,64137,29,95,13003,-90.810948,38.759674
849,11115 Bennington Ave, Kansas City, MO,64134,29,95,13100,-90.75615,38.803315
850,11116 Blue Ridge Blvd, Kansas City, MO,64134,29,95,13100,-90.787628,38.787946
851,11522 Blue Ridge Blvd, Kansas City, MO,64134,29,95,13100,-94.267801,37.49297
852,10900 Marsh Ave, Kansas City, MO,64134,29,95,13203,-94.262105,37.485226
853,301 Rumsey St, Niangua, MO,65713,29,225,470101,-92.627288,37.667628
855,220 S Elm St, Marshfield, MO,65706,29,225,470201,-92.667751,37.696797
856,110 Commercial St, Marshfield, MO,65706,29,225,470201,-92.663147,37.686298
857,609 N Locust St, Marshfield, MO,65706,29,225,470201,-92.67378,37.755455
858,130 Memorial Dr, Louisiana, MO,63353,29,163,460100,-92.665622,37.696483
859,500 Haley Ave, Louisiana, MO,63353,29,163,460100,-90.770078,38.772049
860,1020 S Florissant Rd, Ferguson, MO,63135,29,189,212700,-92.674068,37.67972
861,12300 Natural Bridge Rd, Bridgeton, MO,63044,29,189,213101,-94.360702,38.933706
862,3199 Parkwood Ln, Maryland Heights, MO,63043,29,189,213202,-92.666589,37.679203
863,3163 Fee Fee Rd, Bridgeton, MO,63044,29,189,213203,-94.359025,38.896619
864,9843 Saint Charles Rock Rd, Breckenridge Hills, MO,63074,29,189,213300,-94.343129,38.901664
865,120 N Cedar Ave, Independence, MO,64053,29,95,11000,-94.360808,38.90454
866,11600 Food Ln, Kansas City, MO,64134,29,95,13208,-94.370007,38.903856
867,8925 Longview Rd, Kansas City, MO,64134,29,95,13208,-94.390834,38.9096
869,12920 Booth Ln, Grandview, MO,64030,29,95,13309,-94.385555,38.928179
870,7010 E 136th St, Grandview, MO,64030,29,95,13313,-94.359738,39.014051
871,201 E 133rd St, Kansas City, MO,64145,29,95,13405,-94.359389,38.927601
872,1002 W Main St, Greenwood, MO,64034,29,95,13502,-94.383606,38.852797
873,108 Ranson Rd, Greenwood, MO,64034,29,95,13502,-94.42464,38.905624
874,1702 W Main St, Greenwood, MO,64034,29,95,13502,-94.354578,39.002961
875,812 SW Forestpark Ln, Lees Summit, MO,64081,29,95,13612,-94.377982,38.906307
876,905 SE Douglas St, Lees Summit, MO,64063,29,95,13703,-94.374802,38.910677
877,407 SE Douglas St, Lees Summit, MO,64063,29,95,13703,-94.391003,38.909005
878,905 SW Oldham Pkwy, Lees Summit, MO,64081,29,95,13704,-94.326064,38.904603
879,850 NE Swan Rd, Lees Summit, MO,64086,29,95,13801,-93.695632,38.587765
880,1251 SE Century Dr, Lees Summit, MO,64081,29,95,13802,-93.695667,38.586797
882,914 SE 7th Ter, Lees Summit, MO,64063,29,95,13802,-94.372929,38.924956
883,600 N Bynum Rd, Lone Jack, MO,64070,29,95,13902,-94.336305,38.916711
884,801 S Business 61, Bowling Green, MO,63334,29,163,460400,-93.871348,39.180673
886,700 W Adams St, Bowling Green, MO,63334,29,163,460400,-94.515738,37.558129
887,28176 Highway WW, Clarksville, MO,63336,29,163,460500,-94.445978,39.247847
889,8100 N Congress Ave, Kansas City, MO,64152,29,165,30209,-94.447414,39.243579
890,56 Worthington Access Dr, Maryland Heights, MO,63043,29,189,215001,-94.457644,39.224878
891,12821 Portulaca Dr, Saint Louis, MO,63146,29,189,215103,-94.410451,39.215754
892,1751 McKelvey Rd, Maryland Heights, MO,63043,29,189,215142,-94.415779,39.246055
893,13601 Riverport Dr, Maryland Heights, MO,63043,29,189,215143,-94.44146,39.245786
894,2905 Rose Acres Ln, Maryland Heights, MO,63043,29,189,215143,-94.439958,39.245516
895,13444 Beagle Ln, Chesterfield, MO,63141,29,189,215202,-91.861028,37.492302
896,940 N Woods Mill Rd, Chesterfield, MO,63017,29,189,215202,-91.857976,37.498852
897,13416 Olive St Rd, Chesterfield, MO,63017,29,189,215202,-93.876,39.171095
898,170 Portico Dr, Chesterfield, MO,63017,29,189,215231,-93.334505,38.392902
899,1103 SW 1st St, Oak Grove, MO,64075,29,95,14004,-93.877535,39.169125
902,555 RD Mize Rd, Grain Valley, MO,64029,29,95,14007,-94.170988,38.880754
904,1505 NW Mock Ave, Blue Springs, MO,64015,29,95,14101,-90.822121,38.285944
906,2300 SW State Route 7, Blue Springs, MO,64014,29,95,14105,-91.075822,39.434503
907,871 NE Anderson Ln, Lees Summit, MO,64064,29,95,14203,-91.069539,39.440654
908,4747 S Hocker Rd, Kansas City, MO,64136,29,95,14300,-91.032599,39.379635
910,418 Mack St, Chillicothe, MO,64601,29,117,480500,-92.465345,39.723168
911,211 Locust St, Chillicothe, MO,64601,29,117,480500,-92.465645,39.748711
912,704 Maple Leaf St, Dearborn, MO,64439,29,165,30600,-92.966795,37.971264
913,301 N Walnut St, Fair Play, MO,65649,29,167,960100,-92.468755,39.719073
916,520 N Holt Ave, Bolivar, MO,65613,29,167,960200,-92.214775,39.470952
917,921 S Pike Ave, Bolivar, MO,65613,29,167,960300,-92.471573,39.736577
918,3760 S Springfield Ave, Bolivar, MO,65613,29,167,960300,-92.464649,39.726725
919,815 S Main Ave, Bolivar, MO,65613,29,167,960300,-95.076364,40.202366
920,1356 MO 32, Bolivar, MO,65613,29,167,960400,-89.974222,36.600382
921,1 Oak Knoll Park, Clayton, MO,63105,29,189,216400,-89.967672,36.558241
922,7447 Wellington Way, Clayton, MO,63105,29,189,216400,-90.522408,38.594767
923,7530 Maryland Ave, Clayton, MO,63105,29,189,216400,-90.515252,38.595501
924,3301 S Noland Rd, Independence, MO,64055,29,95,14601,-90.524888,38.571211
925,15208 E 39th St S, Independence, MO,64055,29,95,14601,-90.510563,38.579921
926,15208 E 39th St S, Independence, MO,64055,29,95,14601,-89.972116,36.567464
927,17200 E 39th St S, Independence, MO,64055,29,95,14603,-92.587766,37.110803
929,2901 M 291 Frontage Rd, Independence, MO,64057,29,95,14604,-92.588366,37.109559
931,2611 S Lees Summit Rd, Independence, MO,64055,29,95,14604,-90.168337,37.431358
932,2611 S Lees Summit Rd, Independence, MO,64055,29,95,14604,-90.167094,37.429618
933,17302 E RD Mize Rd, Independence, MO,64057,29,95,14702,-93.195751,39.123897
934,17302 E RD Mize Rd, Independence, MO,64057,29,95,14702,-93.208553,39.133592
935,215 S Sibley St, Buckner, MO,64016,29,95,14902,-92.911696,37.328494
936,1405 NW Persimmon Dr, Grain Valley, MO,64029,29,95,14903,-93.203968,39.124681
937,628 Johnson Dr, Noel, MO,64854,29,119,70300,-92.894319,37.336435
938,713 S Anderson St, Anderson, MO,64831,29,119,70400,-93.213342,39.102446
939,712 S Highway 59, Anderson, MO,64831,29,119,70400,-92.893487,37.337304
940,201 W Moore St, La Plata, MO,63549,29,121,960100,-92.906797,37.335874
941,1307 Maffry Ave, Macon, MO,63552,29,121,960400,-92.929701,37.342063
942,815 State Highway PP, Macon, MO,63552,29,121,960500,-92.898823,37.34459
943,406 Blees Industrial Dr, Macon, MO,63552,29,121,960500,-90.443359,38.707003
944,55 S Rubey St, Macon, MO,63552,29,121,960500,-90.46445,38.750263
945,804 Patton St, Macon, MO,63552,29,121,960500,-90.434314,38.737083
946,113 NW 191st Rd, Warrensburg, MO,64093,29,101,960300,-90.457347,38.736734
947,360 SW State Route 13, Warrensburg, MO,64093,29,101,960300,-90.455704,38.709785
948,1010 S Holden St, Warrensburg, MO,64093,29,101,960400,-94.869472,40.346902
949,315 E Clark St, Warrensburg, MO,0,29,101,960400,-94.869472,40.346902
950,3107 Cook Rd, Saint Joseph, MO,64506,29,21,200,-91.050683,38.627711
951,2610 Blackwell Rd, Saint Joseph, MO,64505,29,21,200,-94.881515,40.351167
952,5210 Mitchell Ave, Saint Joseph, MO,64507,29,21,701,-94.874278,40.319835
954,4525 Downs Dr, Saint Joseph, MO,64507,29,21,701,-92.167495,40.460778
955,304 N 8th St, Saint Joseph, MO,64501,29,21,1200,-91.886173,39.173789
957,200 Cherokee St, St Joseph, MO,64504,29,21,2400,-94.366419,39.888809
958,1235 N Main St, Poplar Bluff, MO,63901,29,23,950300,-91.877321,39.166661
959,2337 N Main St, Poplar Bluff, MO,63901,29,23,950300,-93.125357,40.199494
960,1601 N Main St, Poplar Bluff, MO,63901,29,23,950300,-93.124302,40.197128
963,2060 Air Park Rd, Ozark, MO,65721,29,43,20305,-92.41813,39.40864
964,1050 S Commercial Ave, Smithville, MO,64089,29,47,22000,-91.885294,39.172134
965,1601 S 169 Hwy, Smithville, MO,64089,29,47,22000,-92.472728,39.428471
966,303 N US 169, Smithville, MO,64089,29,47,22000,-92.425661,39.402004
967,609 E Cherry St, Springfield, MO,65806,29,77,100,-91.894513,39.163339
968,452 S Grant Ave, Springfield, MO,65806,29,77,100,-93.921052,36.930031
969,531 S Jefferson Ave, Springfield, MO,65806,29,77,100,-92.426411,39.431329
970,506 S Grant Ave, Springfield, MO,65806,29,77,100,-93.942361,36.925428
971,625 S Jefferson Ave, Springfield, MO,65806,29,77,100,-93.911454,36.924286
972,500 South Ave, Springfield, MO,65806,29,77,100,-91.732089,39.65564
973,1381 E Division St, Springfield, MO,65803,29,77,800,-93.911453,36.924305
975,1722 N National Ave, Springfield, MO,65803,29,77,800,-91.514993,38.985179
976,1630 N Weller Ave, Springfield, MO,65803,29,77,800,-91.497227,38.968662
977,1722 N National Ave, Springfield, MO,65803,29,77,800,-95.231814,40.143003
978,1630 N Weller Ave, Springfield, MO,65803,29,77,800,-92.596847,37.968989
980,3520 S Culpepper Cir, Springfield, MO,65804,29,77,2700,-92.271151,37.132878
981,3540 S Culpepper Cir, Springfield, MO,65804,29,77,2700,-92.258024,37.13634
982,3555 S Fremont Ave, Springfield, MO,65804,29,77,2700,-92.263005,37.137744
983,1895 N Kansas Ave, Springfield, MO,65803,29,77,3300,-91.691664,36.995306
985,3039 N National Ave, Springfield, MO,65803,29,77,4400,-94.369799,36.869592
986,1264 US Highway 60 E, Republic, MO,65738,29,77,4802,-92.346349,37.438051
987,2354 N National Ave, Springfield, MO,65803,29,77,5500,-94.338012,36.819261
988,1100 E Kearney St, Springfield, MO,65803,29,77,5500,-94.365132,36.822012
989,409 W Main St, Willow Springs, MO,65793,29,91,90100,-94.352312,36.857796
990,10311 E 63rd St, Raytown, MO,64133,29,95,12701,-94.382425,36.855857
991,6321 Cedar Ave, Raytown, MO,64133,29,95,12701,-94.369916,36.868682
992,222 W Cedar Ave, Saint Louis, MO,63119,29,189,219300,-94.510506,36.837594
993,680 W Lockwood Ave, Webster Groves, MO,63119,29,189,219400,-94.421139,36.851405
994,5140 Patterson Rd, Saint Louis, MO,63129,29,189,220432,-94.510506,36.837594
995,2911 Yaeger Rd, Saint Louis, MO,63129,29,189,220432,-94.362996,37.858449
996,6790 Telegraph Rd, Saint Louis, MO,63129,29,189,220446,-92.08521,38.715254
997,10708 Lavinia Dr, Saint Louis, MO,63123,29,189,220702,-93.829363,37.116885
998,12836 Tesson Ferry Rd, Saint Louis, MO,63128,29,189,221302,-92.097102,38.720411
999,12545 Old Tesson Rd, Saint Louis, MO,63128,29,189,221302,-91.221774,38.60113
1001,100 N Sappington Rd, Saint Louis, MO,63122,29,189,221900,-94.342726,37.839449
1002,2300 Ables Rd, Sikeston, MO,63801,29,201,780600,-91.218553,38.602083
1003,138 N Prairie St, Sikeston, MO,63801,29,201,781300,-93.335175,40.377856
1004,307 N Prairie St, Sikeston, MO,63801,29,201,781300,-92.832198,37.392338
1005,315 Baker Ln, Sikeston, MO,63801,29,201,781300,-93.294809,37.039715
1006,217 E 1st St N, Wright City, MO,63390,29,219,820103,-89.527159,36.591351
1007,17 Sycamore Rd, Perryville, MO,63775,29,157,470200,-93.294547,37.072895
1008,357 Buckner Ct, Sedalia, MO,65301,29,159,480600,-93.294567,37.081373
1009,286 Eastlawn Ave, Saint Robert, MO,65584,29,169,470287,-93.289973,37.045995
1010,106 Bosa Dr, Saint Robert, MO,65584,29,169,470287,-93.317832,37.035646
1012,2000 Elm St, Saint Charles, MO,63301,29,183,310302,-93.283581,37.050467
1013,3545 Franks Dr, Saint Charles, MO,63301,29,183,310801,-93.317508,37.042743
1014,1601 Old South River Rd, Saint Charles, MO,63303,29,183,311003,-93.294712,37.042155
1015,1380 Triad Center Dr, Saint Peters, MO,63376,29,183,311221,-93.265142,37.047632
1016,1652 W Meyer Rd, Wentzville, MO,63385,29,183,312194,-93.294885,37.041177
1018,11914 Larimore Rd, Saint Louis, MO,63138,29,189,210100,-93.323715,37.043698
1019,11931 Larimore Rd, Saint Louis, MO,63138,29,189,210100,-93.323715,37.043698
1020,1025 Trampe Ln, Saint Louis, MO,63138,29,189,210100,-93.299131,37.08421
1021,420 Chambers Rd, Saint Louis, MO,63137,29,189,210300,-93.291508,37.077552
1022,11016 Sierra Vista Pkwy, Saint Louis, MO,63138,29,189,210702,-94.485293,36.535693
1023,11831 Bellefontaine Rd, Saint Louis, MO,63138,29,189,210702,-94.552674,39.147825
1024,1724 Redman Rd, Saint Louis, MO,63138,29,189,210702,-93.265139,37.047713
1025,10055 Halls Ferry Rd, Saint Louis, MO,63136,29,189,211801,-92.704283,40.234768
1026,1404 Ferguson Ave, Saint Louis, MO,63133,29,189,214100,-94.543813,39.151635
1027,1436 Ferguson Ave, Saint Louis, MO,63133,29,189,214100,-94.580136,39.148543
1028,2 Millstone Campus Dr, Saint Louis, MO,63146,29,189,215004,-90.704314,38.780243
1029,11022 Schuetz Rd, Saint Louis, MO,63146,29,189,215004,-90.685829,38.82559
1030,6761 Bartmer Ave, Saint Louis, MO,63130,29,189,216000,-90.705335,38.743201
1031,803 Couch Ave, Saint Louis, MO,63122,29,189,218201,-90.733847,38.836693
1032,7952 County Lane 251, Webb City, MO,64870,29,97,11300,-90.711238,38.75742
1033,300 N College St, Webb City, MO,64870,29,97,11400,-90.73307,38.787926
1034,1020 N Main St, Webb City, MO,64870,29,97,11400,-90.722302,38.726971
1035,1401 W Austin St, Webb City, MO,64870,29,97,11400,-91.67862,37.000735
1036,404 Tracy St, Webb City, MO,64870,29,97,11500,-90.73506,38.799509
1038,1264 E Clinton Ave, Seymour, MO,65746,29,225,470401,-90.700043,38.765709
1039,123 N Cordie St, Seymour, MO,65746,29,225,470401,-90.69766,38.774351
1040,315 E Center Ave, Seymour, MO,65746,29,225,470401,-90.74929,38.750384
1041,6500 Arsenal St, Saint Louis, MO,63139,29,510,103400,-90.743887,38.773321
1042,5990 Page Blvd, Saint Louis, MO,63112,29,510,105400,-90.753843,38.765967
1043,5888 Plymouth Ave, Saint Louis, MO,63112,29,510,105400,-90.695091,38.809293
1044,2855 Arlington Ave, Saint Louis, MO,63120,29,510,106400,-90.742998,38.756612
1045,5030 Lexington Ave, Saint Louis, MO,63115,29,510,106400,-90.735939,38.795207
1046,4981 Thrush Ave, Saint Louis, MO,63120,29,510,107400,-90.70027,38.758608
1047,2128 E Gano Ave, Saint Louis, MO,63107,29,510,109700,-90.698979,38.801588
1048,4523 N 19th St, Saint Louis, MO,63107,29,510,109700,-90.738293,38.750469
1049,2125 Bissell St, Saint Louis, MO,63107,29,510,109700,-90.744754,38.765195
1050,1127 N Vandeventer Ave, Saint Louis, MO,63113,29,510,111100,-90.715445,38.7581
1051,3739 Page Blvd, Saint Louis, MO,63113,29,510,111500,-90.699994,38.769618
1052,3035 Cass Ave, Saint Louis, MO,63106,29,510,111500,-90.681567,38.823219
1053,3417 Grace Ave, Saint Louis, MO,63116,29,510,116301,-90.699372,38.809805
1054,210 S Ewing Ave, Saint Louis, MO,63103,29,510,118400,-90.690763,38.814005
1055,1727 Locust St, St Louis, MO,63103,29,510,125500,-90.721259,38.762232
1056,1222 Spruce St, Saint Louis, MO,63103,29,510,125500,-90.696811,38.745735
1057,3820 N 14th St, Saint Louis, MO,63107,29,510,126700,-90.716142,38.787866
1058,1440 S Compton Ave, Saint Louis, MO,63104,29,510,127300,-90.728519,38.763986
1059,3672 McRee Ave, Saint Louis, MO,63110,29,510,127300,-90.685251,38.825561
1060,429 Main St, Pevely, MO,63070,29,99,700601,-90.701746,38.812881
1061,30 W Main St, Pevely, MO,63070,29,99,700601,-94.145796,39.016239
1062,400 Gibbs Ave, Pierce City, MO,65723,29,109,470400,-90.734093,38.838079
1063,515 Burkarth Rd, Warrensburg, MO,64093,29,101,960500,-94.124117,39.004728
1064,522 E Gay St, Warrensburg, MO,64093,29,101,960500,-89.732099,37.501339
1066,729 Pca Rd, Warrensburg, MO,64093,29,101,960600,-93.95634,39.000603
1067,330 E Gay St, Warrensburg, MO,64093,29,101,960600,-93.956206,38.991608
1068,700 W Highway 224, Wellington, MO,64097,29,107,90100,-94.12438,39.00939
1069,800 MO 131, Wellington, MO,64097,29,107,90100,-90.700101,38.772702
1070,80 Main St, Troy, MO,63379,29,113,810301,-89.653082,37.087014
1071,302 S Lincoln Dr, Troy, MO,63379,29,113,810301,-94.128872,39.21436
1072,755 Old Moscow Mills Rd, Troy, MO,63379,29,113,810301,-92.709907,38.12143
1073,19 Fairgrounds Rd, Troy, MO,63379,29,113,810301,-90.699134,38.808846
1074,304 N 4th St, Savannah, MO,64485,29,3,10200,-92.67076,38.106949
1076,12521 State Rte E, Savannah, MO,64485,29,3,10200,-91.49937,38.350944
1077,808 W Price Ave, Savannah, MO,64485,29,3,10200,-91.488037,38.359905
1080,600 S Nebraska St, Rock Port, MO,64482,29,5,950200,-91.502021,38.342056
1082,114 W Francis St, Sturgeon, MO,65284,29,19,1902,-93.231622,37.064855
1083,3501 Gene Field Rd, Saint Joseph, MO,64506,29,21,100,-93.203581,37.020937
1084,4901 Cook Rd, Saint Joseph, MO,64505,29,21,100,-93.203417,37.006305
1085,4901 Cook Rd, Saint Joseph, MO,64505,29,21,100,-93.208539,37.000555
1086,2812 Saint Joseph Ave, Saint Joseph, MO,64505,29,21,300,-93.197754,37.069481
1087,1601 Main St, St Joseph, MO,64505,29,21,400,-92.004734,39.4815
1088,422 N 3rd St, Rich Hill, MO,64779,29,13,70400,-91.977097,39.51266
1089,807 Wood St, Warsaw, MO,65355,29,15,460300,-93.231555,37.063014
1091,812 Sacramento St, Saint Joseph, MO,64503,29,21,3000,-90.496901,37.850245
1092,1703 S 12th St, Saint Joseph, MO,64503,29,21,3000,-90.504241,37.849401
1093,1501 Duncan St, Saint Joseph, MO,64503,29,21,3000,-90.493829,37.842573
1094,405 Karen Dr, Poplar Bluff, MO,63901,29,23,950700,-90.503534,37.844337
1095,228 County Road 468, Poplar Bluff, MO,63901,29,23,950800,-94.661817,39.181229
1096,2602 Gene Field Rd, Saint Joseph, MO,64506,29,21,500,-94.68777,39.190448
1097,3312 Beck Rd, Saint Joseph, MO,64506,29,21,600,-89.819827,36.613234
1098,2848 Jules St, Saint Joseph, MO,64501,29,21,900,-89.868148,37.726821
1099,2302 Angelique St, Saint Joseph, MO,64501,29,21,900,-94.458489,38.715958
1100,515 N 22nd St, Saint Joseph, MO,64501,29,21,900,-89.874514,37.742445
1101,409 S 18th St, Saint Joseph, MO,64501,29,21,1000,-89.882616,37.728366
1102,1226 Angelique St, Saint Joseph, MO,64501,29,21,1000,-89.888882,37.729769
1103,512 N 11th St, Saint Joseph, MO,64501,29,21,1100,-89.859844,37.720438
1104,2802 Renick St, Saint Joseph, MO,64507,29,21,1500,-89.88276,37.722611
1105,2900 Duncan St, Saint Joseph, MO,64507,29,21,1500,-89.870249,37.725247
1106,3712 Pacific St, Saint Joseph, MO,64507,29,21,1600,-89.862459,37.723927
1108,4701 Schoolside Ln, Saint Joseph, MO,64503,29,21,1700,-90.39245,38.28221
1109,3923 Pickett Rd, Saint Joseph, MO,64503,29,21,1700,-94.842359,40.451637
1110,3005 S 36th Pl, Saint Joseph, MO,64503,29,21,1800,-94.717969,39.217598
1111,3425 S 22nd St, Saint Joseph, MO,64503,29,21,2100,-90.687393,37.166055
1112,5003 S 50th St, Saint Joseph, MO,64507,29,21,2200,-90.69736,37.152798
1113,509 Thompson Ave, Saint Joseph, MO,64504,29,21,2300,-90.694351,37.156509
1114,6408 Gordon Ave, Saint Joseph, MO,64504,29,21,2500,-92.908033,38.874784
1115,1810 Winston Dr, Van Buren, MO,63965,29,35,960200,-93.997304,36.949174
1116,1500 W Foxwood Dr, Raymore, MO,64083,29,37,60301,-90.397008,38.283715
1117,501 Johnston Pkwy, Raymore, MO,64083,29,37,60301,-94.756481,39.347781
1118,424 Remington Plaza Ct, Raymore, MO,64083,29,37,60301,-94.769725,39.351537
1119,406 W Pine St, Raymore, MO,64083,29,37,60301,-90.690236,37.161177
1120,400 W Walnut St, Raymore, MO,64083,29,37,60301,-94.741807,39.354066
1121,210 W Walnut St, Raymore, MO,64083,29,37,60302,-94.769214,39.357034
1122,303 S Washington St, Raymore, MO,64083,29,37,60302,-94.769445,39.35754
1123,950 Airport Rd, Osage Beach, MO,0,29,29,950200,-94.455201,39.566521
1124,105 Francis St, Richland, MO,65556,29,29,950900,-94.473289,39.564829
1125,141 Davis St, Stoutland, MO,65567,29,29,950900,-94.263644,38.811714
1126,6600 Royal St, Pleasant Valley, MO,64068,29,47,20801,-94.26584,38.818905
1129,255 S Peculiar Dr, Peculiar, MO,64078,29,37,61002,-93.281709,37.456101
1131,303 E Church St, Ozark, MO,65721,29,43,20302,-94.481968,39.2132
1132,1517 S 4th Ave, Ozark, MO,65721,29,43,20302,-90.401791,36.767662
1133,1910 Selmore Rd, Ozark, MO,65721,29,43,20303,-90.397615,36.740328
1134,3259 N State Highway NN, Ozark, MO,65721,29,43,20306,-90.429027,36.737022
1135,174 N Oak Ave, Sparta, MO,65753,29,43,20400,-90.400761,36.77965
1136,113 Division St, Sparta, MO,65753,29,43,20400,-90.401206,36.771365
1138,5409 Simpson St, Russellville, MO,65074,29,51,20500,-89.715266,36.349818
1139,107 School St, Pilot Grove, MO,65276,29,53,950500,-90.417286,36.762086
1140,305 N 7th St, Plattsburg, MO,64477,29,49,960300,-89.699457,36.431647
1141,104 Bush St, Plattsburg, MO,64477,29,49,960300,-90.778406,37.931698
1143,1405 S Wines St, Salem, MO,65560,29,65,960300,-90.157896,36.949067
1144,801 E Scenic Rivers Blvd, Salem, MO,65560,29,65,960400,-93.582368,40.396064
1147,1011 Commercial Dr, Owensville, MO,65066,29,73,960400,-94.454435,38.804239
1148,202 W Monroe Ave, Owensville, MO,65066,29,73,960400,-94.452987,38.801944
1149,811 N Willow St, Stanberry, MO,64489,29,75,960200,-94.480778,38.812337
1150,901 S National Ave, Springfield, MO,65807,29,77,200,-94.469287,38.815564
1151,1890 E 9th St, Washington, MO,63090,29,71,800201,-94.472039,38.812997
1152,2300 Southbend Dr, Washington, MO,63090,29,71,800201,-94.457332,38.808629
1153,5632 Steutermann Rd, Washington, MO,63090,29,71,800202,-94.456997,38.804468
1154,901 Bieker Rd, Washington, MO,63090,29,71,800202,-94.46529,38.965889
1155,1570 W 5th St, Washington, MO,63090,29,71,800300,-94.465689,39.003528
1156,207 S Jefferson Ave, Union, MO,63084,29,71,800601,-94.462594,39.015767
1157,117 Hickory Cir, Union, MO,63084,29,71,800601,-94.458873,39.008536
1158,1 Clark Dr, Union, MO,63084,29,71,800601,-94.461838,39.007722
1159,1581 Clearview Rd, Union, MO,63084,29,71,800601,-93.382344,36.75363
1163,101 Weber Dr, Saint Clair, MO,63077,29,71,800902,-93.384419,36.731064
1164,895 Bardot St, St Clair, MO,63077,29,71,800902,-93.473046,37.120286
1165,7 Paul Parks Dr, Saint Clair, MO,63077,29,71,800902,-93.466692,37.129789
1166,105 T-Box Dr, Saint Clair, MO,63077,29,71,800902,-93.458953,37.130519
1828,,,,,,,,-90.986693,38.417223
1168,36 Taylor St, Sullivan, MO,63080,29,71,801101,-93.477298,37.122226
1169,1132 Elmont Rd, Sullivan, MO,63080,29,71,801102,-93.477871,37.122119
1170,421 E Sunshine St, Springfield, MO,65807,29,77,300,-93.475724,37.123151
1171,1601 W Sunshine St, Springfield, MO,65807,29,77,400,-93.480156,37.126838
1172,1051 S Grant Ave, Springfield, MO,65807,29,77,400,-93.480206,37.126545
1173,1042 S Douglas Ave, Springfield, MO,65807,29,77,400,-93.493278,37.118759
1174,906 W Portland St, Springfield, MO,65807,29,77,400,-92.411617,37.859892
1175,1033 N Grant Ave, Springfield, MO,65802,29,77,600,-93.490143,37.121318
1176,637 W Tampa St, Springfield, MO,65802,29,77,600,-94.366523,38.099864
1177,1632 N Robberson Ave, Springfield, MO,65803,29,77,700,-93.480123,37.127786
1178,1108 N Robberson Ave, Springfield, MO,65802,29,77,700,-90.308015,38.633024
1179,1409 N Washington Ave, Springfield, MO,65802,29,77,700,-95.486674,40.424351
1181,811 E Division St, Springfield, MO,65803,29,77,700,-89.823048,36.553414
1182,622 S Pickwick Ave, Springfield, MO,65802,29,77,900,-95.517272,40.409649
1183,1333 E Grand St, Springfield, MO,65804,29,77,900,-91.758107,37.955177
1184,1505 S Delaware Ave, Springfield, MO,65804,29,77,1000,-91.739867,37.95146
1185,1551 E Portland St, Springfield, MO,65804,29,77,1000,-92.440008,38.512998
1187,536 E Cherokee St, Springfield, MO,65807,29,77,1200,-91.527584,37.635585
1188,925 E Seminole St, Springfield, MO,65807,29,77,1200,-91.536217,37.644367
1189,2403 S Holland Ave, Springfield, MO,65807,29,77,1200,-91.543815,37.63333
1190,2927 S Kimbrough Ave, Springfield, MO,65807,29,77,1301,-92.796584,39.420042
1191,2723 S Meadowbrook Ave, Springfield, MO,65807,29,77,1400,-94.130763,37.069401
1192,2872 S Meadowbrook Ave, Springfield, MO,65807,29,77,1400,-94.828797,39.94385
1193,2555 S Campbell Ave, Springfield, MO,65807,29,77,1500,-94.785567,39.943458
1194,2352 S Weaver Ave, Springfield, MO,65807,29,77,1500,-94.786371,39.943582
1195,420 W Broadmoor St, Springfield, MO,65807,29,77,1500,-94.834131,39.939288
1196,2343 W Olive St, Springfield, MO,65802,29,77,1700,-89.532776,37.206872
1198,2100 W Nichols St, Springfield, MO,65802,29,77,1800,-93.202592,38.674523
1199,2740 N Mayfair Ave, Springfield, MO,65803,29,77,2200,-89.509182,37.220157
1200,552 N Stewart Ave, Springfield, MO,65802,29,77,2300,-93.248152,38.70592
1201,2934 E Bennett St, Springfield, MO,65804,29,77,2402,-93.21356,38.705337
1202,1926 S Ingram Mill Rd, Springfield, MO,65804,29,77,2502,-93.256635,38.684024
1203,2937 S Claremont Ave, Springfield, MO,65804,29,77,2502,-95.014435,39.58806
1204,2120 S Ventura Ave, Springfield, MO,65804,29,77,2502,-93.240284,38.697969
1205,2120 E Barataria St, Springfield, MO,65804,29,77,2600,-93.281586,38.714534
1206,2214 E Seminole St, Springfield, MO,65804,29,77,2600,-93.245126,38.68444
1207,950 E Primrose St, Springfield, MO,65807,29,77,2800,-93.208973,38.693843
1208,3559 South Ave, Springfield, MO,65807,29,77,2800,-93.214677,38.699644
1209,3745 S Broadway Ave, Springfield, MO,65807,29,77,2900,-93.26472,38.696133
1210,3386 S Scenic Ave, Springfield, MO,65807,29,77,3002,-93.246288,38.687479
1211,3146 S Golden Ave, Springfield, MO,65807,29,77,3002,-93.217065,38.710952
1212,3216 S Scenic Ave, Springfield, MO,65807,29,77,3002,-93.224714,38.708357
1213,2826 W Chestnut Expy, Springfield, MO,65802,29,77,3100,-93.254436,38.707501
1214,415 S Golden Ave, Springfield, MO,65802,29,77,3100,-92.75186,37.146159
1215,2814 N Fremont Ave, Springfield, MO,65803,29,77,3600,-92.766357,37.148118
1216,3414 S Mentor Ave, Springfield, MO,65804,29,77,3900,-92.76444,37.147712
1218,1439 E Lark St, Springfield, MO,65804,29,77,4001,-89.585294,36.878356
1219,201 E Cardinal St, Springfield, MO,65810,29,77,4001,-89.598848,36.872983
1221,1120 E Farm Road 182, Springfield, MO,65810,29,77,4003,-89.586011,36.880266
1222,2121 W Republic Rd, Springfield, MO,65807,29,77,4102,-89.621457,36.98047
1223,2200 W Republic Rd, Springfield, MO,65807,29,77,4102,-89.611946,36.926587
1224,5005 S Farm Road 135, Springfield, MO,65810,29,77,4102,-89.570907,36.876383
1225,4051 S Scenic Ave, Springfield, MO,65807,29,77,4102,-89.594904,36.882711
1226,3055 W Kildee Ln, Springfield, MO,65810,29,77,4102,-89.574189,36.87548
1227,2238 W Kingsley St, Springfield, MO,65807,29,77,4102,-89.547633,36.876852
1228,2101 W Farm Road 182, Springfield, MO,65810,29,77,4103,-89.597193,36.876563
1229,246 N Farm Road 115, Springfield, MO,65802,29,77,4302,-93.064512,39.223616
1230,3601 N Farm Road 139, Springfield, MO,65803,29,77,4302,-93.093234,38.679017
1231,218 W McCabe St, Strafford, MO,65757,29,77,4600,-93.093234,38.679017
1232,505 E Harrison St, Republic, MO,65738,29,77,4803,-89.642394,36.890004
1234,235 E Anderson St, Republic, MO,65738,29,77,4803,-94.579442,39.36994
1235,234 E Anderson St, Republic, MO,65738,29,77,4803,-93.08263,37.002009
1236,518 N Hampton Ave, Republic, MO,65738,29,77,4803,-93.085718,37.004929
1237,636 N Main Ave, Republic, MO,65738,29,77,4803,-93.270986,37.225787
1238,201 E State Highway 174, Republic, MO,65738,29,77,4803,-94.5837,39.361449
1239,800 W State Highway 174, Republic, MO,65738,29,77,4803,-93.270539,37.135602
1241,720 N Main Ave, Republic, MO,65738,29,77,4803,-93.271402,37.135728
1242,2425 N Pine Ave, Springfield, MO,65802,29,77,4900,-93.274695,37.239781
1243,105 Willey St, Willard, MO,65781,29,77,5002,-93.311531,37.234018
1244,732 W Talmage St, Springfield, MO,65803,29,77,5600,-93.314755,37.166168
1245,2205 W Kearney St, Springfield, MO,65803,29,77,5600,-93.269588,37.203308
1246,1714 S Enterprise Ave, Springfield, MO,65804,29,77,5700,-93.225793,37.177636
1247,2220 E Grand St, Springfield, MO,65804,29,77,5700,-93.290516,37.228129
1248,2411 W Catalpa St, Springfield, MO,65807,29,77,5800,-93.282392,37.147014
1249,901 E 2nd St, Trenton, MO,64683,29,79,960300,-93.295607,37.168895
1250,1807 Chestnut St, Trenton, MO,64683,29,79,960300,-93.313276,37.182555
1251,721 Emma St, Trenton, MO,64683,29,79,960400,-93.288725,37.178455
1252,10286 State Route 17, West Plains, MO,65775,29,91,90500,-94.583466,39.396634
1253,2027 Clark Ave, West Plains, MO,65775,29,91,90700,-93.276581,37.150504
1254,704 E Main St, West Plains, MO,65775,29,91,90700,-93.293741,37.148926
1255,319 Pierce St, West Plains, MO,65775,29,91,90700,-93.267642,37.21852
1256,613 W 1st St, West Plains, MO,65775,29,91,90800,-93.251029,37.183067
1257,995 Preacher Roe Blvd, West Plains, MO,65775,29,91,90800,-93.27513,37.229463
1258,906 W 1st St, West Plains, MO,65775,29,91,90800,-93.322275,37.138403
1259,3209 US Hwy 160, West Plains, MO,65775,29,91,90400,-93.333407,37.212008
1260,19778 Sackett Ln, Waynesville, MO,65583,29,169,470400,-93.252456,37.195831
1261,1702 Long Dr, Waynesville, MO,65583,29,169,470400,-93.23558,37.159722
1262,704 Historic Route 66, Waynesville, MO,65583,29,169,470400,-93.298542,37.219314
1263,2350 Saint Clair Ave, Saint Louis, MO,63144,29,189,217400,-93.294394,37.134215
1264,2100 S Mason Rd, Saint Louis, MO,63131,29,189,217701,-93.282905,37.174864
1265,715 S Mason Rd, Saint Louis, MO,63141,29,189,217702,-93.290774,37.220093
1266,1767 Union Rd, Saint Louis, MO,63125,29,189,220100,-93.286509,37.204178
1267,9828 S Broadway, Saint Louis, MO,63125,29,189,220200,-93.332078,37.15338
1268,3131 Koch Rd, Saint Louis, MO,63125,29,189,220300,-93.276359,37.149651
1269,967 Forder Rd, Saint Louis, MO,63129,29,189,220431,-93.298776,37.205917
1270,4710 South Dr, Saint Louis, MO,63129,29,189,220431,-93.229058,37.245045
1271,4900 Ringer Rd, Saint Louis, MO,63129,29,189,220431,-93.390462,37.212995
1273,4105 Telegraph Rd, Saint Louis, MO,63129,29,189,220441,-93.299278,37.19546
1274,2580 Baumgartner Rd, Saint Louis, MO,63129,29,189,220443,-93.300391,37.195787
1275,6912 Woodsmere Cir, Saint Louis, MO,63129,29,189,220444,-93.321217,37.263034
1276,7700 Fine Rd, Saint Louis, MO,63129,29,189,220444,-93.297659,37.2137
1277,5660 Telegraph Rd, Saint Louis, MO,63129,29,189,220445,-93.271585,37.181121
1278,6060 Telegraph Rd, Saint Louis, MO,63129,29,189,220445,-93.302776,37.225831
1279,6040 Telegraph Rd, Saint Louis, MO,63129,29,189,220445,-93.285604,37.224072
1280,5966 Telegraph Rd, Saint Louis, MO,63129,29,189,220445,-93.341248,37.15698
1281,716 Reavis Barracks Rd, Saint Louis, MO,63125,29,189,220501,-93.324124,37.138273
1282,2549 Telegraph Rd, Saint Louis, MO,63125,29,189,220501,-93.277009,37.240602
1283,2338 Lemay Ferry Rd, Saint Louis, MO,63125,29,189,220501,-93.260089,37.213797
1284,623 W Ripa Ave, Saint Louis, MO,63125,29,189,220501,-93.301843,37.185914
1285,9994 Tesson Creek Estates Dr, Saint Louis, MO,63123,29,189,220601,-93.266933,37.186842
1286,3612 Union Rd, Saint Louis, MO,63125,29,189,220602,-93.268095,37.228266
1287,2050 Union Rd, Saint Louis, MO,63125,29,189,220602,-93.289933,37.204974
1289,1026 Union St, Unionville, MO,63565,29,171,960200,-93.235771,37.187924
1290,701 N 18th St, Unionville, MO,63565,29,171,960200,-93.304678,37.145962
1291,1 Main St, Valley Park, MO,63088,29,189,218102,-93.286097,37.161456
1293,1230 Dougherty Ferry Rd, Valley Park, MO,63088,29,189,218103,-93.322705,37.11662
1294,10823 Big Bend Rd, Saint Louis, MO,63122,29,189,218300,-93.256071,37.163142
1295,341 S Kirkwood Rd, Saint Louis, MO,63122,29,189,218300,-93.271942,37.140242
1296,514 E Argonne Dr, Saint Louis, MO,63122,29,189,218600,-93.272968,37.196523
1297,3135 S Brentwood Blvd, Saint Louis, MO,63144,29,189,218900,-93.342541,37.123677
1298,906 N Rock Hill Rd, Saint Louis, MO,63119,29,189,218900,-93.231005,37.150511
1797,,,,,,,,-92.515941,37.814845
1798,,,,,,,,-92.991883,38.446591
1299,803 Lafayette Ave, Webster Groves, MO,63119,29,189,218900,-93.305962,37.172324
1300,44 N Gore Ave, Saint Louis, MO,63119,29,189,219200,-93.243229,37.174775
1301,4320 S Lindbergh Blvd, Saint Louis, MO,63127,29,189,220803,-93.271965,37.148766
1302,10109 Watson Rd, Saint Louis, MO,63127,29,189,221000,-93.299178,37.23616
1303,11232 Big Bend Rd, Saint Louis, MO,63122,29,189,221100,-93.298788,37.205118
1305,9750 Sappington Rd, Saint Louis, MO,63128,29,189,221202,-93.332456,37.140235
1306,6401 Hagemann Rd, Saint Louis, MO,63128,29,189,221335,-93.290246,37.18229
1307,6131 Leona St, Saint Louis, MO,63116,29,510,101300,-93.277954,37.217815
1308,725 Bellerive Blvd, Saint Louis, MO,63111,29,510,101400,-93.286328,37.170266
1309,8221 Minnesota Ave, Saint Louis, MO,63111,29,510,101500,-93.253752,37.173877
1310,7925 Minnesota Ave, Saint Louis, MO,63111,29,510,101500,-93.325616,37.193679
1311,516 Loughborough Ave, Saint Louis, MO,63111,29,510,101500,-93.276301,37.198362
1312,7814 S Broadway, Saint Louis, MO,63111,29,510,101800,-93.295852,37.171234
1314,5835 Macklind Ave, Saint Louis, MO,63109,29,510,102200,-93.429105,37.242743
1315,5910 Clifton Ave, Saint Louis, MO,63109,29,510,102200,-93.289998,37.202879
1316,1725 Hwy 109, Wildwood, MO,63038,29,189,221621,-93.281661,37.116229
1317,2001 Shepard Rd, Wildwood, MO,63038,29,189,221621,-93.323683,37.210023
1829,,,,,,,,-91.007906,38.444015
1318,513 Strecker Rd, Wildwood, MO,63011,29,189,221626,-93.331988,37.157459
1319,8119 Airport Rd, Saint Louis, MO,63134,29,189,221800,-93.282053,37.226219
1320,6315 Garfield Ave, Saint Louis, MO,63134,29,189,221800,-93.340733,37.127629
1321,5931 Hancock Ave, Saint Louis, MO,63134,29,189,221800,-93.339363,37.207452
1322,5300 Butler Hill Rd, Saint Louis, MO,63128,29,189,222000,-93.27513,37.229463
1323,5183 Southmoor Hills Dr, Saint Louis, MO,63128,29,189,222000,-93.268095,37.228266
1324,12727 Old Tesson Rd, Saint Louis, MO,63128,29,189,222000,-93.319612,37.219084
1325,16930 Manchester Rd, Wildwood, MO,63040,29,189,222100,-93.298123,37.244341
1326,515 Elm St, Slater, MO,65349,29,195,90100,-93.269721,37.248718
1327,225 S College Ave, Princeton, MO,64673,29,129,470200,-93.324229,37.139992
1328,157 Hughes Ln, Saint Charles, MO,63301,29,183,310202,-93.281402,37.268
1329,2475 W Randolph St, Saint Charles, MO,63301,29,183,310301,-93.274342,37.252485
1330,2475 W Randolph St, St Charles, MO,63301,29,183,310301,-93.268285,37.18544
1331,2019 N 3rd St, St Charles, MO,63301,29,183,310400,-90.402099,38.729925
1332,5440 Gravois Ave, Saint Louis, MO,63116,29,510,102400,-90.38416,38.733779
1333,5880 Christy Blvd, Saint Louis, MO,63116,29,510,102500,-90.384181,38.733116
1334,2500 Hampton Ave, Saint Louis, MO,63139,29,510,103600,-93.314828,37.162347
1335,2507 January Ave, Saint Louis, MO,63110,29,510,103600,-93.292298,37.205328
1336,6031 Southwest Ave, Saint Louis, MO,63139,29,510,103700,-90.406362,38.712266
1337,1211 Tamm Ave, Saint Louis, MO,63139,29,510,104200,-90.490085,38.777429
1338,6746 Clayton Ave, Saint Louis, MO,63139,29,510,104200,-93.320258,37.241182
1339,5654 Delmar Blvd, Saint Louis, MO,63112,29,510,105200,-90.557228,38.753036
1340,5183 Raymond Ave, Saint Louis, MO,63113,29,510,105500,-90.496972,38.79212
1341,5508 Dr Martin Luther King Dr, Saint Louis, MO,63112,29,510,106100,-90.492568,38.763405
1342,1437 Laurel St, Saint Louis, MO,63112,29,510,106100,-90.476635,38.812953
1343,5555 Page Blvd, Saint Louis, MO,63112,29,510,106100,-90.491685,38.804997
1344,5821 Kennerly Ave, Saint Louis, MO,63112,29,510,106200,-90.536584,38.789019
1345,6110 Cote Brilliante Ave, Saint Louis, MO,63133,29,510,106200,-90.614608,38.737216
1346,5630 Theodosia Ave, Saint Louis, MO,63112,29,510,106300,-90.553187,38.776518
1347,5415 Page Blvd, Saint Louis, MO,63112,29,510,106600,-90.530552,38.759439
1348,1408 N Kingshighway Blvd, Saint Louis, MO,63113,29,510,106600,-90.647991,38.744545
1349,1397 Arlington Ave, Saint Louis, MO,63112,29,510,106600,-90.514186,38.786749
1350,3033 N Euclid Ave, Saint Louis, MO,63115,29,510,106700,-90.529469,38.778027
1351,6155 West Florissant Ave, Saint Louis, MO,63136,29,510,107300,-90.512251,38.819965
1352,6114 West Florissant Ave, Saint Louis, MO,63136,29,510,107300,-90.521133,38.771867
1353,5831 Pamplin Ave, Saint Louis, MO,63147,29,510,107300,-90.386253,38.712297
1355,5939 Goodfellow Blvd, Saint Louis, MO,63147,29,510,107300,-90.491031,38.778554
1356,5485 Union Blvd, Saint Louis, MO,63115,29,510,107500,-90.490679,38.779234
1357,5005 Union Blvd, Saint Louis, MO,63115,29,510,107500,-90.496972,38.79212
1358,5314 West Florissant Ave, Saint Louis, MO,63120,29,510,107500,-90.506294,38.792871
1359,4401 Shreve Ave, Saint Louis, MO,63115,29,510,107600,-90.688578,38.713147
1360,4632 W Florissant Ave, Saint Louis, MO,63115,29,510,107600,-90.627863,38.744059
1361,8375 N Broadway St, Saint Louis, MO,63147,29,510,108100,-90.508187,38.776075
1362,7901 N Broadway St, St Louis, MO,63147,29,510,108100,-90.520428,38.771167
1363,8229 N Broadway St, St Louis, MO,63147,29,510,108100,-90.476032,38.798565
1364,8959 Riverview Blvd, Saint Louis, MO,63147,29,510,108200,-90.58131,38.742719
1365,220 State St, Scott City, MO,63780,29,201,780100,-90.387912,38.727525
1366,611 High St, Tipton, MO,65081,29,135,385400,-90.560906,38.798146
1367,812 S Benton Ave, Saint Charles, MO,63301,29,183,310501,-90.5353,38.799838
1368,717 S 6th St, Saint Charles, MO,63301,29,183,310501,-90.53543,38.801182
1370,1804 Boonslick Rd, Saint Charles, MO,63301,29,183,310501,-90.514895,38.795328
1371,318 S Duchesne Dr, Saint Charles, MO,63301,29,183,310601,-90.498961,38.819641
1372,435 Yale Blvd, Saint Charles, MO,63301,29,183,310602,-90.561413,38.787892
1373,2100 Campus Dr, Saint Charles, MO,63301,29,183,310700,-90.551583,38.750137
1374,2559 Raymond Dr, Saint Charles, MO,63301,29,183,310700,-90.963071,38.360465
1375,2670 Zumbehl Rd, Saint Charles, MO,63301,29,183,310700,-90.982076,38.342243
1376,2660 Zumbehl Rd, Saint Charles, MO,63301,29,183,310700,-90.491685,38.804997
1377,2721 Zumbehl Rd, Saint Charles, MO,63301,29,183,310802,-90.980974,38.352717
1378,1900 Zumbehl Rd, Saint Charles, MO,63303,29,183,310901,-90.971378,38.336539
1379,1579 S Old Highway 94, Saint Charles, MO,63303,29,183,310901,-91.574804,37.991124
1380,2120 S Old Highway 94, Saint Charles, MO,63303,29,183,310902,-91.636264,37.992834
1381,2800 Old Muegge Rd, Saint Charles, MO,63303,29,183,310903,-94.824524,39.754293
1382,2041 Bluestone Dr, Saint Charles, MO,63303,29,183,311001,-94.838663,39.764194
1383,1530 Country Club Plaza Dr, Saint Charles, MO,63303,29,183,311004,-94.846786,39.770178
1384,5289 Highway N, Saint Charles, MO,63304,29,183,311114,-94.850821,39.768292
1385,1400 Britain Way, Saint Charles, MO,63304,29,183,311122,-94.845301,39.763378
1386,1346 Dingledine Rd, St Peters, MO,63304,29,183,311122,-94.777394,39.720367
1799,,,,,,,,-93.119613,37.270637
1800,,,,,,,,-92.279058,39.239621
1387,5935 S Hwy 94, Saint Charles, MO,63304,29,183,311124,-90.535303,38.799537
1388,1402 Gettysburg Lndg, Saint Charles, MO,63303,29,183,311146,-94.823583,39.768298
1389,3921 N Newstead Ave, Saint Louis, MO,63115,29,510,110100,-94.865383,39.710794
1390,4025 Sullivan Ave, Saint Louis, MO,63107,29,510,110300,-94.773553,39.755422
1391,2901 N Grand Blvd, Saint Louis, MO,63107,29,510,110400,-94.818109,39.806679
1392,3160 N Vandeventer Ave, Saint Louis, MO,63107,29,510,110400,-94.863777,39.719401
1393,2616 Cora Ave, Saint Louis, MO,63113,29,510,111200,-94.859355,39.778462
1394,4525 Aldine Pl, Saint Louis, MO,63113,29,510,111200,-94.806152,39.773309
1395,4146 Garfield Ave, Saint Louis, MO,63113,29,510,111300,-94.802399,39.747943
1396,2400 N Sarah St, Saint Louis, MO,63113,29,510,111400,-94.833906,39.732712
1397,2826 N Vandeventer Ave, Saint Louis, MO,63107,29,510,111400,-94.850386,39.753484
1398,5261 Delmar Blvd, Saint Louis, MO,63108,29,510,112200,-94.80868,39.792147
1399,1164 N Kingshighway Blvd, Saint Louis, MO,63113,29,510,112300,-94.8064,39.73762
1400,1130 N Euclid Ave, Saint Louis, MO,63113,29,510,112300,-94.845389,39.751662
1401,4624 Delmar Blvd, Saint Louis, MO,63108,29,510,112400,-94.7859,39.742426
1402,5033 Northrup Ave, Saint Louis, MO,63110,29,510,113500,-94.798102,39.740776
1403,3800 Watson Rd, Saint Louis, MO,63109,29,510,114102,-94.789192,39.806825
1404,4501 Hampton Ave, Saint Louis, MO,63109,29,510,114102,-94.789192,39.806825
1405,6020 Pernod Ave, Saint Louis, MO,63139,29,510,114102,-94.841963,39.751599
1406,3309 S Kingshighway Blvd, Saint Louis, MO,63139,29,510,114200,-94.853788,39.713015
1407,5001 Pernod Ave, Saint Louis, MO,63139,29,510,114200,-94.829236,39.791948
1408,5031 Potomac St, Saint Louis, MO,63139,29,510,114200,-94.822228,39.7516
1409,5047 Gravois Ave, Saint Louis, MO,63116,29,510,115100,-94.832792,39.763417
1410,3716 Morganford Rd, Saint Louis, MO,63116,29,510,115200,-94.785834,39.759451
1411,4411 Chippewa St, St Louis, MO,63116,29,510,115200,-94.828968,39.813839
1412,4300 Morganford Rd, Saint Louis, MO,63116,29,510,115200,-94.834092,39.770467
1413,5500 Virginia Ave, Saint Louis, MO,63111,29,510,115500,-94.810425,39.785932
1414,4450 Virginia Ave, Saint Louis, MO,63111,29,510,115500,-94.817634,39.759886
1415,3553 Delor St, St Louis, MO,63111,29,510,115500,-94.850821,39.768292
1416,3315 Meramec St, Saint Louis, MO,63118,29,510,115700,-94.8486,39.789367
1417,2745 Meramec St, Saint Louis, MO,63118,29,510,115700,-90.293431,38.679638
1418,3013 Meramec St, St Louis, MO,63118,29,510,115700,-90.281615,38.756856
1419,20794 US Hwy 61, Sikeston, MO,63801,29,201,780400,-90.410014,38.566837
1421,1310 W Salcedo Rd, Sikeston, MO,63801,29,201,780400,-90.239651,38.69476
1423,1082 County Hwy 311, Scott City, MO,63780,29,201,781100,-90.279782,38.752521
1424,115 S West St, Sikeston, MO,63801,29,201,781200,-90.269119,38.657777
1425,100 Twitty Dr, Sikeston, MO,63801,29,201,781200,-90.256594,38.626084
1426,604 Elm St, Sikeston, MO,63801,29,201,781200,-90.270844,38.578376
1427,3rd St & Ash St, Winona, MO,65588,29,203,470200,-90.329367,38.671291
1428,423 W Caldwell St, Paris, MO,65275,29,137,960200,-90.328813,38.699135
1429,23815 Highway 24, Paris, MO,65275,29,137,960200,-90.217896,38.771982
1430,1505 Caulks Hill Rd, Saint Charles, MO,63304,29,183,311149,-90.400996,38.703089
1431,700 Jungermann Rd, Saint Peters, MO,63376,29,183,311203,-90.336503,38.536722
1432,230 Jungermann Rd, Saint Peters, MO,63376,29,183,311203,-90.278288,38.693093
1433,166 Boone Hills Dr, Saint Peters, MO,63376,29,183,311203,-90.294054,38.73101
1435,1 Sugarwood Dr, Saint Peters, MO,63376,29,183,311211,-90.266704,38.700248
1436,2451 Willott Rd, Saint Peters, MO,63376,29,183,311212,-90.305818,38.61761
1437,357 Jungermann Rd, Saint Peters, MO,63376,29,183,311212,-90.214445,38.792184
1438,4140 Old Mill Pkwy, Saint Peters, MO,63376,29,183,311212,-90.283638,38.694832
1439,3857 McClay Rd, Saint Peters, MO,63376,29,183,311296,-90.299791,38.552218
1440,6325 Mexico Rd, Saint Peters, MO,63376,29,183,311311,-90.253535,38.695814
1441,3011 Mid Rivers Mall Dr, Saint Peters, MO,63376,29,183,311312,-90.353503,38.659021
1442,605 S Church St, Saint Peters, MO,63376,29,183,311312,-90.274845,38.662467
1443,102 Birdie Hills Rd, Saint Peters, MO,63376,29,183,311312,-90.3077,38.680532
1444,7479 Mexico Rd, Saint Peters, MO,63376,29,183,311312,-90.227821,38.809807
1445,4778 Central School Rd, Saint Charles, MO,63304,29,183,311322,-90.37169,38.79421
1446,4601 Mid Rivers Mall Dr, Saint Peters, MO,63376,29,183,311322,-90.217062,38.78505
1447,100 Vantage Dr, Saint Peters, MO,63376,29,183,311391,-90.369376,38.707923
1448,3194 Morganford Rd, Saint Louis, MO,63116,29,510,116200,-90.275119,38.696218
1450,3706 Gravois Ave, Saint Louis, MO,63116,29,510,116302,-90.534567,38.761104
1452,3632 S Grand Blvd, Saint Louis, MO,63118,29,510,116400,-90.199076,38.63721
1453,3400 Chippewa St, Saint Louis, MO,63118,29,510,116400,-90.398486,38.556145
1454,3901 Russell Blvd, Saint Louis, MO,63110,29,510,117200,-90.305314,38.494427
1455,4221 Shaw Blvd, Saint Louis, MO,63110,29,510,117200,-90.230063,38.714281
1456,3964 Castleman Ave, Saint Louis, MO,63110,29,510,117200,-90.291273,38.771099
1457,2727 S Compton Ave, Saint Louis, MO,63118,29,510,117400,-90.219989,38.656731
1458,2109 S Spring Ave, Saint Louis, MO,63110,29,510,117400,-90.25047,38.750554
1459,1200 Tower Grove Ave, Saint Louis, MO,63110,29,510,118100,-90.26872,38.607904
1460,4317 Vista Ave, Saint Louis, MO,63110,29,510,118100,-90.239314,38.775419
1461,1324 Tower Grove Ave, Saint Louis, MO,63110,29,510,118100,-90.248009,38.637336
1462,4150 Laclede Ave, Saint Louis, MO,63108,29,510,118600,-90.295949,38.574272
1463,4353 Clayton Ave, Saint Louis, MO,63110,29,510,118600,-90.277567,38.690117
1464,321 S Newstead Ave, Saint Louis, MO,63110,29,510,118600,-90.283209,38.653734
1465,4330 Lindell Blvd, Saint Louis, MO,63108,29,510,119102,-90.322468,38.495774
1467,3901 Washington Blvd, Saint Louis, MO,63108,29,510,119300,-90.245563,38.614043
1468,911 N Spring Ave, Saint Louis, MO,63108,29,510,119300,-90.235948,38.784892
1469,2523 Newhouse Ave, Saint Louis, MO,63107,29,510,120200,-90.261607,38.600996
1470,3007 Olive St, Saint Louis, MO,63103,29,510,121100,-90.299293,38.607975
1471,10 N Compton Ave, Saint Louis, MO,63103,29,510,121100,-90.221701,38.630143
1472,720 N Leonard Ave, Saint Louis, MO,63103,29,510,121100,-90.302491,38.727678
1473,1415 N Garrison Ave, Saint Louis, MO,63106,29,510,121200,-90.22743,38.606435
1474,3325 Bell Ave, Saint Louis, MO,63106,29,510,121200,-90.261631,38.662203
1475,3155 Brantner Pl, Saint Louis, MO,63106,29,510,121200,-90.390099,38.48108
1476,2801 Sidney St, St Louis, MO,63104,29,510,123100,-90.292984,38.628425
1477,2813 Lafayette Ave, Saint Louis, MO,63104,29,510,123100,-90.276024,38.793535
1478,2716 Shenandoah Ave, Saint Louis, MO,63104,29,510,123100,-90.210718,38.634716
1479,1616 California Ave, Saint Louis, MO,63104,29,510,123100,-90.220062,38.645168
1480,2651 Iowa Ave, Saint Louis, MO,63118,29,510,123100,-90.226054,38.615457
1481,2101 S Jefferson Ave, Saint Louis, MO,63104,29,510,123100,-90.332004,38.700849
1482,2050 Allen Ave, Saint Louis, MO,63104,29,510,123200,-90.286286,38.696125
1483,3709 Nebraska Ave, Saint Louis, MO,63118,29,510,124100,-90.263366,38.591389
1484,3023 Oregon Ave, Saint Louis, MO,0,29,510,124200,-90.229777,38.715232
1485,3610 S Broadway, Saint Louis, MO,63118,29,510,124600,-90.225209,38.607894
1486,1521 Carr St, Saint Louis, MO,63106,29,510,125700,-90.203861,38.643138
1487,1220 N 10th St, Saint Louis, MO,63106,29,510,125700,-90.234473,38.655752
1488,6831 Manchester Ave, Saint Louis, MO,0,29,510,126800,-90.222176,38.634886
1489,1921 Prather Ave, Saint Louis, MO,63139,29,510,126800,-90.359606,38.594386
1490,150 S Hickman St, Puxico, MO,63960,29,207,470200,-90.305508,38.731488
1491,701 N Oak St, Stover, MO,65078,29,141,470200,-90.40322,38.674637
1492,418 Jefferson St, Versailles, MO,65084,29,141,470300,-90.289317,38.749543
1493,510 S Walnut St, Versailles, MO,65084,29,141,470300,-90.32745,38.437987
1494,3151 Elm Point Industrial Dr, Saint Charles, MO,63301,29,183,311500,-90.241061,38.580615
1495,3601 Mueller Rd, Saint Charles, MO,63301,29,183,311500,-90.273383,38.668776
1496,250 Ofallon Plz, O Fallon, MO,63366,29,183,311602,-90.388595,38.536281
1497,201 Knaust Rd, Saint Peters, MO,63376,29,183,311721,-90.303404,38.771905
1498,210 W Main St, Parma, MO,63870,29,143,960400,-90.210609,38.602536
1500,801 King Ave, Portageville, MO,63873,29,143,960600,-90.286561,38.699539
1502,1513 Wentzville Pkwy, Wentzville, MO,63385,29,183,312096,-90.288357,38.6696
1503,411 W Pearce Blvd, Wentzville, MO,63385,29,183,312195,-90.247636,38.690365
1504,1020 Meyer Rd, Wentzville, MO,63385,29,183,312195,-90.470241,38.680842
1505,1060 Meyer Rd, Wentzville, MO,63385,29,183,312195,-90.264945,38.544289
1506,185 W Highway D, Wentzville, MO,63385,29,183,312204,-90.199475,38.662771
1508,257 Elementary Rd, Reeds Spring, MO,65737,29,209,90602,-90.285945,38.578043
1509,2183 Muegge Rd, Saint Charles, MO,63303,29,183,312300,-90.233082,38.789908
1510,6810 Mexico Rd, Saint Peters, MO,63376,29,183,312400,-90.27041,38.599167
1511,4150 S Cloverleaf Dr, Saint Peters, MO,63376,29,183,312400,-90.322617,38.709063
1512,349 Mid Rivers Mall Dr, Saint Peters, MO,63376,29,183,312400,-90.227056,38.657515
1513,400 McMenamy Rd, Saint Peters, MO,63376,29,183,312400,-90.256798,38.624321
1514,417 S Church St, Saint Peters, MO,63376,29,183,312400,-90.245951,38.56522
1515,4008 Shreve Ave, Saint Louis, MO,63115,29,510,126900,-90.242395,38.575828
1516,3948 N Kingshighway Blvd, Saint Louis, MO,63115,29,510,126900,-90.469802,38.671457
1517,3903 Goodfellow Blvd, Saint Louis, MO,63120,29,510,126900,-90.259631,38.545835
1518,201 E 6th St, Pickering, MO,64476,29,147,470500,-90.226533,38.633008
1519,620 Walnut St, Thayer, MO,65791,29,149,480200,-90.224483,38.661139
1521,1151 N Main St, Sainte Genevieve, MO,63670,29,186,960200,-90.40824,38.68763
1522,8410 N Broadway St, St Louis, MO,63147,29,510,127000,-90.290723,38.670891
1523,8784 N Broadway St, St Louis, MO,63147,29,510,127000,-90.225485,38.641524
1524,2737 S Kingshighway Blvd, Saint Louis, MO,63139,29,510,127200,-90.316643,38.677549
1525,1321 S 11th St, Saint Louis, MO,63104,29,510,127400,-90.210313,38.661766
1526,2830 Caroline St, St Louis, MO,63104,29,510,127400,-90.247335,38.591797
1527,1000 S 9th St, Saint Louis, MO,63104,29,510,127400,-90.204402,38.632211
1528,1224 S 14th St, Saint Louis, MO,63104,29,510,127400,-90.293376,38.686991
1529,607 N 22nd St, Saint Louis, MO,63103,29,510,127500,-90.211884,38.748175
1530,1920 Cass Ave, Saint Louis, MO,63106,29,510,127500,-90.338969,38.493829
1531,1301 Hogan St, Saint Louis, MO,63106,29,510,127500,-90.24058,38.587886
1532,1805 Lucas Ave, Saint Louis, MO,63103,29,510,127500,-90.234674,38.605817
1533,1908 Ofallon St, Saint Louis, MO,63106,29,510,127500,-90.254267,38.712418
1534,2524 S 11th St, Saint Louis, MO,63104,29,510,127600,-90.239667,38.682222
1535,217 S Hwy 17, Summersville, MO,65571,29,215,480200,-90.249859,38.572595
1536,60 N Hwy 17, Summersville, MO,65571,29,215,480200,-90.348147,38.680481
1537,10341 Hwy 17, Success, MO,65570,29,215,480300,-90.275754,38.671143
1538,176 State Hwy A, Portageville, MO,63873,29,155,470100,-90.215263,38.790277
1539,303 2nd St, Park Hills, MO,63601,29,187,951000,-90.215059,38.79085
1540,611 Jefferson St, Park Hills, MO,63601,29,187,951100,-90.25332,38.71111
1541,204 10th St, Park Hills, MO,63601,29,187,951100,-90.243969,38.590964
1542,703 E Main St, Park Hills, MO,63601,29,187,951100,-90.474428,38.567453
1543,1134 Saint Cyr Rd, Saint Louis, MO,63137,29,189,210400,-90.22583,38.639111
1544,1111 Saint Cyr Rd, Saint Louis, MO,63137,29,189,210400,-90.40652,38.577468
1545,10725 Vorhof Dr, Saint Louis, MO,63136,29,189,210501,-90.287284,38.612966
1546,2303 Chambers Rd, Saint Louis, MO,63136,29,189,210502,-90.303704,38.491552
1547,2332 Chambers Rd, Saint Louis, MO,63136,29,189,210502,-90.202456,38.61525
1548,2359 Chambers Rd, Saint Louis, MO,63136,29,189,210502,-90.276019,38.594995
1549,10112 Royal Dr, Saint Louis, MO,63136,29,189,210502,-90.386506,38.581187
1550,10020 Bellefontaine Rd, Saint Louis, MO,63137,29,189,210600,-90.425369,38.570484
1551,10012 Bellefontaine Rd, Saint Louis, MO,63137,29,189,210600,-90.307938,38.470327
1552,1022 Steinhagen Rd, Warrenton, MO,63383,29,219,820101,-90.288256,38.699572
1553,302 Kuhl Ave, Warrenton, MO,63383,29,219,820102,-90.248234,38.751031
1554,800 Warrior Ave, Warrenton, MO,63383,29,219,820102,-90.380843,38.499985
1555,302 Kuhl Ave, Warrenton, MO,63383,29,219,820102,-90.252212,38.742001
1556,836 South St, Warrenton, MO,63383,29,219,820102,-90.418524,38.655058
1557,501 N MO 47, Warrenton, MO,63383,29,219,820102,-90.418726,38.566858
1558,509 Beasley Rd, Steele, MO,63877,29,155,470600,-90.293707,38.515726
1559,500 W North St, Perryville, MO,63775,29,157,470300,-90.23851,38.642521
1560,1422 N Kingshighway St, Perryville, MO,63775,29,157,470300,-90.256357,38.624997
1561,104 N French Ln, Perryville, MO,63775,29,157,470300,-90.272611,38.66468
1562,326 College St, Perryville, MO,63775,29,157,470400,-90.243855,38.676267
1563,1335 Chloe St, Perryville, MO,63775,29,157,470400,-90.277142,38.525472
1564,515 W Saint Joseph St, Perryville, MO,63775,29,157,470400,-90.252732,38.744012
1565,4 W South St, Perryville, MO,0,29,157,470400,-90.289367,38.699101
1566,2505 W 32nd St, Sedalia, MO,65301,29,159,480200,-90.271624,38.722933
1567,4515 W Main St, Sedalia, MO,65301,29,159,480200,-90.462186,38.64684
1568,2345 McVey Rd, Sedalia, MO,65301,29,159,480400,-90.315077,38.622958
1569,505 S Myrtle Ave, Smithton, MO,65350,29,159,480400,-90.326216,38.611881
1570,505 S Myrtle Ave, Smithton, MO,65350,29,159,480400,-90.307379,38.535299
1571,1109 E 13th St, Sedalia, MO,65301,29,159,480500,-90.255078,38.751797
1572,12068 Bellefontaine Rd, Saint Louis, MO,63138,29,189,210703,-90.233101,38.785739
1573,12606 Lusher Rd, Spanish Lake, MO,63033,29,189,210703,-90.267216,38.590846
1574,2017 Arrowpoint Dr, Saint Louis, MO,63138,29,189,210703,-90.290978,38.514247
1575,12011 Bellefontaine Rd, Saint Louis, MO,63138,29,189,210704,-90.300925,38.595762
1577,2011 Redman Rd, Saint Louis, MO,63138,29,189,210704,-90.387199,38.484734
1578,4401 Parker Rd, Black Jack, MO,63033,29,189,210803,-90.44352,38.647593
1580,11133 Dunn Rd, Saint Louis, MO,63136,29,189,210805,-90.224112,38.645471
1581,2120 Redman Rd, Saint Louis, MO,63136,29,189,210805,-90.219533,38.589547
1582,11230 Old Halls Ferry Rd, Saint Louis, MO,63136,29,189,210805,-90.327444,38.514236
1583,11889 Benham Rd, Saint Louis, MO,63138,29,189,210806,-90.250153,38.678324
1584,608 Raymond St, Potosi, MO,63664,29,221,460300,-90.265439,38.67478
1585,509 S State Fair Blvd, Sedalia, MO,65301,29,159,480700,-90.404832,38.668962
1586,600 S Warren Ave, Sedalia, MO,65301,29,159,480800,-90.287823,38.665397
1587,610 S Engineer Ave, Sedalia, MO,65301,29,159,480900,-90.248255,38.664308
1588,314 S Washington Ave, Sedalia, MO,65301,29,159,480900,-90.234025,38.734409
1589,3109 Aaron Ave, Sedalia, MO,65301,29,159,481000,-90.228444,38.723089
1590,1901 S New York Ave, Sedalia, MO,65301,29,159,481000,-90.227525,38.662069
1591,2703 Matthew Dr, Sedalia, MO,0,29,159,481000,-90.251543,38.710715
1592,1100 W 16th St, Sedalia, MO,65301,29,159,481100,-90.233509,38.588593
1593,1900 Clarendon Rd, Sedalia, MO,65301,29,159,481100,-90.25394,38.60188
1594,19410 County Rd 3620, Saint James, MO,65559,29,161,890200,-90.225231,38.61662
1595,1518 Lola Ln, Saint James, MO,65559,29,161,890200,-90.23211,38.579495
1596,1412 Heller St, Rolla, MO,65401,29,161,890300,-90.225037,38.619997
1597,1811 E 10th St, Rolla, MO,65401,29,161,890300,-90.191747,38.637026
1598,7200 Howdershell Rd, Hazelwood, MO,63042,29,189,211332,-90.276879,38.677108
1599,2015 Mullanphy Ln, Florissant, MO,63031,29,189,211334,-90.26455,38.588777
1600,8310 Frost Ave, Saint Louis, MO,63134,29,189,211500,-90.249731,38.565198
1601,1248 N Florissant Rd, Saint Louis, MO,63135,29,189,211600,-90.198361,38.618081
1602,1425 Stein Rd, Saint Louis, MO,63135,29,189,211700,-90.262439,38.657455
1603,3400 Pershall Rd, Saint Louis, MO,63135,29,189,211700,-90.216058,38.610544
1604,200 Day Dr, Saint Louis, MO,63135,29,189,211700,-90.253304,38.711288
1605,3830 Pershall Rd, Saint Louis, MO,63135,29,189,211700,-90.254152,38.714393
1606,10136 West Florissant Ave, Saint Louis, MO,63136,29,189,211802,-90.20489,38.617906
1607,9833 Halls Ferry Rd, Saint Louis, MO,63136,29,189,211900,-90.251776,38.641143
1608,9859 Halls Ferry Rd, Saint Louis, MO,63136,29,189,211900,-90.467992,38.69193
1609,9549 Glen Owen Dr, Saint Louis, MO,63136,29,189,211900,-90.253637,38.643841
1610,9909 Halls Ferry Rd, Saint Louis, MO,63136,29,189,211900,-90.262533,38.546436
1611,7436 West Florissant Ave, Saint Louis, MO,63136,29,189,212102,-90.26827,38.580547
1612,6265 Steve Marre Ave, Saint Louis, MO,63121,29,189,212200,-90.327613,38.71034
1613,6307 Windham Ave, Saint Louis, MO,63120,29,189,212200,-90.198641,38.785731
1614,6515 Natural Bridge Rd, Saint Louis, MO,63121,29,189,212200,-90.305709,38.467275
1615,4111 Cedarwood Ave, Saint Louis, MO,63121,29,189,212200,-90.32674,38.761532
1616,3801 Nelson Dr, Saint Louis, MO,63121,29,189,212200,-90.230374,38.647293
1617,3810 Colonial Ave, Saint Louis, MO,63121,29,189,212200,-90.276082,38.576094
1618,3883 Jennings Station Rd, Saint Louis, MO,63121,29,189,212200,-90.322787,38.749485
1619,4315 Cardwell Dr, Saint Louis, MO,63121,29,189,212300,-90.223694,38.750607
1620,7564 Woodstock Ave, Saint Louis, MO,63135,29,189,212400,-90.230306,38.707453
1621,10015 E 59th St, Raytown, MO,64133,29,95,12501,-90.301311,38.522213
1622,9812 E 66th St, Raytown, MO,64133,29,95,12600,-90.212435,38.671462
1623,8643 Raytown Rd, Raytown, MO,64138,29,95,12802,-90.253702,38.675073
1624,113 Piedmont Ave, Piedmont, MO,63957,29,223,690300,-90.202508,38.641071
1625,422 S Main St, Piedmont, MO,63957,29,223,690300,-90.235534,38.67102
1626,209 N Main St, Piedmont, MO,63957,29,223,690300,-90.240709,38.720449
1627,825 N Main St, Piedmont, MO,63957,29,223,690300,-90.239478,38.695257
1628,1301 S Florissant Rd, Saint Louis, MO,63121,29,189,212700,-90.22973,38.601314
1629,201 Brotherton Ln, Saint Louis, MO,63135,29,189,212700,-90.199948,38.624362
1630,2153 McKelvey Rd, Maryland Heights, MO,63043,29,189,213202,-90.479421,38.598861
1631,10450 International Plaza Dr, Saint Ann, MO,63074,29,189,213300,-90.247222,38.751167
1632,10451 International Plaza Dr, Saint Ann, MO,63074,29,189,213300,-90.244366,38.753502
1633,4301 Edmundson Rd, Saint Louis, MO,63134,29,189,213300,-90.452431,38.717296
1634,3580 Woodson Rd, Saint Louis, MO,63114,29,189,213500,-90.226609,38.605041
1635,8701 Saint Charles Rock Rd, Saint Louis, MO,63114,29,189,213500,-90.358841,38.719163
1636,3510 Woodson Rd, Saint Louis, MO,63114,29,189,213500,-90.323089,38.670347
1637,3327 N Hanley Rd, Saint Louis, MO,63121,29,189,213600,-90.269028,38.619605
1638,3417 Saint Thomas More Pl, Saint Louis, MO,63121,29,189,213600,-90.372893,38.537617
1639,3417 Saint Thomas More Pl, Saint Louis, MO,63121,29,189,213600,-90.221834,38.611107
1640,7800 Natural Bridge Rd, Saint Louis, MO,63121,29,189,213700,-90.35061,38.605743
1641,7837 Natural Bridge Rd, Saint Louis, MO,63121,29,189,213700,-90.255537,38.632983
1642,3101 Nordic Dr, Saint Louis, MO,63121,29,189,213700,-90.232101,38.734127
1643,3607 Kienlen Ave, Saint Louis, MO,63121,29,189,213800,-90.283817,38.612587
1644,6814 Natural Bridge Rd, Saint Louis, MO,63121,29,189,213800,-90.22084,38.646826
1646,7030 Natural Bridge Rd, Saint Louis, MO,63121,29,189,213800,-90.248115,38.658973
1647,6633 Dr Martin Luther King Dr, Saint Louis, MO,63133,29,189,213900,-90.333604,38.752744
1648,6144 Page Ave, Saint Louis, MO,63133,29,189,213900,-90.204664,38.634046
1649,1232 Robert L Powell Pl, Wellston, MO,63133,29,189,213900,-90.378594,38.503278
1650,7240 Page Ave, Saint Louis, MO,63133,29,189,214200,-90.284511,38.676761
1651,7717 Page Ave, Saint Louis, MO,63133,29,189,214200,-90.300095,38.542711
1652,1730 N Hanley Rd, Saint Louis, MO,63114,29,189,214200,-90.22439,38.78563
1653,8020 Saint Charles Rock Rd, Saint Louis, MO,63114,29,189,214300,-90.27232,38.652578
1654,8240 Saint Charles Rock Rd, Saint Louis, MO,63114,29,189,214300,-90.351178,38.531482
1655,8364 Midland Blvd, Saint Louis, MO,63114,29,189,214300,-90.294492,38.589757
1802,,,,,,,,-92.073365,37.389259
1656,2200 Brown Rd, Saint Louis, MO,63114,29,189,214500,-90.346489,38.70872
1657,9636 Midland Blvd, Saint Louis, MO,63114,29,189,214601,-90.254175,38.616556
1658,9561 Lackland Rd, Saint Louis, MO,63114,29,189,214601,-90.268227,38.569591
1659,9632 Midland Blvd, Saint Louis, MO,63114,29,189,214601,-90.256173,38.555106
1660,4019 E Hwy 47, Winfield, MO,63389,29,113,810400,-90.337967,38.695085
1661,7400 NW River Park Dr, Parkville, MO,64152,29,165,30101,-90.240604,38.587778
1662,5215 NW Crooked Rd, Parkville, MO,64152,29,165,30305,-90.290395,38.61051
1663,10801 NW Crooked Rd, Kansas City, MO,64152,29,165,30305,-90.255975,38.635947
1664,1836 Dyer Ave, Saint Louis, MO,63114,29,189,214602,-90.509027,38.649171
1665,10350 Baltimore Ave, Saint Ann, MO,63074,29,189,214700,-90.204365,38.640611
1666,2634 Sims Ave, Saint Louis, MO,63114,29,189,214700,-90.368226,38.700798
1667,11158 Old Saint Charles Rd, Saint Ann, MO,63074,29,189,214800,-90.306213,38.456696
1668,3721 Saint Bridget Ln, Saint Ann, MO,63074,29,189,214800,-90.36373,38.608014
1669,2900 Adie Rd, Saint Ann, MO,63074,29,189,214900,-90.306194,38.457319
1670,10935 Midland Blvd, Saint Louis, MO,63114,29,189,214900,-90.369278,38.707945
1671,2210 N Warson Rd, Saint Louis, MO,63114,29,189,214900,-90.338186,38.577625
1672,1492 Craig Rd, Saint Louis, MO,63146,29,189,215003,-90.396855,38.580859
1673,1170 Timber Run Dr, Saint Louis, MO,63146,29,189,215103,-90.322943,38.680327
1674,12790 Fee Fee Rd, Saint Louis, MO,63146,29,189,215142,-90.242981,38.613504
1675,1915 Ross Ave, Saint Louis, MO,63146,29,189,215142,-90.223754,38.750311
1676,12521 Marine Ave, Saint Louis, MO,63146,29,189,215142,-90.197991,38.787229
1677,900 N Mason Rd, Saint Louis, MO,63141,29,189,215201,-90.373694,38.507268
1678,12546 Conway Rd, Saint Louis, MO,63141,29,189,215201,-90.453683,38.695898
1679,601 S New Ballas Rd, Saint Louis, MO,63141,29,189,215201,-90.235178,38.647095
1680,12132 Olive St Rd, Saint Louis, MO,63141,29,189,215201,-90.306099,38.661876
1681,13725 Conway Rd, Saint Louis, MO,63141,29,189,215202,-90.305595,38.706949
1682,505 Hwy 273, Tracy, MO,64079,29,165,30401,-90.268437,38.740448
1683,2903 Williamsburg Ter, Platte City, MO,64079,29,165,30500,-90.244744,38.595738
1684,2401 Kentucky Ave, Platte City, MO,64079,29,165,30500,-90.297704,38.578951
1685,1701 Branch St, Platte City, MO,64079,29,165,30500,-90.233796,38.642989
1686,1601 Branch St, Platte City, MO,64079,29,165,30500,-90.23135,38.620333
1687,14215 92 Hwy, Platte City, MO,64079,29,165,30600,-90.28171,38.670923
1688,311 W McCurry St, Pleasant Hope, MO,65725,29,167,960300,-90.364947,38.67398
1689,10890 Ladue Rd, Saint Louis, MO,63141,29,189,215302,-90.207003,38.670254
1691,9120 Olive Blvd, Saint Louis, MO,63132,29,189,215500,-90.230474,38.711659
1692,10106 Old Olive St Rd, Saint Louis, MO,63141,29,189,215600,-90.313558,38.65132
1693,1481 82nd Blvd, Saint Louis, MO,63132,29,189,215700,-90.209167,38.669063
1694,1500 82nd Blvd, Saint Louis, MO,63132,29,189,215700,-90.339499,38.577877
1696,7400 Olive Blvd, Saint Louis, MO,63130,29,189,215900,-90.253549,38.746747
1697,7249 Olive Blvd, Saint Louis, MO,63130,29,189,215900,-90.361586,38.592188
1698,6646 Vernon Ave, Saint Louis, MO,63130,29,189,216100,-90.255923,38.650904
1699,737 Kingsland Ave, Saint Louis, MO,63130,29,189,216100,-90.299791,38.552218
1700,737 Kingsland Ave, Saint Louis, MO,63130,29,189,216100,-90.254903,38.81037
1701,7220 Waterman Ave, Saint Louis, MO,63130,29,189,216200,-90.263961,38.776813
1702,7157 Northmoor Dr, Saint Louis, MO,63105,29,189,216200,-90.197972,38.788079
1703,7400 Balson Ave, Saint Louis, MO,63130,29,189,216200,-90.241442,38.61822
1704,941 Midland Blvd, Saint Louis, MO,63130,29,189,216200,-90.314141,38.765413
1706,7100 Oakland Ave, Richmond Heights, MO,63117,29,189,216800,-90.357346,38.693966
1707,1800 Princeton Pl, Saint Louis, MO,63117,29,189,216800,-90.348704,38.815363
1708,2801 Oakland Ave, Saint Louis, MO,63143,29,189,217000,-90.355671,38.61932
1710,8636 Litzsinger Rd, Saint Louis, MO,63144,29,189,217300,-90.34661,38.624645
1711,624 Lohmann Forest Ln, Saint Louis, MO,63119,29,189,219500,-90.251657,38.671853
1712,670 S Laclede Station Rd S, Saint Louis, MO,63119,29,189,219600,-90.259617,38.656384
1713,4974 Heege Rd, Saint Louis, MO,63123,29,189,219800,-90.307125,38.707368
1714,4530 Weber Rd, Saint Louis, MO,63123,29,189,219900,-90.376837,38.706793
1716,4530 Weber Rd, Saint Louis, MO,63123,29,189,219900,-90.309443,38.665242
1717,,,,,,,,-90.321244,38.441277
1718,,,,,,,,-90.285608,38.494385
1719,,,,,,,,-90.380075,38.527488
1720,,,,,,,,-90.39771,38.468348
1721,,,,,,,,-90.30603,38.460384
1722,,,,,,,,-90.294275,38.596811
1724,,,,,,,,-90.481058,38.637164
1725,,,,,,,,-90.459337,38.703346
1726,,,,,,,,-90.442539,38.683684
1727,,,,,,,,-90.409174,38.684386
1728,,,,,,,,-90.384086,38.692934
1729,,,,,,,,-90.328702,38.684551
1730,,,,,,,,-90.365364,38.730929
1731,,,,,,,,-90.343106,38.616962
1732,,,,,,,,-90.276089,38.693089
1733,,,,,,,,-90.319269,38.708677
1734,,,,,,,,-90.226322,38.811652
1735,,,,,,,,-90.29417,38.709299
1736,,,,,,,,-90.359273,38.717777
1737,,,,,,,,-90.308251,38.659597
1738,,,,,,,,-90.278105,38.664224
1739,,,,,,,,-90.302095,38.6312
1740,,,,,,,,-90.276317,38.597688
1741,,,,,,,,-90.246688,38.614865
1742,,,,,,,,-90.311373,38.531059
1743,,,,,,,,-90.333723,38.480784
1744,,,,,,,,-90.287447,38.524461
1745,,,,,,,,-90.320426,38.478054
1746,,,,,,,,-90.338305,38.417613
1747,,,,,,,,-90.331515,38.48731
1748,,,,,,,,-90.367569,38.49369
1749,,,,,,,,-90.270688,38.687657
1750,,,,,,,,-90.327613,38.71034
1751,,,,,,,,-90.308251,38.659597
1752,,,,,,,,-90.30725,38.68266
1753,,,,,,,,-90.236203,38.655657
1754,,,,,,,,-90.302698,38.559198
1755,,,,,,,,-90.399537,38.698177
1756,,,,,,,,-90.252813,38.766798
1757,,,,,,,,-90.304105,38.621507
1759,,,,,,,,-90.230766,38.685104
1760,,,,,,,,-90.33279,38.743941
1761,,,,,,,,-90.621923,38.772586
1762,,,,,,,,-90.628732,38.76943
1763,,,,,,,,-90.580603,38.77423
1764,,,,,,,,-90.578453,38.778507
1765,,,,,,,,-90.576905,38.784395
1766,,,,,,,,-90.618443,38.788219
1767,,,,,,,,-90.601886,38.740621
1768,,,,,,,,-90.584549,38.757111
1769,,,,,,,,-90.451113,38.672394
1770,,,,,,,,-90.575639,38.793168
1771,,,,,,,,-90.630405,38.788602
1772,,,,,,,,-90.588126,38.75426
1773,,,,,,,,-90.620854,38.797269
1774,,,,,,,,-90.636931,38.759082
1775,,,,,,,,-90.60973,38.788994
1776,,,,,,,,-90.662173,38.787125
1778,,,,,,,,-90.577025,38.754962
1779,,,,,,,,-90.573849,38.790052
1780,,,,,,,,-90.576787,38.789693
1781,,,,,,,,-90.582086,38.7872
1782,,,,,,,,-90.675936,38.783929
1783,,,,,,,,-90.628238,38.796106
1784,,,,,,,,-90.629455,38.793211
1785,,,,,,,,-90.640567,38.788567
1786,,,,,,,,-90.236572,38.580062
1787,,,,,,,,-92.135074,37.814784
1788,,,,,,,,-94.539973,40.220478
1789,,,,,,,,-92.139412,37.808728
1803,,,,,,,,-91.154339,38.211807
1804,,,,,,,,-90.04992,37.992525
1805,,,,,,,,-91.160409,38.208868
1806,,,,,,,,-91.658718,37.174125
1807,,,,,,,,-91.181895,38.209492
1808,,,,,,,,-90.412823,38.541033
1811,,,,,,,,-95.391811,40.437359
1812,,,,,,,,-91.544208,36.522664
1814,,,,,,,,-92.781471,38.652153
1816,,,,,,,,-91.661653,37.178262
1817,,,,,,,,-93.606128,40.072216
1818,,,,,,,,-93.609798,40.06858
1819,,,,,,,,-90.978988,38.975435
1820,,,,,,,,-90.967656,38.976144
1821,,,,,,,,-93.618497,40.082847
1830,,,,,,,,-91.029594,38.452995
1831,,,,,,,,-91.016451,38.445545
1832,,,,,,,,-91.022362,38.477533
1833,,,,,,,,-92.993712,40.474877
1834,,,,,,,,-90.348031,38.680271
1835,,,,,,,,-91.025494,38.451945
1836,,,,,,,,-91.009726,38.440659
1837,,,,,,,,-90.322141,38.653738
1838,,,,,,,,-90.32042,38.646827
1839,,,,,,,,-90.479177,38.565994
1840,,,,,,,,-90.32875,38.664109
1841,,,,,,,,-90.321757,38.663351
1842,,,,,,,,-91.013705,37.011345
1843,,,,,,,,-92.838185,38.435696
1845,,,,,,,,-90.4969,38.551572
1846,,,,,,,,-93.719501,38.773212
1847,,,,,,,,-93.779816,38.779552
1848,,,,,,,,-92.847729,38.426584
1849,,,,,,,,-93.733619,38.765289
1850,,,,,,,,-93.723565,38.76807
1851,,,,,,,,-93.004401,40.482411
1852,,,,,,,,-93.741165,38.750269
1853,,,,,,,,-93.725533,38.764337
1854,,,,,,,,-93.729285,38.74531
1855,,,,,,,,-93.735596,38.756623
1856,,,,,,,,-91.139381,38.808127
1857,,,,,,,,-91.142274,38.795886
1858,,,,,,,,-91.139381,38.808127
1859,,,,,,,,-91.136576,38.822621
1860,,,,,,,,-91.130951,38.810556
1861,,,,,,,,-93.369372,38.241083
1862,,,,,,,,-93.959527,36.586776
1863,,,,,,,,-90.987955,38.542797
1864,,,,,,,,-91.016961,38.535535
1866,,,,,,,,-91.00587,38.534105
1867,,,,,,,,-90.980394,38.542649
1869,,,,,,,,-91.03816,38.556966
1870,,,,,,,,-93.734232,38.70248
1871,,,,,,,,-91.577453,40.397807
1872,,,,,,,,-92.206894,37.812334
1873,,,,,,,,-92.237117,37.813301
1874,,,,,,,,-91.141855,38.814177
1875,,,,,,,,-94.482096,37.148456
1876,,,,,,,,-94.462738,37.155242
1877,,,,,,,,-94.509196,37.195861
1878,,,,,,,,-94.480576,37.148772
1879,,,,,,,,-90.350426,38.603563
1880,,,,,,,,-90.375861,38.584412
1881,,,,,,,,-93.990804,39.132536
1882,,,,,,,,-94.460402,37.14045
1883,,,,,,,,-90.300923,38.667504
1884,,,,,,,,-90.880795,38.82486
1886,,,,,,,,-90.857844,38.810617
1887,,,,,,,,-90.859258,38.822962
1888,,,,,,,,-90.886349,38.709001
1889,,,,,,,,-92.192809,37.826705
1890,,,,,,,,-90.859285,38.824051
1891,,,,,,,,-90.875551,38.824898
1892,,,,,,,,-93.982492,39.130589
1893,,,,,,,,-90.892636,38.80643
1894,,,,,,,,-90.840396,38.812504
1897,,,,,,,,-91.857806,36.732118
1898,,,,,,,,-91.864311,36.757913
1899,,,,,,,,-91.870711,36.721681
1900,,,,,,,,-91.860586,36.7323
1901,,,,,,,,-91.844877,36.728097
1902,,,,,,,,-91.858617,36.72622
1904,,,,,,,,-90.643679,38.600359
1905,,,,,,,,-90.641724,38.597744
1906,,,,,,,,-90.614846,38.608824
1907,,,,,,,,-90.634729,38.576313
1908,,,,,,,,-93.431853,37.306905
1909,,,,,,,,-91.861379,36.672135
1910,,,,,,,,-91.972227,36.993876
1913,,,,,,,,-91.969858,36.625069
1914,,,,,,,,-91.018913,38.828053
1915,,,,,,,,-91.326103,37.009832
1917,,,,,,,,-90.748239,38.990452