id,address,city,state,zip,longitude,latitude,state,county,tract
0,2101 N Twyman Rd, Independence, MO,64058,-94.292249,39.139073,29,95,15000
1,2101 N Twyman Rd, Independence, MO,64058,-94.292249,39.139073,29,95,15000
2,1015 Central St, Kansas City, MO,64105,-94.58683,39.102113,29,95,15700
3,2727 Tracy Ave, Kansas City, MO,64109,-94.568269,39.077183,29,95,16200
4,201 E Armour Blvd, Kansas City, MO,64111,-94.583291,39.063646,29,95,17800
5,201 E Armour Blvd, Kansas City, MO,64111,-94.583291,39.063646,29,95,17800
6,201 E Armour Blvd, Kansas City, MO,64111,-94.583291,39.063646,29,95,17800
7,3450 Warwick Blvd, Kansas City, MO,64111,-94.583379,39.063892,29,95,17800
8,714 S Main St, Carthage, MO,64836,-94.31099,37.173867,29,97,11600
9,849 Jeffco Blvd, Arnold, MO,63010,-90.371565,38.447241,29,99,700110
10,739 Jeffco Blvd, Arnold, MO,63010,-90.367718,38.449557,29,99,700110
11,743 Jeffco Blvd, Arnold, MO,63010,-90.367794,38.449511,29,99,700110
12,751 Jeffco Blvd, Arnold, MO,63010,-90.367945,38.44942,29,99,700110
13,4630 Brennan Rd, Murphy, MO,63049,-90.505801,38.486716,29,99,700303
14,1501 Midmeadow Ln, Festus, MO,63028,-90.41352,38.222467,29,99,700801
15,1500 Midmeadow Ln, Festus, MO,63028,-90.413426,38.222387,29,99,700801
16,1717 W Main St, Festus, MO,63028,-90.416712,38.217176,29,99,700801
17,501 Westwind Dr, Festus, MO,63028,-90.41404,38.224003,29,99,700801
18,3775 Athena School Rd, De Soto, MO,63020,-90.473876,38.123604,29,99,701300
19,305 W Prospect St, Aurora, MO,65605,-93.731047,36.954927,29,109,470601
20,500 W Olive St, Aurora, MO,65605,-93.728736,36.975687,29,109,470601
21,233 S Harris St, Harrisburg, MO,65256,-92.46236,39.139943,29,19,1901
22,221 S Harris St, Harrisburg, MO,65256,-92.462358,39.140092,29,19,1901
23,205 Caruthers St, Cape Girardeau, MO,63701,-89.544969,37.308086,29,31,881100
24,1900 Thilenius St, Cape Girardeau, MO,63701,-89.544418,37.311012,29,31,881100
25,102 E Eldridge St, Bosworth, MO,64623,-93.332416,39.467906,29,33,960100
26,102 E Eldridge St, Bosworth, MO,64623,-93.332416,39.467906,29,33,960100
27,1801 S James St, Harrisonville, MO,64701,-94.338749,38.642319,29,37,61400
28,503 S Lexington St, Harrisonville, MO,64701,-94.347965,38.652514,29,37,61400
29,601 S Highland Dr, Harrisonville, MO,64701,-94.34577,38.651877,29,37,61400
30,1008 County Rd, Brunswick, MO,65236,-93.117952,39.424969,29,41,470200
31,1008 County Rd, Brunswick, MO,65236,-93.117952,39.424969,29,41,470200
32,900 Cheyenne Rd, Nixa, MO,65714,-93.265139,37.047713,29,43,20305
33,4327 N Holmes St, Kansas City, MO,64116,-94.572012,39.17282,29,47,20201
34,2000 NE 46th St, Kansas City, MO,64116,-94.555891,39.176748,29,47,20400
35,1022 S Chestnut St, Cameron, MO,64429,-94.238665,39.733756,29,49,960100
36,1403 Riverside Dr, Jefferson City, MO,65101,-92.146718,38.568366,29,51,20700
37,502 S Olive St, Gallatin, MO,64640,-93.97081,39.910766,29,61,470200
38,602 S Olive St, Gallatin, MO,64640,-93.970807,39.909743,29,61,470200
39,1600 Ely St, Kennett, MO,63857,-90.036241,36.2513,29,69,360600
40,328 W 7th St, Hermann, MO,65041,-91.444675,38.7022,29,73,960100
41,506 S Grant Ave, Springfield, MO,65806,-93.298788,37.205118,29,77,100
42,1601 E Pythian St, Springfield, MO,65802,-93.26611,37.218428,29,77,800
43,2148 N Douglas Ave, Springfield, MO,65803,-93.299178,37.23616,29,77,1900
44,3319 N Grant Ave, Springfield, MO,65803,-93.296921,37.256715,29,77,4400
45,402 N Ward St, Craig, MO,64437,-95.375868,40.198824,29,87,960100
46,402 N Ward St, Craig, MO,64437,-95.375868,40.198824,29,87,960100
47,335 N Elmwood Ave, Kansas City, MO,64123,-94.527791,39.115796,29,95,700
48,1924 Van Brunt Blvd, Kansas City, MO,64127,-94.520111,39.087748,29,95,2200
49,3740 Forest Ave, Kansas City, MO,64109,-94.570827,39.058728,29,95,5300
50,2800 E Linwood Blvd, Kansas City, MO,64128,-94.550598,39.068027,29,95,5601
51,5809 Michigan Ave, Kansas City, MO,64130,-94.56358,39.021193,29,95,8000
52,8715 Holmes Rd, Kansas City, MO,64131,-94.581296,38.969481,29,95,9700
53,600 W Mechanic Ave, Independence, MO,64050,-94.421864,39.104123,29,95,11200
54,15200 White Ave, Grandview, MO,64030,-94.520487,38.849468,29,95,13410
55,400 SE Millstone Ave, Lees Summit, MO,64063,-94.312325,38.910639,29,95,13904
56,551 SW Eagles Pkwy, Grain Valley, MO,64029,-94.20429,39.010443,29,95,14006
57,4001 SW Christiansen Dr, Blue Springs, MO,64014,-94.26937,38.980532,29,95,14111
58,20 Gray Ave, Saint Louis, MO,63119,-90.360952,38.592381,29,189,219300
59,8309 MacKenzie Rd, Saint Louis, MO,63123,-90.321946,38.560149,29,189,219700
60,8348 S Laclede Station Rd S, Saint Louis, MO,63123,-90.340837,38.562027,29,189,219700
61,5140 Patterson Rd, Saint Louis, MO,63129,-90.333723,38.480784,29,189,220432
62,1020 S Sappington Rd, Saint Louis, MO,63126,-90.384359,38.564171,29,189,221900
63,510 W Lindenwood Ave, Sikeston, MO,63801,-89.604813,36.892001,29,201,781300
64,910 Nina St, Dexter, MO,63841,-89.969649,36.805068,29,207,470500
65,400 W Lee St, Nevada, MO,64772,-94.360296,37.843587,29,217,950300
66,901 N Olive St, Nevada, MO,64772,-94.371177,37.848009,29,217,950300
67,1500 W Ashland St, Nevada, MO,64772,-94.375554,37.845143,29,217,950300
68,185 Walnut St, Greenville, MO,63944,-90.445856,37.132688,29,223,690200
69,178 Walnut St, Greenville, MO,63944,-90.445949,37.131962,29,223,690200
70,178 Walnut St, Greenville, MO,63944,-90.445949,37.131962,29,223,690200
71,26832 Highway 129, Bucklin, MO,64631,-92.858384,39.897567,29,115,490100
72,26832 Highway 129, Bucklin, MO,64631,-92.858384,39.897567,29,115,490100
73,1100 Oak St, Chillicothe, MO,64601,-93.546089,39.798097,29,117,480300
74,1200 Fair St, Chillicothe, MO,64601,-93.559226,39.79852,29,117,480300
75,400 Bloomington St, Bevier, MO,63532,-92.561732,39.750524,29,121,960300
76,400 Bloomington St, Bevier, MO,63532,-92.561732,39.750524,29,121,960300
77,500 Union St, Hannibal, MO,63401,-91.351134,39.703701,29,127,960800
78,1405 Pearl St, Hannibal, MO,63401,-91.369816,39.702169,29,127,960800
79,114 N Spruce St, Eldon, MO,65026,-92.582985,38.35076,29,131,962900
80,101 S Pine St, Eldon, MO,65026,-92.582256,38.34964,29,131,962900
81,112 S Pine St, Eldon, MO,65026,-92.582125,38.349487,29,131,962900
82,1400 S Grand Ave, Eldon, MO,65026,-92.586692,38.339462,29,131,962900
83,409 E 15th St, Eldon, MO,65026,-92.578405,38.338928,29,131,962900
84,211 S Owen St, California, MO,65018,-92.567742,38.631644,29,135,385200
85,101 S Owen St, California, MO,65018,-92.567691,38.63292,29,135,385200
86,301 Big Spring Dr, Neosho, MO,64850,-94.369916,36.868682,29,145,20100
87,1317 W MO 84, Hayti, MO,63851,-89.765841,36.233886,29,155,470200
88,900 Washington Ave, Caruthersville, MO,63830,-89.668255,36.189935,29,155,470300
89,300 Lanning Ln, Rolla, MO,65401,-91.769996,37.931609,29,161,890800
90,402 Lanning Ln, Rolla, MO,65401,-91.771284,37.931624,29,161,890800
91,500 School St, Frankford, MO,63441,-91.319114,39.495628,29,163,460200
92,2001 NW 87th Ter, Kansas City, MO,64154,-94.601207,39.251126,29,165,30201
93,286 Eastlawn Ave, Saint Robert, MO,65584,-92.135074,37.814784,29,169,470287
94,701 E Main St, Richmond, MO,64085,-93.965972,39.278096,29,177,80200
95,2000 Elm St, St Charles, MO,63301,-90.496972,38.79212,29,183,310302
96,1950 Elm St, St Charles, MO,63301,-90.495773,38.790617,29,183,310302
97,1035 Jungs Station Rd, Saint Charles, MO,63303,-90.561075,38.741125,29,183,311147
98,1155 Jungs Station Rd, St Peters, MO,63303,-90.562544,38.74344,29,183,311147
99,1725 Thoele Rd, Saint Peters, MO,63376,-90.597669,38.763244,29,183,311331
100,1 Black Knight Dr, Farmington, MO,63640,-90.436333,37.77494,29,187,950902
101,1012 W Columbia St, Farmington, MO,63640,-90.434764,37.775498,29,187,950902
102,1012 W Columbia St, Farmington, MO,63640,-90.434764,37.775498,29,187,950902
103,13298 Bellefontaine Rd, Saint Louis, MO,63138,-90.217355,38.82226,29,189,210100
104,13315 Bellefontaine Rd, Saint Louis, MO,63138,-90.217431,38.822695,29,189,210100
105,13290 Bellefontaine Rd, Saint Louis, MO,63138,-90.217379,38.822049,29,189,210100
106,1865 Dunn Rd, Saint Louis, MO,63138,-90.233182,38.771112,29,189,210702
107,11300 Dunn Rd, Saint Louis, MO,63138,-90.23688,38.777438,29,189,210702
108,6255 Howdershell Rd, Hazelwood, MO,63042,-90.379584,38.783591,29,189,211401
109,1 Wildcat Ln, Hazelwood, MO,63042,-90.378955,38.784184,29,189,211401
110,405 Country Club Dr, Ballwin, MO,63011,-90.549429,38.610102,29,189,217807
111,803 Couch Ave, Saint Louis, MO,63122,-90.425369,38.570484,29,189,218201
112,230 Quan Ave, Saint Louis, MO,63122,-90.402701,38.596141,29,189,218500
113,1823 W 20th St, Joplin, MO,64804,-94.53454,37.070007,29,97,10900
114,302 N Broadway St, Carl Junction, MO,64834,-94.569042,37.175805,29,97,11300
115,202 N Broadway St, Carl Junction, MO,64834,-94.569145,37.17349,29,97,11300
116,301 N Broadway St, Carl Junction, MO,64834,-94.568907,37.175755,29,97,11300
117,206 S Roney St, Carl Junction, MO,64834,-94.567519,37.176579,29,97,11300
118,210 E Hall St, Carterville, MO,64835,-94.440755,37.149979,29,97,11500
119,404 E Tracy St, Webb City, MO,64870,-94.460402,37.14045,29,97,11500
120,827 E Centennial Ave, Carthage, MO,64836,-94.302256,37.161986,29,97,11700
121,1100 E Airport Dr, Carthage, MO,64836,-94.296693,37.147368,29,97,11700
122,1201 E Fairview Ave, Carthage, MO,64836,-94.296459,37.154698,29,97,11700
123,1015 W Macon St, Carthage, MO,64836,-94.323516,37.167526,29,97,11800
124,3901 Old State Hwy M, Imperial, MO,63052,-90.479428,38.367521,29,99,700107
125,4525 E 4 Ridge Rd, Imperial, MO,63052,-90.492192,38.396119,29,99,700107
126,6576 Smiley Ave, Saint Louis, MO,63139,-90.30248,38.606942,29,510,103400
127,5130 Oakland Ave, Saint Louis, MO,63110,-90.271832,38.629412,29,510,104500
128,3935 Enright Ave, Saint Louis, MO,63108,-90.238603,38.645026,29,510,111100
129,3417 Grace Ave, Saint Louis, MO,63116,-90.244744,38.595738,29,510,116301
130,100 S Garrison Ave, Saint Louis, MO,63103,-90.223034,38.631594,29,510,118400
131,310 N 15th St, Saint Louis, MO,63103,-90.20155,38.630712,29,510,125500
132,3820 N 14th St, Saint Louis, MO,63107,-90.199475,38.662771,29,510,126700
133,1008 S Spring Ave, Saint Louis, MO,63110,-90.24046,38.626724,29,510,127300
134,1008 S Spring Ave, Saint Louis, MO,63110,-90.24046,38.626724,29,510,127300
135,1465 S Grand Blvd, Saint Louis, MO,63104,-90.238592,38.621111,29,510,127300
136,1911 N Blue Mills Rd, Independence, MO,64058,-94.339131,39.137501,29,95,15100
137,1722 Holly St, Kansas City, MO,64108,-94.598107,39.092501,29,95,15300
138,6700 Corporate Dr, Kansas City, MO,64120,-94.505405,39.135766,29,95,15500
139,6700 Corporate Dr, Kansas City, MO,64120,-94.505405,39.135766,29,95,15500
140,1711 Broadway St, Kansas City, MO,64108,-94.588679,39.09279,29,95,15800
141,2400 Prospect Ave, Kansas City, MO,64127,-94.552291,39.083071,29,95,16600
142,3100 Main St, Kansas City, MO,64111,-94.585396,39.071009,29,95,16700
143,706 W 42nd St, Kansas City, MO,64111,-94.595129,39.052554,29,95,16800
144,4251 Bridger Rd, Kansas City, MO,64111,-94.593375,39.050408,29,95,16800
145,3958 Chelsea Ave, Kansas City, MO,64130,-94.527235,39.053508,29,95,17100
146,9010 Old Santa Fe Rd, Kansas City, MO,64138,-94.503435,38.961581,29,95,17400
147,4401 NE Lakewood Way, Lees Summit, MO,64064,-94.356879,38.991017,29,95,18500
148,1201 NE Colbern Rd, Lees Summit, MO,64086,-94.348596,38.945812,29,95,18600
149,905 NE Bluestem Dr, Lees Summit, MO,64086,-94.313033,38.928799,29,95,989100
150,1101 Goetz Blvd, Joplin, MO,64801,-94.467044,37.100576,29,97,10300
1980,\N,\N,\N,\N,\N,\N,\N,\N,\N
151,510 S Oronogo St, Webb City, MO,64870,-94.470093,37.140191,29,97,10300
152,6922 Rivermont Trl, House Springs, MO,63051,-90.590113,38.402515,29,99,700402
153,123 Leon Hall Pkwy, Hillsboro, MO,63050,-90.562925,38.237997,29,99,700502
154,101 Leon Hall Pkwy, Hillsboro, MO,63050,-90.562714,38.237999,29,99,700502
155,10478 Business 21, Hillsboro, MO,63050,-90.561626,38.238788,29,99,700502
156,10434 Highway BB, Hillsboro, MO,63050,-90.56913,38.234017,29,99,700502
157,6180 Highway MM, House Springs, MO,63051,-90.557431,38.402369,29,99,700503
158,1 Black Cat Dr, Herculaneum, MO,63048,-90.380222,38.26762,29,99,700601
159,1100 Mississippi Ave, Crystal City, MO,63019,-90.37832,38.230563,29,99,700700
160,600 Mississippi Ave, Crystal City, MO,63019,-90.377743,38.226087,29,99,700700
161,13 Hawk Dr, Hillsboro, MO,63050,-90.558903,38.235738,29,99,701000
162,12 Hawk Dr, Hillsboro, MO,63050,-90.55873,38.235443,29,99,701000
163,11470 Highway C, Hillsboro, MO,63050,-90.661656,38.216212,29,99,701102
164,11470 Highway C, Hillsboro, MO,63050,-90.661656,38.216212,29,99,701102
165,11470 Highway C, Hillsboro, MO,63050,-90.661656,38.216212,29,99,701102
166,731 AMVETS Dr, De Soto, MO,63020,-90.563918,38.134087,29,99,701200
167,815 AMVETS Dr, De Soto, MO,63020,-90.566802,38.134307,29,99,701200
168,1812 Rock Rd, De Soto, MO,63020,-90.573817,38.140514,29,99,701200
169,4380 Gravois Rd, House Springs, MO,63051,-90.563916,38.417614,29,99,700207
170,2901 High Ridge Blvd, High Ridge, MO,63049,-90.534649,38.462133,29,99,700304
171,400 Gibbs Ave, Pierce City, MO,65723,-93.997304,36.949174,29,109,470400
172,1010 7th St, Monett, MO,65708,-93.921052,36.930031,29,109,470400
173,200 S 4th St, Canton, MO,63435,-91.518963,40.133133,29,111,970100
174,200 S 4th St, Canton, MO,63435,-91.518963,40.133133,29,111,970100
175,188 Tomahawk Dr, Elsberry, MO,63343,-90.795219,39.162366,29,113,810100
176,138 Tomahawk Dr, Elsberry, MO,63343,-90.794207,39.162291,29,113,810100
177,1250 Dooling Hollow Rd, Festus, MO,63028,-90.340568,38.156874,29,99,701404
178,1903 S Market St, Holden, MO,64040,-93.991824,38.70308,29,101,960200
179,1901 S Main St, Holden, MO,64040,-93.990557,38.703233,29,101,960200
180,301 Eagle Dr, Holden, MO,64040,-93.987772,38.702873,29,101,960200
181,301 W Market St, Warrensburg, MO,64093,-93.745028,38.765322,29,101,960600
182,101 MO 2, Chilhowee, MO,64733,-93.780627,38.591,29,101,960900
183,101 MO 2, Chilhowee, MO,64733,-93.780627,38.591,29,101,960900
184,726 W Jefferson Ave, Conway, MO,65632,-92.830502,37.502714,29,105,960100
185,726 W Jefferson Ave, Conway, MO,65632,-92.830502,37.502714,29,105,960100
186,209 S Shiloh Ave, Conway, MO,65632,-92.832567,37.497854,29,105,960100
187,32959 Hwy 32, Falcon, MO,65470,-92.44305,37.624339,29,105,960298
188,695 Millcreek Rd, Lebanon, MO,65536,-92.654241,37.684055,29,105,960500
189,301 Hoover St, Lebanon, MO,65536,-92.676883,37.682179,29,105,960600
190,705 W 31st St, Higginsville, MO,64037,-93.726959,39.064385,29,107,90400
191,701 SW 4th St, Concordia, MO,64020,-93.575279,38.985974,29,107,90500
192,117 11th St, Concordia, MO,64020,-93.568729,38.977874,29,107,90500
193,108 S Hwy 39, Miller, MO,65707,-93.845232,37.21417,29,109,470100
194,1501 Main St, Cassville, MO,65625,-93.865817,36.683607,29,9,960500
195,1501 Main St, Cassville, MO,65625,-93.865817,36.683607,29,9,960500
196,1501 Main St, Cassville, MO,65625,-93.865817,36.683607,29,9,960500
197,1501 Main St, Cassville, MO,65625,-93.865817,36.683607,29,9,960500
198,1208 Walnut St, Golden City, MO,64748,-94.099023,37.388578,29,11,960100
199,1208 Walnut St, Golden City, MO,64748,-94.099023,37.388578,29,11,960100
200,601 N Houston St, Adrian, MO,64720,-94.348853,38.399376,29,13,70100
201,601 N Houston St, Adrian, MO,64720,-94.348853,38.399376,29,13,70100
202,1464 Boone St, Troy, MO,63379,-91.004923,38.975068,29,113,810201
203,205 W Dewey St, Brashear, MO,63533,-92.381501,40.150132,29,1,950100
204,205 W Dewey St, Brashear, MO,63533,-92.381501,40.150132,29,1,950100
205,600 Rombauer Ave, Novinger, MO,63559,-92.704283,40.234768,29,1,950200
206,600 Rombauer Ave, Novinger, MO,63559,-92.704283,40.234768,29,1,950200
207,18069 Highway 169, Cosby, MO,64436,-94.765317,39.858984,29,3,10100
208,21080 Osage St, Helena, MO,64459,-94.651672,39.914381,29,3,10400
209,35063 Highway BB, Laddonia, MO,63352,-91.646323,39.162892,29,7,950200
210,35063 Highway BB, Laddonia, MO,63352,-91.646323,39.162892,29,7,950200
211,905 N Wade St, Mexico, MO,65265,-91.890007,39.179182,29,7,950500
212,1250 W Curtis St, Mexico, MO,65265,-91.898311,39.177959,29,7,950500
213,704 W Boulevard St, Mexico, MO,65265,-91.894513,39.163339,29,7,950700
214,550 W Lakeview St, Centralia, MO,65240,-92.144321,39.204498,29,19,2000
215,849 S Jefferson St, Centralia, MO,65240,-92.134216,39.200381,29,19,2000
216,510 S Rollins St, Centralia, MO,65240,-92.138526,39.205431,29,19,2000
217,110 N Jefferson St, Centralia, MO,65240,-92.133732,39.21091,29,19,2000
218,310 N Providence Rd, Columbia, MO,65203,-92.334098,38.955769,29,19,2100
219,4720 Green Acres Rd, St Joseph, MO,64506,-94.810607,39.812013,29,21,100
220,1520 N 2nd St, St Joseph, MO,64505,-94.858171,39.777861,29,21,400
221,4 N High St, Butler, MO,64730,-94.340437,38.256807,29,13,70300
222,420 S Fulton St, Butler, MO,64730,-94.336025,38.252728,29,13,70300
223,500 Keeney St, Cole Camp, MO,65325,-93.209735,38.457277,29,15,460100
224,500 Keeney St, Cole Camp, MO,65325,-93.209735,38.457277,29,15,460100
225,500 Keeney St, Cole Camp, MO,65325,-93.209735,38.457277,29,15,460100
226,1010 Rangeline St, Columbia, MO,65201,-92.324709,38.961228,29,19,900
227,1104 N Providence Rd, Columbia, MO,65203,-92.333816,38.963074,29,19,900
1981,\N,\N,\N,\N,\N,\N,\N,\N,\N
228,1100 S Roseta Ave, Columbia, MO,65201,-92.273016,38.937015,29,19,1002
229,4200 Bethel St, Columbia, MO,65203,-92.344766,38.906036,29,19,1104
230,4203 S Providence Rd, Columbia, MO,65203,-92.335151,38.904394,29,19,1104
231,1250 E Brown School Rd, Columbia, MO,65202,-92.324409,39.000765,29,19,1400
232,108 W Craig St, Columbia, MO,65202,-92.338475,38.975941,29,19,1400
233,3700 Woodland Dr, Columbia, MO,65202,-92.297219,38.98719,29,19,1504
234,4000 Derby Ridge Dr, Columbia, MO,65202,-92.319034,38.990521,29,19,1504
235,301 McKinley Ave, Fisk, MO,63940,-90.209094,36.78185,29,23,950100
236,711 Nickey St, Poplar Bluff, MO,63901,-90.400556,36.741268,29,23,950700
237,400 W Colfax St, Breckenridge, MO,64625,-93.804602,39.757777,29,25,950100
238,400 W Colfax St, Breckenridge, MO,64625,-93.804602,39.757777,29,25,950100
239,400 Bobcat Ave, Braymer, MO,64624,-93.802468,39.589422,29,25,950100
240,400 Bobcat Ave, Braymer, MO,64624,-93.802468,39.589422,29,25,950100
241,7650 NW Harley Rd, Hamilton, MO,64644,-94.002951,39.754297,29,25,950200
242,903 N Davis St, Hamilton, MO,64644,-93.998274,39.751815,29,25,950200
243,4171 County Rd 240, Kingdom City, MO,65262,-92.006306,38.971058,29,27,70100
244,908 Wood St, Fulton, MO,65251,-91.935117,38.853478,29,27,70300
245,1 Hornet Dr, Fulton, MO,65251,-91.943507,38.873229,29,27,70300
246,403 E 10th St, Fulton, MO,65251,-91.941728,38.855636,29,27,70300
247,603 S Business 54, Fulton, MO,65251,-91.952364,38.838409,29,27,70400
248,2602 Gene Field Rd, St Joseph, MO,64506,-94.829236,39.791948,29,21,500
249,3312 Beck Rd, St Joseph, MO,64506,-94.810425,39.785932,29,21,600
250,3510 Frederick Ave, St Joseph, MO,64506,-94.808392,39.776887,29,21,600
251,3434 Faraon St, St Joseph, MO,64506,-94.812494,39.769636,29,21,600
252,720 N Noyes Blvd, St Joseph, MO,64506,-94.824903,39.773153,29,21,900
253,2602 Edmond St, St Joseph, MO,64501,-94.828404,39.765866,29,21,900
254,515 N 22nd St, St Joseph, MO,64501,-94.834092,39.770467,29,21,900
255,2509 Duncan St, St Joseph, MO,64507,-94.830122,39.751684,29,21,1500
256,2900 Scott St, St Joseph, MO,64507,-94.823403,39.748898,29,21,1500
257,5655 S 4th St, St Joseph, MO,64504,-94.855163,39.716225,29,21,2300
258,6401 Gordon Ave, St Joseph, MO,64504,-94.86524,39.710823,29,21,2500
259,1360 Randol Ave, Cape Girardeau, MO,63701,-89.554492,37.327549,29,31,881200
260,2880 Hopper Rd, Cape Girardeau, MO,63701,-89.567662,37.321292,29,31,881200
261,1080 S Silver Springs Rd, Cape Girardeau, MO,63703,-89.564698,37.271171,29,31,881500
262,1000 S Silver Springs Rd, Cape Girardeau, MO,63703,-89.565522,37.272161,29,31,881500
263,3445 Armstrong Dr, Cape Girardeau, MO,63703,-89.576416,37.286475,29,31,881500
264,306 N Jefferson St, Carrollton, MO,64633,-93.494166,39.362092,29,33,960300
265,207 E 9th St, Carrollton, MO,64633,-93.493005,39.368178,29,33,960300
266,24 S Herren Ave, Ellsinore, MO,63937,-90.747017,36.934658,29,35,960100
267,24 S Herren Ave, Ellsinore, MO,63937,-90.747017,36.934658,29,35,960100
268,24 S Herren Ave, Ellsinore, MO,63937,-90.747017,36.934658,29,35,960100
269,405 Westover Rd, Belton, MO,64012,-94.544264,38.822295,29,37,60001
270,801 W North Ave, Belton, MO,64012,-94.552258,38.815699,29,37,60202
271,409 Colbern St, Belton, MO,64012,-94.537478,38.809019,29,37,60202
272,107 Pirate Pkwy, Belton, MO,64012,-94.535509,38.807359,29,37,60202
273,109 W Cambridge Rd, Belton, MO,64012,-94.53544,38.800116,29,37,60202
274,106 S Hillcrest Rd, Belton, MO,64012,-94.541536,38.814988,29,37,60202
275,1501 Creekmoor Dr, Raymore, MO,64083,-94.480167,38.829541,29,37,60301
276,100 S Foxridge Dr, Raymore, MO,64083,-94.479793,38.805973,29,37,60301
277,2715 State Road AA, Holts Summit, MO,65043,-92.093877,38.665083,29,27,70700
278,172 DARE Blvd, Camdenton, MO,65020,-92.734426,38.005944,29,29,950500
279,172 DARE Blvd, Camdenton, MO,65020,-92.734426,38.005944,29,29,950500
280,119 Nort Dr, Climax Springs, MO,65324,-93.049581,38.105024,29,29,950700
281,119 Nort Dr, Climax Springs, MO,65324,-93.049581,38.105024,29,29,950700
282,88 Laker Ln, Camdenton, MO,65020,-92.804255,37.988153,29,29,950800
283,275 Green Gable Dr, Macks Creek, MO,65786,-92.875179,37.95064,29,29,950800
284,653 State Hwy Z, Gordonville, MO,63701,-89.676573,37.311149,29,31,880300
285,1829 N Sprigg St, Cape Girardeau, MO,63701,-89.523776,37.328117,29,31,880600
286,751 W Chestnut St, Kahoka, MO,63445,-91.727766,40.422536,29,45,950300
287,680 E Main St, Kahoka, MO,63445,-91.711889,40.420209,29,45,950300
288,384 N Jefferson St, Kahoka, MO,63445,-91.723242,40.423227,29,45,950300
289,4100 N Briarcliff Rd, Kansas City, MO,64116,-94.586882,39.167889,29,47,20202
290,5100 N Highland Ave, Kansas City, MO,64118,-94.558745,39.186311,29,47,20300
291,3701 N Jackson Ave, Kansas City, MO,64117,-94.530488,39.159977,29,47,20602
292,4700 NE Parvin Rd, Kansas City, MO,64117,-94.524498,39.166558,29,47,20602
293,1900 Clay Dr, Liberty, MO,64068,-94.45219,39.227061,29,47,20801
294,2100 NE 65th St, Gladstone, MO,64118,-94.554059,39.21034,29,47,21102
295,3220 NE 67th Ter, Gladstone, MO,64119,-94.541456,39.215803,29,47,21102
296,8100 N Troost Ave, Kansas City, MO,64118,-94.566796,39.241472,29,47,21206
297,500 NE 83rd St, Kansas City, MO,64118,-94.57524,39.245137,29,47,21206
298,545 NE 106th St, Kansas City, MO,64155,-94.57095,39.285611,29,47,21306
299,9600 NE 79th St, Kansas City, MO,64158,-94.472738,39.238125,29,47,21307
300,101 N Meghan Dr, Harrisonville, MO,64701,-94.325238,38.65456,29,37,60800
301,1600 E Elm St, Harrisonville, MO,64701,-94.336053,38.657096,29,37,60904
302,1504 E Elm St, Harrisonville, MO,64701,-94.336685,38.657114,29,37,60904
303,207 S 4th St, Drexel, MO,64742,-94.605296,38.478262,29,37,61100
1982,\N,\N,\N,\N,\N,\N,\N,\N,\N
1983,\N,\N,\N,\N,\N,\N,\N,\N,\N
304,207 S 4th St, Drexel, MO,64742,-94.605296,38.478262,29,37,61100
305,302 W State Route A, Archie, MO,64725,-94.356172,38.483421,29,37,61200
306,302 W State Route A, Archie, MO,64725,-94.356172,38.483421,29,37,61200
307,901 S Grand Ave, El Dorado Springs, MO,64744,-94.019478,37.867717,29,39,870200
308,901 S Grand Ave, El Dorado Springs, MO,64744,-94.019478,37.867717,29,39,870200
309,901 S Grand Ave, El Dorado Springs, MO,64744,-94.019478,37.867717,29,39,870200
310,118 W Mount Vernon Rd, Billings, MO,65610,-93.555022,37.061152,29,43,20101
311,118 W Mount Vernon Rd, Billings, MO,65610,-93.555022,37.061152,29,43,20101
312,103 S Public Ave, Clever, MO,65631,-93.473228,37.030257,29,43,20102
313,301 S Main St, Nixa, MO,65714,-93.294885,37.041177,29,43,20204
314,220 S Gregg Rd, Nixa, MO,65714,-93.317508,37.042743,29,43,20205
315,2449 E Hartley St, Ozark, MO,65721,-93.177475,37.007003,29,43,20302
316,7090 State Highway 125 S, Chadwick, MO,65629,-93.055988,36.937484,29,43,20500
317,7090 State Highway 125 S, Chadwick, MO,65629,-93.055988,36.937484,29,43,20500
318,223 Kentling Ave, Highlandville, MO,65669,-93.282248,36.932934,29,43,20500
319,13111 Park St, Russellville, MO,65074,-92.441874,38.507904,29,51,20500
320,13111 Park St, Russellville, MO,65074,-92.441874,38.507904,29,51,20500
321,1216 E Morgan St, Boonville, MO,65233,-92.733087,38.977715,29,53,950200
322,1216 E Morgan St, Boonville, MO,65233,-92.733087,38.977715,29,53,950200
323,814 Locust St, Boonville, MO,65233,-92.738757,38.973388,29,53,950200
324,1694 W Ashley Rd, Boonville, MO,65233,-92.773408,38.93862,29,53,950300
325,1690 W Ashley Rd, Boonville, MO,65233,-92.773354,38.938674,29,53,950300
326,1700 W Ashley Rd, Boonville, MO,65233,-92.773514,38.938516,29,53,950300
327,500 E Main St, Bunceton, MO,65237,-92.793141,38.78821,29,53,950500
328,500 E Main St, Bunceton, MO,65237,-92.793141,38.78821,29,53,950500
329,357 Jost St, Bourbon, MO,65441,-91.254508,38.149501,29,55,450102
330,363 Jost St, Bourbon, MO,65441,-91.254571,38.149504,29,55,450102
331,1500 S Old Highway 66, St Cloud, MO,65441,-91.219476,38.165746,29,55,450102
332,201 W Mill St, Liberty, MO,64068,-94.4222,39.244649,29,47,21403
333,612 Tiger Dr, Excelsior Springs, MO,64024,-94.24447,39.348432,29,47,21701
334,614 Tiger Dr, Excelsior Springs, MO,64024,-94.24447,39.348454,29,47,21701
335,701 Crown Hill Rd, Excelsior Springs, MO,64024,-94.250918,39.348005,29,47,21701
336,701 Saint Louis Ave, Excelsior Springs, MO,64024,-94.231045,39.336148,29,47,21702
337,1400 Cedar Wood Pkwy, Kearney, MO,64060,-94.384482,39.38095,29,47,21804
338,1815 S Jefferson St, Kearney, MO,64060,-94.360698,39.354759,29,47,21805
339,5125 N Sycamore Ave, Kansas City, MO,64119,-94.485976,39.187502,29,47,22200
340,800 W Frost St, Plattsburg, MO,64477,-94.455945,39.561689,29,49,960300
341,603 W Frost St, Plattsburg, MO,64477,-94.453175,39.561762,29,49,960300
342,100 Smith St, Gower, MO,64454,-94.595015,39.609065,29,49,960400
343,100 Smith St, Gower, MO,64454,-94.595015,39.609065,29,49,960400
344,1229 E McCarty St, Jefferson City, MO,65101,-92.158045,38.564883,29,51,10300
345,1105 Fairgrounds Rd, Jefferson City, MO,65109,-92.270743,38.570474,29,51,10701
346,1510 Vieth Dr, Jefferson City, MO,65109,-92.209003,38.56256,29,51,10702
347,701 Belair Dr, Jefferson City, MO,65109,-92.215465,38.595622,29,51,10900
348,6124 Falcon Ln, Jefferson City, MO,65101,-92.173538,38.492955,29,51,20200
349,6124 Falcon Ln, Jefferson City, MO,65101,-92.173538,38.492955,29,51,20200
350,6124 Falcon Ln, Jefferson City, MO,65101,-92.173538,38.492955,29,51,20200
351,14803 Hwy 17, Eugene, MO,65032,-92.397258,38.376263,29,51,20300
352,14803 Hwy 17, Eugene, MO,65032,-92.397258,38.376263,29,51,20300
353,500 W Main St, Buffalo, MO,65622,-93.095828,37.64418,29,59,480200
354,507 SE 3rd St, Ava, MO,65608,-92.658846,36.949007,29,67,950500
355,507 SE 3rd St, Ava, MO,65608,-92.658846,36.949007,29,67,950500
356,507 SE 3rd St, Ava, MO,65608,-92.658846,36.949007,29,67,950500
357,1 Wildcat Pride Dr, Cuba, MO,65453,-91.400973,38.055468,29,55,450302
358,1 Wildcat Pride Dr, Cuba, MO,65453,-91.400973,38.055468,29,55,450302
359,1 Wildcat Pride Dr, Cuba, MO,65453,-91.400973,38.055468,29,55,450302
360,211 W School St, Everton, MO,65646,-93.706179,37.346189,29,57,480100
361,211 W School St, Everton, MO,65646,-93.706179,37.346189,29,57,480100
362,211 W School St, Everton, MO,65646,-93.706179,37.346189,29,57,480100
363,410 W College St, Greenfield, MO,65661,-93.844195,37.415545,29,57,480100
364,101 W Jefferson St, Albany, MO,64402,-94.332694,40.250023,29,75,960100
365,101 W Jefferson St, Albany, MO,64402,-94.332694,40.250023,29,75,960100
366,918 S Jefferson Ave, Springfield, MO,65806,-93.290013,37.198209,29,77,200
367,205 Wiggs St, Kennett, MO,63857,-90.067019,36.237603,29,69,360700
368,205 Wiggs St, Kennett, MO,63857,-90.067019,36.237603,29,69,360700
369,601 School St, Hornersville, MO,63855,-90.118453,36.042914,29,69,360900
370,4536 Coleman Rd, Villa Ridge, MO,63089,-90.857308,38.482047,29,71,800100
371,6583 Hwy 100, Washington, MO,63090,-91.042698,38.555086,29,71,800300
372,1978 Image Dr, Washington, MO,63090,-91.019637,38.547309,29,71,800300
373,3693 Hwy 185, New Haven, MO,63068,-91.143095,38.551877,29,71,800401
374,3128 Highway Y, New Haven, MO,63068,-91.281993,38.576889,29,71,800401
375,300 Autumn Hill Dr, Union, MO,63084,-91.023374,38.448394,29,71,800601
376,2 E Springfield Ave, Union, MO,63084,-91.008641,38.443841,29,71,800601
377,1 Clark Dr, Union, MO,63084,-91.016451,38.445545,29,71,800601
378,1581 Clearview Rd, Union, MO,63084,-91.022362,38.477533,29,71,800601
379,1771 W Springfield Rd, Saint Clair, MO,63077,-91.037923,38.304524,29,71,800901
380,1044 High School Dr, St Clair, MO,63077,-90.978166,38.337094,29,71,800902
381,1308 Depot St, Cainsville, MO,64632,-93.773956,40.438978,29,81,950100
382,1308 Depot St, Cainsville, MO,64632,-93.773956,40.438978,29,81,950100
383,141 Lindsey Ave, Gilman City, MO,64642,-93.872688,40.135396,29,81,950100
384,141 Lindsey Ave, Gilman City, MO,64642,-93.872688,40.135396,29,81,950100
385,409 S College St, Calhoun, MO,65323,-93.62541,38.464354,29,83,950200
386,409 S College St, Calhoun, MO,65323,-93.62541,38.464354,29,83,950200
387,1631 W Bennett St, Springfield, MO,65807,-93.314128,37.189803,29,77,400
388,501 W Central St, Springfield, MO,65802,-93.295085,37.217515,29,77,600
389,423 E Central St, Springfield, MO,65802,-93.288976,37.217439,29,77,700
390,1001 E Chestnut Expy, Springfield, MO,65802,-93.281033,37.214935,29,77,700
391,1505 S Delaware Ave, Springfield, MO,65804,-93.266933,37.186842,29,77,1000
392,2927 S Kimbrough Ave, Springfield, MO,65807,-93.286097,37.161456,29,77,1301
393,2727 S Ingram Mill Rd, Springfield, MO,65804,-93.226457,37.163668,29,77,2502
394,3745 S Broadway Ave, Springfield, MO,65807,-93.304678,37.145962,29,77,2900
395,3014 W Calhoun St, Springfield, MO,65802,-93.33633,37.223044,29,77,3200
396,2814 N Fremont Ave, Springfield, MO,65803,-93.269721,37.248718,29,77,3600
397,3055 W Kildee Ln, Springfield, MO,65810,-93.340733,37.127629,29,77,4102
398,420 Farm Rd 182, Springfield, MO,65810,-93.297298,37.116211,29,77,4103
399,2102 W Farm Road 182, Springfield, MO,65810,-93.323792,37.116537,29,77,4103
400,3325 W Battlefield St, Springfield, MO,65807,-93.347064,37.160545,29,77,4201
401,3990 W Sunshine St, Springfield, MO,65807,-93.362479,37.180335,29,77,4201
402,132 N Main St, Fair Grove, MO,65648,-93.15119,37.385696,29,77,4600
403,132 N Main St, Fair Grove, MO,65648,-93.15119,37.385696,29,77,4600
404,132 N Main St, Fair Grove, MO,65648,-93.15119,37.385696,29,77,4600
405,720 N Main Ave, Republic, MO,65738,-93.480123,37.127786,29,77,4803
406,100 N Maple Ln, Ash Grove, MO,65604,-93.578263,37.313796,29,77,5001
407,100 N Maple Ln, Ash Grove, MO,65604,-93.578263,37.313796,29,77,5001
408,205 NW Border St, Galt, MO,64641,-93.388467,40.127047,29,79,960100
409,4036 State Route K, West Plains, MO,65775,-91.912528,36.722151,29,91,90500
410,10286 State Route 17, West Plains, MO,65775,-91.861379,36.672135,29,91,90500
411,6461 State Route ZZ, West Plains, MO,65775,-91.816148,36.712092,29,91,90600
412,650 Park Dr, Ironton, MO,63650,-90.634153,37.594394,29,93,950300
413,700 Park Dr, Ironton, MO,63650,-90.634866,37.594428,29,93,950300
414,550 Park Dr, Ironton, MO,63650,-90.632724,37.594339,29,93,950300
415,520 Park Dr, Ironton, MO,63650,-90.632296,37.594323,29,93,950300
416,227 SW Highway T, Clinton, MO,64735,-93.886093,38.335046,29,83,950400
417,600 E Clinton St, Clinton, MO,64735,-93.767596,38.365263,29,83,950600
418,1106 S 2nd St, Clinton, MO,64735,-93.774489,38.358494,29,83,950600
419,709 S 8th St, Clinton, MO,64735,-93.763322,38.362922,29,83,950600
420,602 S 5th St, Clinton, MO,64735,-93.769198,38.364184,29,83,950600
421,809 S 8th St, Clinton, MO,64735,-93.763358,38.361972,29,83,950600
422,860 Randolph St, Glasgow, MO,65254,-92.837549,39.229575,29,89,960100
423,860 Randolph St, Glasgow, MO,65254,-92.837549,39.229575,29,89,960100
424,300 E High School Dr, Dixon, MO,65459,-92.091402,37.990643,29,169,470101
425,102 N Pine St, Dixon, MO,65459,-92.098446,37.996122,29,169,470101
426,601 N Commercial St, Crocker, MO,65452,-92.261672,37.959041,29,169,470102
427,601 N Commercial St, Crocker, MO,65452,-92.261672,37.959041,29,169,470102
428,810 Roosevelt St, Waynesville, MO,65583,-92.212587,37.818785,29,169,470400
429,9127 White Ave, Saint Louis, MO,63144,-90.354157,38.620266,29,189,217400
430,2221 High School Dr, Saint Louis, MO,63144,-90.353069,38.620674,29,189,217400
431,12110 Clayton Rd, Saint Louis, MO,63131,-90.441881,38.632088,29,189,217600
432,12112 Clayton Rd, Saint Louis, MO,63131,-90.441917,38.632074,29,189,217600
433,700 Henry Ave, Ballwin, MO,63011,-90.520281,38.610433,29,189,217802
434,1425 Froesel Dr, Ballwin, MO,63011,-90.591556,38.595598,29,189,217806
435,15380 Highcroft Dr, Chesterfield, MO,63017,-90.550642,38.645384,29,189,217841
436,265 Old State Rd, Ballwin, MO,63021,-90.595565,38.583599,29,189,217921
437,400 Jefferson Ave, Ballwin, MO,63021,-90.542033,38.59086,29,189,217923
438,720 Hanna Rd, Ballwin, MO,63021,-90.510563,38.579921,29,189,217941
439,9101 S Broadway, Saint Louis, MO,63125,-90.271059,38.535985,29,189,220200
440,229 W Ripa Ave, Saint Louis, MO,63125,-90.281453,38.524325,29,189,220200
441,243 W Ripa Ave, Saint Louis, MO,63125,-90.281641,38.524306,29,189,220200
442,3131 Koch Rd, Saint Louis, MO,63125,-90.285608,38.494385,29,189,220300
443,1054 Forder Rd, Saint Louis, MO,63129,-90.324988,38.497104,29,189,220431
444,623 W Ripa Ave, Saint Louis, MO,63125,-90.287447,38.524461,29,189,220501
445,2050 Union Rd, Saint Louis, MO,63125,-90.311373,38.531059,29,189,220602
446,419 Newberry St, Fredericktown, MO,63645,-90.288843,37.555011,29,123,960200
447,805 E Highway 72, Fredericktown, MO,63645,-90.2786,37.567127,29,123,960200
448,905 E Highway 72, Fredericktown, MO,63645,-90.276592,37.566835,29,123,960200
449,1780 Carman Rd, Ballwin, MO,63021,-90.471828,38.576747,29,189,218011
450,555 S Weidman Rd, Ballwin, MO,63021,-90.491976,38.58321,29,189,218011
451,9825 Hudson Ave, Saint Louis, MO,63119,-90.374224,38.608759,29,189,218900
452,909 N Bompart Ave, Saint Louis, MO,63119,-90.343446,38.603844,29,189,219100
453,10305 Concord School Rd, Saint Louis, MO,63128,-90.370619,38.521107,29,189,221202
454,6401 Hagemann Rd, Saint Louis, MO,63128,-90.39771,38.468348,29,189,221335
455,501 Bowles Ave, Fenton, MO,63026,-90.474788,38.511589,29,189,221422
456,25 E North St, Eureka, MO,63025,-90.627023,38.510309,29,189,221502
457,4525 Hwy 109, Wildwood, MO,63025,-90.632493,38.526212,29,189,221502
458,442 W 4th St, Eureka, MO,63025,-90.637617,38.504667,29,189,221503
459,430 Bald Hill Rd, Eureka, MO,63025,-90.631336,38.496311,29,189,221503
460,4550 McMasters Ave, Hannibal, MO,63401,-91.391754,39.723289,29,127,960400
461,4700 McMasters Ave, Hannibal, MO,63401,-91.391741,39.724631,29,127,960400
462,4500 McMasters Ave, Hannibal, MO,63401,-91.39176,39.722873,29,127,960400
463,1320 Gratz Brown St, Moberly, MO,65270,-92.422133,39.402402,29,175,490500
464,101 Evans St, Higbee, MO,65257,-92.51182,39.305722,29,175,490600
465,101 Evans St, Higbee, MO,65257,-92.51182,39.305722,29,175,490600
466,34684 Highway 10, Excelsior Springs, MO,64024,-94.115607,39.312541,29,177,80000
467,500 NE 1st St, Hardin, MO,64035,-93.835981,39.272776,29,177,80100
468,500 NE 1st St, Hardin, MO,64035,-93.835981,39.272776,29,177,80100
469,1248 School St, Fordland, MO,65652,-92.953408,37.160394,29,225,470402
470,1230 School St, Fordland, MO,65652,-92.953447,37.160544,29,225,470402
471,252 Center St, Fordland, MO,65652,-92.94071,37.159257,29,225,470402
472,9530 Highway 5, Grovespring, MO,65662,-92.601078,37.407823,29,229,490100
473,7604 Michigan Ave, Saint Louis, MO,63111,-90.261152,38.548882,29,510,101500
474,5910 Clifton Ave, Saint Louis, MO,63109,-90.297704,38.578951,29,510,102200
475,1010 Lodge Rd, Chesterfield, MO,63005,-90.685587,38.626899,29,189,221621
476,16543 Green Pines Dr, Wildwood, MO,63011,-90.626375,38.589964,29,189,221625
477,1955 Shepard Rd, Wildwood, MO,63038,-90.641159,38.599273,29,189,221626
478,16025 Clayton Rd, Clarkson Valley, MO,63011,-90.591364,38.604918,29,189,221626
479,17700 Wild Horse Creek Rd, Chesterfield, MO,63005,-90.636862,38.654419,29,189,221627
480,8249 Airport Rd, Saint Louis, MO,63134,-90.326616,38.749623,29,189,221800
481,480 Old Fairway Dr, Wildwood, MO,63040,-90.617943,38.566888,29,189,222100
482,102 North St, Gilliam, MO,65330,-93.005825,39.235401,29,195,90100
483,700 Apricot St, Doniphan, MO,63935,-90.818559,36.627191,29,181,870300
484,301 W Spring St, Doniphan, MO,63935,-90.829081,36.619714,29,181,870300
485,5 Ball Park Rd, Doniphan, MO,63935,-90.818912,36.620823,29,181,870300
486,2475 W Randolph St, St Charles, MO,63301,-90.491685,38.804997,29,183,310301
487,4915 Donovan Ave, Saint Louis, MO,63109,-90.303769,38.587773,29,510,103100
488,1383 Clara Ave, Saint Louis, MO,63112,-90.278171,38.667175,29,510,106100
489,5831 Pamplin Ave, Saint Louis, MO,63147,-90.251543,38.710715,29,510,107300
490,8959 Riverview Blvd, Saint Louis, MO,63147,-90.240709,38.720449,29,510,108200
491,313 E Eastwood St, Marshall, MO,65340,-93.192961,39.12303,29,195,90400
492,408 Elliott Ave, Chaffee, MO,63740,-89.664232,37.178776,29,201,780200
493,517 W Yoakum Ave, Chaffee, MO,63740,-89.664274,37.183191,29,201,780200
494,510 Wilkinson St, East Prairie, MO,63845,-89.377433,36.778619,29,133,950400
495,304 E Walnut St, East Prairie, MO,63845,-89.380201,36.775731,29,133,950400
496,210 E Washington St, East Prairie, MO,63845,-89.381807,36.777634,29,133,950400
497,1501 W Buchanan St, California, MO,65018,-92.586464,38.63478,29,135,385100
498,401 S Highway H, Clarksburg, MO,65025,-92.668625,38.656813,29,135,385300
499,435 Yale Blvd, St Charles, MO,63301,-90.514895,38.795328,29,183,310602
500,2800 Old Muegge Rd, St Charles, MO,63303,-90.561413,38.787892,29,183,310903
501,1220 Harvest Ridge Dr, St Charles, MO,63303,-90.5246,38.752707,29,183,311001
502,605 Independence Rd, Weldon Spring, MO,63304,-90.664943,38.711806,29,183,311103
503,4810 Meadows Pkwy, Weldon Spring, MO,63304,-90.667237,38.707776,29,183,311103
504,825 Ofallon Rd, Weldon Spring, MO,63304,-90.673907,38.718238,29,183,311124
505,1400 Gettysburg Lndg, St Peters, MO,63303,-90.551724,38.750604,29,183,311146
506,3921 N Newstead Ave, Saint Louis, MO,63115,-90.235534,38.67102,29,510,110100
507,3111 Cora Ave, Saint Louis, MO,63115,-90.245244,38.66878,29,510,110100
508,4025 Sullivan Ave, Saint Louis, MO,63107,-90.227525,38.662069,29,510,110300
509,3836 Natural Bridge Ave, Saint Louis, MO,63107,-90.221265,38.663059,29,510,110400
510,4342 Aldine Pl, Saint Louis, MO,63113,-90.243827,38.65695,29,510,111300
511,5101 McRee Ave, Saint Louis, MO,63110,-90.270539,38.620999,29,510,113500
512,5319 Lansdowne Ave, Saint Louis, MO,63109,-90.282801,38.588596,29,510,114300
513,4041 S Broadway, Saint Louis, MO,63118,-90.228017,38.581452,29,510,115700
514,100 Twitty Dr, Sikeston, MO,63801,-89.570907,36.876383,29,201,781200
515,201 Curtright St, Holliday, MO,65258,-92.127659,39.492101,29,137,960300
516,150 Waterford Crossing Dr, O Fallon, MO,63368,-90.700927,38.745722,29,183,311152
517,600 First Executive Ave, Saint Peters, MO,63376,-90.583903,38.788515,29,183,311203
518,166 Boone Hills Dr, Saint Peters, MO,63376,-90.582086,38.7872,29,183,311203
519,2555 Hackmann Rd, St Charles, MO,63303,-90.559387,38.763914,29,183,311296
520,2549 Hackmann Rd, St Charles, MO,63303,-90.559517,38.764069,29,183,311296
521,2501 Hackmann Rd, St Charles, MO,63303,-90.560651,38.765434,29,183,311296
522,100 Dubray Dr, Saint Peters, MO,63376,-90.621947,38.783427,29,183,311311
523,4525 Central School Rd, Saint Charles, MO,63304,-90.614522,38.743005,29,183,311322
524,4535 Central School Rd, St Peters, MO,63304,-90.615113,38.742934,29,183,311322
525,4555 Central School Rd, St Peters, MO,63304,-90.616132,38.742788,29,183,311322
526,8050 Mexico Rd, Saint Peters, MO,63376,-90.670316,38.78786,29,183,311422
527,1311 Tower Grove Ave, Saint Louis, MO,63110,-90.25652,38.625098,29,510,118100
528,1618 Tower Grove Ave, Saint Louis, MO,63110,-90.255653,38.619976,29,510,118100
529,711 N Grand Blvd, Saint Louis, MO,63103,-90.230718,38.640309,29,510,119300
1984,\N,\N,\N,\N,\N,\N,\N,\N,\N
530,2153 Salisbury St, Saint Louis, MO,63107,-90.205357,38.659334,29,510,120200
531,1415 N Garrison Ave, Saint Louis, MO,63106,-90.220062,38.645168,29,510,121200
532,1616 California Ave, Saint Louis, MO,63104,-90.225231,38.61662,29,510,123100
533,3709 Nebraska Ave, Saint Louis, MO,63118,-90.233509,38.588593,29,510,124100
534,801 N 11th St, Saint Louis, MO,63101,-90.194495,38.632913,29,510,125600
535,1220 N 10th St, Saint Louis, MO,63106,-90.191747,38.637026,29,510,125700
536,2900 Hadley St, Saint Louis, MO,63107,-90.195561,38.652794,29,510,126600
537,1839 Hogan St, Saint Louis, MO,63106,-90.200488,38.646132,29,510,126600
538,206 N Shelby St, Clarence, MO,63437,-92.258116,39.743365,29,205,450300
539,201 E School St, Advance, MO,63730,-89.908224,37.108718,29,207,470100
540,33790 State Highway 91, Advance, MO,63730,-89.909204,37.11688,29,207,470100
541,25254 Walnut St, Bell City, MO,63735,-89.823661,37.021722,29,207,470100
542,25254 Walnut St, Bell City, MO,63735,-89.823661,37.021722,29,207,470100
543,505 Court St, Bloomfield, MO,63825,-89.932725,36.884947,29,207,470300
544,405 W Missouri St, Bloomfield, MO,63825,-89.931728,36.885997,29,207,470300
545,405 W Missouri St, Bloomfield, MO,63825,-89.931728,36.885997,29,207,470300
546,501 Sunflower Ln, O'Fallon, MO,63366,-90.687902,38.815894,29,183,311602
547,1230 Tom Ginnever Dr, O'Fallon, MO,63366,-90.666856,38.821307,29,183,311602
548,210 Virgil St, O'Fallon, MO,63366,-90.69679,38.803417,29,183,311602
549,321 Knaust Rd, Saint Peters, MO,63376,-90.676324,38.781426,29,183,311721
550,2621 Highway K, O'Fallon, MO,63368,-90.700101,38.772702,29,183,311732
551,300 Knaust Rd, Saint Peters, MO,63376,-90.6782,38.776857,29,183,311735
552,250 Fallon Pkwy, O'Fallon, MO,63368,-90.694773,38.765253,29,183,311736
553,307 W Pitman St, O'Fallon, MO,63366,-90.703317,38.806873,29,183,311802
554,7500 Hwy N, Dardenne Prairie, MO,63368,-90.741271,38.765918,29,183,311904
555,1101 W Grant St, Dexter, MO,63841,-89.971774,36.789007,29,207,470600
556,121 S Spiker St, Bernie, MO,63822,-89.973269,36.669061,29,207,470700
557,516 W Main Ave, Bernie, MO,63822,-89.972039,36.669279,29,207,470700
558,209 Pirate Ln, Crane, MO,65633,-93.571585,36.896316,29,209,90100
559,209 Pirate Ln, Crane, MO,65633,-93.571585,36.896316,29,209,90100
560,209 Pirate Ln, Crane, MO,65633,-93.571585,36.896316,29,209,90100
561,54 Medical Springs Rd, Galena, MO,65656,-93.367732,36.843707,29,209,90100
562,512 MO 13, Blue Eye, MO,65611,-93.395762,36.504586,29,209,90400
563,512 MO 13, Blue Eye, MO,65611,-93.395762,36.504586,29,209,90400
564,658 State Hwy EE, Blue Eye, MO,65611,-93.384414,36.50178,29,209,90400
565,310 US Hwy 61, New Madrid, MO,63869,-89.564855,36.576634,29,143,960300
566,308 US Hwy 61, New Madrid, MO,63869,-89.56496,36.57658,29,143,960300
567,1120 Carl Sweeney Pkwy, Neosho, MO,64850,-94.352312,36.857796,29,145,20200
568,302 Smith Ave, Neosho, MO,64850,-94.371898,36.877778,29,145,20300
569,401 S Main St, Diamond, MO,64840,-94.314913,36.991852,29,145,20400
570,401 S Main St, Diamond, MO,64840,-94.314913,36.991852,29,145,20400
571,401 S Main St, Diamond, MO,64840,-94.314913,36.991852,29,145,20400
572,1814 Duello Rd, Lake Saint Louis, MO,63367,-90.822161,38.770064,29,183,311908
573,1000 Ronald Reagan Dr, Lake St Louis, MO,63367,-90.782044,38.784553,29,183,311909
574,555 E Highway N, Wentzville, MO,63385,-90.846713,38.767189,29,183,312193
575,5275 Quail Ridge Pkwy, Wentzville, MO,63385,-90.831066,38.802837,29,183,312193
576,600 Campus Dr, Wentzville, MO,63385,-90.867203,38.814246,29,183,312195
577,612 Blumhoff Ave, Wentzville, MO,63385,-90.855076,38.815249,29,183,312195
578,601 Carr St, Wentzville, MO,63385,-90.852825,38.815598,29,183,312195
579,5541 Locust St, Augusta, MO,63332,-90.881382,38.574127,29,183,312204
580,201 W Highway D, Wentzville, MO,63385,-90.887029,38.70893,29,183,312204
581,2523 Sommers Rd, Lake Saint Louis, MO,63367,-90.783351,38.749394,29,183,312205
582,9233 Highway DD, O Fallon, MO,63368,-90.776976,38.745974,29,183,312205
583,386 W MO 76, Reeds Spring, MO,65737,-93.382765,36.733958,29,209,90602
584,301 Northeast St, Green City, MO,63545,-92.951321,40.272347,29,211,480100
585,301 Northeast St, Green City, MO,63545,-92.951321,40.272347,29,211,480100
586,223 Jones St, Humphreys, MO,64646,-93.322095,40.126696,29,211,480200
587,308 Cedar Ridge Dr, Branson, MO,65616,-93.239899,36.66058,29,213,480201
588,396 Cedar Ridge Dr, Branson, MO,65616,-93.243306,36.659319,29,213,480201
589,402 Cedar Ridge Dr, Branson, MO,65616,-93.244018,36.659112,29,213,480201
590,766 Buchanan Rd, Branson, MO,65616,-93.232934,36.700267,29,213,480201
591,935 Buchanan Rd, Branson, MO,65616,-93.236675,36.70049,29,213,480201
592,263 Buccaneer Dr, Branson, MO,65616,-93.219213,36.66523,29,213,480201
593,601 Laclede Ave, Neosho, MO,64850,-94.363129,36.811875,29,145,20800
594,12350 Norway Rd, Neosho, MO,64850,-94.421139,36.851405,29,145,20800
595,22876 E Hwy 86, Granby, MO,64844,-94.230525,36.877508,29,145,20900
596,440 E High St, Granby, MO,64844,-94.25159,36.918128,29,145,20900
597,1405 Highway D, Saint Charles, MO,63304,-90.709856,38.703274,29,183,980000
598,408 W 4th St, Appleton City, MO,64724,-94.032582,38.190682,29,185,480100
599,408 W 4th St, Appleton City, MO,64724,-94.032582,38.190682,29,185,480100
600,16474 N MO 125, Bradleyville, MO,65614,-92.907908,36.787285,29,213,480401
601,16474 N MO 125, Bradleyville, MO,65614,-92.907908,36.787285,29,213,480401
602,8872 State Hwy H, Forsyth, MO,65653,-93.112767,36.809782,29,213,480401
603,1792 State Hwy BB, Hollister, MO,65672,-93.194111,36.623483,29,213,480502
604,1794 State Hwy BB, Hollister, MO,65672,-93.194077,36.623483,29,213,480502
605,2112 State Hwy BB, Hollister, MO,65672,-93.190515,36.621509,29,213,480502
606,1798 State Hwy BB, Hollister, MO,65672,-93.19401,36.623483,29,213,480502
607,418 E 2nd St, Maryville, MO,64468,-94.869472,40.346902,29,147,470400
608,6279 Hwy 61, Bloomsdale, MO,63627,-90.248686,38.043298,29,186,960100
609,2727 Hwy K, Bonne Terre, MO,63628,-90.486905,37.928318,29,187,950101
610,2727 Hwy K, Bonne Terre, MO,63628,-90.486905,37.928318,29,187,950101
611,3120 Saint Louis Ave, Saint Louis, MO,63106,-90.218824,38.653891,29,510,127100
612,5049 Fyler Ave, Saint Louis, MO,63139,-90.276102,38.600415,29,510,127200
613,1224 Grattan St, Saint Louis, MO,63104,-90.208366,38.61768,29,510,127400
614,1004 N Jefferson Ave, Saint Louis, MO,63106,-90.21276,38.639058,29,510,127500
615,2 Gateway Dr, Saint Louis, MO,63106,-90.209536,38.641686,29,510,127500
616,4 Gateway Dr, Saint Louis, MO,63106,-90.209601,38.641699,29,510,127500
617,1200 N Jefferson Ave, Saint Louis, MO,63106,-90.21275,38.640777,29,510,127500
618,815 Ann Ave, Saint Louis, MO,63104,-90.205065,38.605447,29,510,127600
619,2516 S 9th St, Saint Louis, MO,63104,-90.207962,38.601376,29,510,127600
620,909 S Fairview Rd, Columbia, MO,65203,-92.381,38.944194,29,19,1201
621,467 S Ellsworth Ave, Marshall, MO,65340,-93.200934,39.11706,29,195,90600
622,565 S Odell Ave, Marshall, MO,65340,-93.195004,39.115952,29,195,90600
623,1020 Dingledine Rd, Saint Charles, MO,63304,-90.603942,38.728172,29,183,311150
624,30925 State Highway 413, Galena, MO,65656,-93.472157,36.812511,29,209,90200
625,423 W Pine St, Houston, MO,65483,-91.959735,37.326426,29,215,480300
626,423 W Pine St, Houston, MO,65483,-91.959735,37.326426,29,215,480300
627,423 W Pine St, Houston, MO,65483,-91.959735,37.326426,29,215,480300
628,423 W Pine St, Houston, MO,65483,-91.959735,37.326426,29,215,480300
629,1024 Garst St, Cabool, MO,65689,-92.107715,37.123621,29,215,480400
630,1025 Rogers Ave, Cabool, MO,65689,-92.109848,37.125508,29,215,480400
631,2001 Dys Dr, Cabool, MO,65689,-92.091292,37.120229,29,215,480400
632,143 E Main St, Westphalia, MO,65085,-91.991836,38.437027,29,151,490300
633,143 E Main St, Westphalia, MO,65085,-91.991836,38.437027,29,151,490300
634,1708 Ward Ave, Caruthersville, MO,63830,-89.663866,36.18026,29,155,470400
635,1705 Ward Ave, Caruthersville, MO,63830,-89.664004,36.180306,29,155,470400
636,506 S Fleming St, Farmington, MO,63640,-90.412506,37.774199,29,187,950800
637,900 Saint Francois Ave, Park Hills, MO,63601,-90.526194,37.85849,29,187,951000
638,116 Rebel Dr, Park Hills, MO,63601,-90.522187,37.846716,29,187,951000
639,801 Columbia St, Park Hills, MO,63601,-90.495776,37.846413,29,187,951100
640,10560 Renfrew Dr, Saint Louis, MO,63137,-90.205789,38.757698,29,189,210200
641,174 Shepley Dr, Saint Louis, MO,63137,-90.196477,38.755028,29,189,210200
642,1111 Saint Cyr Rd, Saint Louis, MO,63137,-90.232101,38.734127,29,189,210400
643,1111 Saint Cyr Rd, Saint Louis, MO,63137,-90.232101,38.734127,29,189,210400
644,9926 Fonda Dr, Saint Louis, MO,63137,-90.233083,38.749114,29,189,210600
645,500 Woodland Ave, Kansas City, MO,64106,-94.560051,39.108285,29,95,1000
646,436 Prospect Ave, Kansas City, MO,64124,-94.550752,39.109039,29,95,1000
647,1001 Bennington Ave, Kansas City, MO,64126,-94.505221,39.099789,29,95,2000
648,3715 Wyoming St, Kansas City, MO,64111,-94.603617,39.060195,29,95,4600
649,1320 E 32nd Ter, Kansas City, MO,64109,-94.568721,39.067701,29,95,5200
650,3221 Indiana Ave, Kansas City, MO,64128,-94.54366,39.067695,29,95,5700
651,3800 E 44th St, Kansas City, MO,64130,-94.540196,39.045986,29,95,6000
652,2803 Swope Pkwy, Kansas City, MO,64130,-94.552077,39.038641,29,95,7700
653,500 E Vernon St, Nevada, MO,64772,-94.350963,37.845507,29,217,950400
654,300 Kuhl Ave, Warrenton, MO,63383,-91.139381,38.808148,29,219,820102
655,302 Kuhl Ave, Warrenton, MO,63383,-91.139381,38.808127,29,219,820102
656,326 College St, Perryville, MO,63775,-89.859844,37.720438,29,157,470400
657,401 W Pettis St, Green Ridge, MO,65332,-93.413299,38.620812,29,159,480300
658,401 W Pettis St, Green Ridge, MO,65332,-93.413299,38.620812,29,159,480300
659,2017 Arrowpoint Dr, Saint Louis, MO,63138,-90.226322,38.811652,29,189,210703
660,12555 Partridge Run Dr, Florissant, MO,63033,-90.2375,38.803775,29,189,210804
661,2324 Redman Rd, Saint Louis, MO,63136,-90.243509,38.7828,29,189,210805
662,3325 Chicory Creek Ln, Florissant, MO,63031,-90.320263,38.830516,29,189,210924
663,15955 New Halls Ferry Rd, Florissant, MO,63031,-90.3139,38.832264,29,189,210924
664,1105 Wiethaupt Rd, Florissant, MO,63031,-90.325094,38.825012,29,189,210924
665,15875 New Halls Ferry Rd, Florissant, MO,63031,-90.313201,38.831177,29,189,210924
666,15875 New Halls Ferry Rd, Florissant, MO,63031,-90.313201,38.831177,29,189,210924
667,14205 Cougar Dr, Florissant, MO,63033,-90.303132,38.808634,29,189,210925
668,15600 Old Halls Ferry Rd, Florissant, MO,63034,-90.295259,38.834316,29,189,210927
669,1005 Waterford Dr, Florissant, MO,63033,-90.301569,38.795419,29,189,211000
670,13585 New Halls Ferry Rd, Florissant, MO,63033,-90.293214,38.800174,29,189,211000
671,100 S Florissant Rd, Florissant, MO,63031,-90.324627,38.786101,29,189,211101
672,1550 Derhake Rd, Florissant, MO,63033,-90.295945,38.780733,29,189,211102
673,2700 Derhake Rd, Florissant, MO,63033,-90.288265,38.789226,29,189,211102
674,300 Saint Jean St, Florissant, MO,63031,-90.330943,38.791922,29,189,211201
675,5605 Troost Ave, Kansas City, MO,64110,-94.573832,39.025244,29,95,8100
676,5605 Troost Ave, Kansas City, MO,64110,-94.573832,39.025244,29,95,8100
677,5604 Troost Ave, Kansas City, MO,64110,-94.573973,39.02525,29,95,8200
678,6903 Oak St, Kansas City, MO,64113,-94.584283,39.00274,29,95,8600
679,6401 Rockhill Rd, Kansas City, MO,64131,-94.576879,39.011516,29,95,8600
680,6321 Wornall Rd, Kansas City, MO,64113,-94.593075,39.013701,29,95,8600
681,1815 E 63rd St, Kansas City, MO,64130,-94.56434,39.012798,29,95,8700
682,1815 E 63rd St, Kansas City, MO,64130,-94.56434,39.012798,29,95,8700
683,1221 E Meyer Blvd, Kansas City, MO,64131,-94.571082,39.011816,29,95,8700
684,1221 E Meyer Blvd, Kansas City, MO,64131,-94.571082,39.011816,29,95,8700
685,6410 Swope Pkwy, Kansas City, MO,64132,-94.542625,39.007947,29,95,8800
686,7050 Askew Ave, Kansas City, MO,64132,-94.545277,38.998659,29,95,8800
687,7227 Jackson Ave, Kansas City, MO,64132,-94.537992,38.996313,29,95,8900
688,8401 Euclid Ave, Kansas City, MO,64132,-94.564934,38.974423,29,95,9500
689,8434 Paseo St, Kansas City, MO,64131,-94.567417,38.973754,29,95,9500
690,8817 Wornall Rd, Kansas City, MO,64114,-94.595315,38.967911,29,95,9800
691,8817 Wornall Rd, Kansas City, MO,64114,-94.595315,38.967911,29,95,9800
692,326 E 103rd St, Kansas City, MO,64114,-94.590199,38.941368,29,95,10002
693,4800 Grandview Rd, Kansas City, MO,64137,-94.53411,38.928828,29,95,10203
694,5290 Sycamore Ave, Kansas City, MO,64129,-94.492006,39.027653,29,95,10500
695,400 S Mine St, Potosi, MO,63664,-90.790695,37.934827,29,221,460300
696,1520 Thompson Blvd, Sedalia, MO,65301,-93.265351,38.700555,29,159,480700
697,600 S Warren Ave, Sedalia, MO,65301,-93.248152,38.70592,29,159,480800
698,2255 S Ingram Ave, Sedalia, MO,65301,-93.222975,38.691226,29,159,481000
699,1100 W 16th St, Sedalia, MO,65301,-93.240284,38.697969,29,159,481100
700,1001 E 18th St, Rolla, MO,65401,-91.7589,37.957956,29,161,890300
701,8300 Frost Ave, Saint Louis, MO,63134,-90.325775,38.761439,29,189,211500
702,200 Day Dr, Saint Louis, MO,63135,-90.289317,38.749543,29,189,211700
703,2545 Dorwood Dr, Saint Louis, MO,63136,-90.251369,38.735306,29,189,212002
704,7053 Emma Ave, Saint Louis, MO,63136,-90.268489,38.712368,29,189,212101
705,7047 Emma Ave, Saint Louis, MO,63136,-90.267706,38.712016,29,189,212101
706,3883 Jennings Station Rd, Saint Louis, MO,63121,-90.276089,38.693089,29,189,212200
707,5835 Bermuda Dr, Saint Louis, MO,63121,-90.29343,38.725926,29,189,212400
708,701 January Ave, Saint Louis, MO,63135,-90.314016,38.753073,29,189,212600
709,18000 E Kentucky Rd, Independence, MO,64058,-94.364519,39.128391,29,95,11300
710,1716 S Speck Rd, Independence, MO,64057,-94.362278,39.08377,29,95,11401
711,19009 Susquehanna Ct, Independence, MO,64056,-94.351968,39.117285,29,95,11406
712,709 N Forest Ave, Independence, MO,64050,-94.43623,39.099441,29,95,11600
713,827 W College St, Independence, MO,64050,-94.425279,39.09802,29,95,11600
714,2800 S Hardy Ave, Independence, MO,64052,-94.45595,39.071059,29,95,11900
715,1511 Kings Hwy St, Independence, MO,64055,-94.398003,39.073998,29,95,12300
716,6410 Blue Ridge Blvd, Kansas City, MO,64133,-94.476652,39.007362,29,95,12600
717,9400 Eastern Ave, Kansas City, MO,64138,-94.503296,38.953892,29,95,12903
718,10918 Elm Ave, Kansas City, MO,64134,-94.477647,38.928916,29,95,12906
719,5401 E 103rd St, Kansas City, MO,64137,-94.525906,38.938563,29,95,13003
720,825 N Main St, Piedmont, MO,63957,-90.690236,37.161177,29,223,690300
721,398 MO 34, Piedmont, MO,63957,-90.697166,37.153019,29,223,690300
722,398 MO 34, Piedmont, MO,63957,-90.697166,37.153019,29,223,690300
723,650 N Locust St, Marshfield, MO,65706,-92.898672,37.345099,29,225,470201
724,600 N Locust St, Marshfield, MO,65706,-92.898686,37.344501,29,225,470201
725,201 Wesley Ave, Saint Louis, MO,63135,-90.306749,38.742545,29,189,212700
726,1351 S Florissant Rd, Saint Louis, MO,63121,-90.302921,38.726936,29,189,212700
727,11635 Oakbury Ct, Bridgeton, MO,63044,-90.419038,38.737897,29,189,213203
728,8811 Harold Dr, Saint Louis, MO,63134,-90.345292,38.723494,29,189,213400
729,3417 Saint Thomas More Pl, Saint Louis, MO,63121,-90.327613,38.71034,29,189,213600
730,3101 Nordic Dr, Bel-Nor, MO,63121,-90.319269,38.708677,29,189,213700
731,120 N Cedar Ave, Independence, MO,64053,-94.457749,39.11049,29,95,11000
732,1100 High Grove Rd, Grandview, MO,64030,-94.532721,38.887431,29,95,13301
733,12650 Manchester Ave, Grandview, MO,64030,-94.502403,38.89492,29,95,13309
734,5302 E 140th St, Grandview, MO,64030,-94.532356,38.870379,29,95,13401
735,805 W Main St, Greenwood, MO,64034,-94.343951,38.851382,29,95,13502
736,2801 SW Pryor Rd, Lees Summit, MO,64082,-94.416106,38.871065,29,95,13504
737,2600 SW 3rd St, Lees Summit, MO,64081,-94.433554,38.912584,29,95,13608
738,198 Avery Ln, Troy, MO,63379,-90.914435,39.018715,29,113,810304
739,128 Pershing Rd, Brookfield, MO,64628,-93.098763,39.783331,29,115,490300
740,124 Pershing Rd, Brookfield, MO,64628,-93.09876,39.783403,29,115,490300
741,122 Pershing Rd, Brookfield, MO,64628,-93.098758,39.783439,29,115,490300
742,126 Pershing Rd, Brookfield, MO,64628,-93.098761,39.783367,29,115,490300
743,700 W Adams St, Bowling Green, MO,63334,-91.200347,39.337098,29,163,460400
744,700 W Adams St, Bowling Green, MO,63334,-91.200347,39.337098,29,163,460400
745,700 W Adams St, Bowling Green, MO,63334,-91.200347,39.337098,29,163,460400
746,28176 Highway WW, Clarksville, MO,63336,-90.94937,39.291845,29,163,460500
747,28176 Highway WW, Clarksville, MO,63336,-90.94937,39.291845,29,163,460500
748,6500 NW Klamm Dr, Kansas City, MO,64151,-94.657572,39.214138,29,165,30103
749,8200 N Chariton Ave, Kansas City, MO,64152,-94.708721,39.243024,29,165,30208
750,7401 NW Barry Rd, Kansas City, MO,64153,-94.665568,39.24683,29,165,30209
751,10350 Baltimore Ave, Overland, MO,63074,-90.386253,38.712297,29,189,214700
752,3312 Ashby Rd, St Ann, MO,63074,-90.388065,38.717958,29,189,214700
753,11055 Saint Charles Rock Rd, Bridgeton, MO,63074,-90.396421,38.736235,29,189,214800
754,2900 Adie Rd, Saint Ann, MO,63074,-90.406362,38.712266,29,189,214900
755,1492 Craig Rd, Saint Louis, MO,63146,-90.442539,38.683684,29,189,215003
756,13157 N Olive Spur Rd, Saint Louis, MO,63141,-90.486724,38.683127,29,189,215141
757,620 Rue de Fleur Dr, Saint Louis, MO,63141,-90.477227,38.669774,29,189,215202
758,369 N Woods Mill Rd, Chesterfield, MO,63017,-90.502588,38.664165,29,189,215231
759,471 N Woods Mill Rd, Chesterfield, MO,63017,-90.501352,38.66734,29,189,215231
760,170 Portico Dr, Chesterfield, MO,63017,-90.5282,38.669901,29,189,215231
761,1200 SE Adams Dairy Pkwy, Blue Springs, MO,64014,-94.254024,39.004832,29,95,14105
762,505 SE Shamrock Ln, Blue Springs, MO,64014,-94.262275,38.99229,29,95,14105
763,2000 NW Ashton Dr, Blue Springs, MO,64015,-94.287304,39.028134,29,95,14108
764,2103 NW Vesper St, Blue Springs, MO,64015,-94.288888,39.020708,29,95,14108
765,1609 SW Clark Rd, Blue Springs, MO,64015,-94.283422,39.002334,29,95,14114
766,3701 NE Independence Ave, Lees Summit, MO,64064,-94.364651,38.979299,29,95,14204
767,301 NE Gregory Blvd, Lees Summit, MO,64064,-94.38457,38.976028,29,95,14204
768,13001 E 55th St, Kansas City, MO,64133,-94.428438,39.021047,29,95,14300
769,2001 NW Blue Pkwy, Lees Summit, MO,64064,-94.40972,38.947787,29,95,14300
770,2801 Hornet Rd, Chillicothe, MO,64601,-93.557029,39.819247,29,117,480100
771,1529 Calhoun St, Chillicothe, MO,64601,-93.565119,39.795004,29,117,480400
772,905 Dickinson St, Chillicothe, MO,64601,-93.56007,39.795973,29,117,480400
773,321 Elm St, Chillicothe, MO,64601,-93.551305,39.789952,29,117,480500
774,209 Henry St, Chillicothe, MO,64601,-93.547943,39.785007,29,117,480500
775,117 School St, Goodman, MO,64843,-94.408251,36.739025,29,119,70200
776,1701 Branch St, Platte City, MO,64079,-94.769214,39.357034,29,165,30500
777,1103 Washington St, Weston, MO,64098,-94.900717,39.419869,29,165,30700
778,301 N Walnut St, Fair Play, MO,65649,-93.576157,37.634233,29,167,960100
779,301 N Walnut St, Fair Play, MO,65649,-93.576157,37.634233,29,167,960100
780,300 N Oak St, Humansville, MO,65674,-93.574262,37.797825,29,167,960100
781,1300 N Hartford Ave, Bolivar, MO,65613,-93.398347,37.622982,29,167,960200
782,706 N Leonard Pl, Bolivar, MO,65613,-93.396653,37.619149,29,167,960200
783,1510 E Broadway St, Bolivar, MO,65613,-93.398975,37.615173,29,167,960200
784,2150 Hwy 32, Half Way, MO,65663,-93.295897,37.607739,29,167,960300
785,2150 Hwy 32, Half Way, MO,65663,-93.295897,37.607739,29,167,960300
786,604 W Jackson St, Bolivar, MO,65613,-93.416437,37.611513,29,167,960400
787,9900 Conway Rd, Saint Louis, MO,63124,-90.391422,38.640708,29,189,215400
788,8125 Groby Rd, Saint Louis, MO,63130,-90.346926,38.668224,29,189,215700
789,7220 Waterman Ave, Saint Louis, MO,63130,-90.322141,38.653738,29,189,216200
790,7447 Wellington Way, Saint Louis, MO,63105,-90.328046,38.639181,29,189,216400
791,1 Mark Twain Cir, Saint Louis, MO,63105,-90.344759,38.649646,29,189,216500
792,1201 Hanley Industrial Ct, Saint Louis, MO,63144,-90.338086,38.622955,29,189,217300
793,2611 S Lees Summit Rd, Independence, MO,64055,-94.39079,39.071489,29,95,14604
794,17302 E RD Mize Rd, Independence, MO,64057,-94.373008,39.072475,29,95,14702
795,13 S Sibley St, Buckner, MO,64016,-94.196984,39.137748,29,95,14902
796,31604 NE Pink Hill Rd, Grain Valley, MO,64029,-94.212771,39.050727,29,95,14903
797,31608 NE Pink Hill Rd, Grain Valley, MO,64029,-94.212716,39.050726,29,95,14903
798,2701 NW 1st St, Blue Springs, MO,64014,-94.262248,39.049394,29,95,14904
799,1131 Edgar Rd, Saint Louis, MO,63119,-90.347298,38.572219,29,189,219500
800,630 S Elm Ave, Saint Louis, MO,63119,-90.359289,38.579111,29,189,219500
801,4530 Weber Rd, Saint Louis, MO,63123,-90.299791,38.552218,29,189,219900
802,4531 Weber Rd, Saint Louis, MO,63123,-90.299795,38.552329,29,189,219900
803,4532 Weber Rd, Saint Louis, MO,63123,-90.299815,38.55222,29,189,219900
804,512 Chapman St, Anderson, MO,64831,-94.439445,36.647493,29,119,70400
805,600 S Atterberry St, Atlanta, MO,63530,-92.479377,39.893758,29,121,960100
806,600 S Atterberry St, Atlanta, MO,63530,-92.479377,39.893758,29,121,960100
807,403 Pine St, Callao, MO,63534,-92.62645,39.764027,29,121,960200
808,204 Crescent Dr, Macon, MO,63552,-92.474021,39.734781,29,121,960500
809,2101 N Twyman Rd, Independence, MO,64058,-94.292249,39.139073,29,95,15000
810,2101 N Twyman Rd, Independence, MO,64058,-94.292249,39.139073,29,95,15000
811,3585 Vogel Rd, Arnold, MO,63010,-90.408188,38.415421,29,99,700116
812,1200 Clark St, Lebanon, MO,65536,-92.665622,37.696483,29,105,960400
813,500 N Adams Ave, Lebanon, MO,65536,-92.66748,37.685003,29,105,960400
814,777 Brice St, Lebanon, MO,65536,-92.677829,37.691613,29,105,960400
815,757 Brice St, Lebanon, MO,65536,-92.677489,37.69161,29,105,960400
816,607 S 3rd St, Odessa, MO,64076,-93.956206,38.991608,29,107,90601
817,713 S 3rd St, Odessa, MO,64076,-93.956382,38.989513,29,107,90601
818,607 S 5th St, Odessa, MO,64076,-93.958544,38.992906,29,107,90601
819,1034 S Lincoln Ave, Aurora, MO,65605,-93.727267,36.964443,29,109,470601
820,1044 S Lincoln Ave, Aurora, MO,65605,-93.727269,36.964354,29,109,470601
821,1815 E Hamilton St, Kirksville, MO,63501,-92.564927,40.182577,29,1,950400
822,2010 E Normal St, Kirksville, MO,63501,-92.562064,40.189764,29,1,950400
823,1200 W Boulevard St, Mexico, MO,65265,-91.898974,39.163403,29,7,950600
824,601 Learning Ln, Monett, MO,65708,-93.942361,36.925428,29,9,960300
825,700 9th St, Monett, MO,65708,-93.918527,36.927594,29,9,960300
826,711 9th St, Monett, MO,65708,-93.918388,36.927702,29,9,960300
827,200 Linden Ave, Monett, MO,65708,-93.941024,36.920511,29,9,960300
828,1208 Locust St, Columbia, MO,65201,-92.323508,38.949351,29,19,500
829,1800 W Rollins Rd, Columbia, MO,65203,-92.366078,38.946066,29,19,600
830,2610 Blackwell Rd, St Joseph, MO,64505,-94.828968,39.813839,29,21,200
831,4212 Saint Joseph Ave, St Joseph, MO,64505,-94.842552,39.803082,29,21,200
832,2300 S Baugh Ln, Poplar Bluff, MO,63901,-90.418815,36.782985,29,23,950300
833,3297 Oak Grove Rd, Poplar Bluff, MO,63901,-90.448361,36.789014,29,23,950300
834,3209 Oak Grove Rd, Poplar Bluff, MO,63901,-90.447186,36.789017,29,23,950300
835,1300 Victory Ln, Poplar Bluff, MO,63901,-90.413177,36.769066,29,23,950300
836,1235 N Main St, Poplar Bluff, MO,63901,-90.401791,36.767662,29,23,950300
837,3203 Oak Grove Rd, Poplar Bluff, MO,63901,-90.44695,36.789019,29,23,950300
838,550 N Westwood Blvd, Poplar Bluff, MO,63901,-90.410305,36.762436,29,23,950300
839,2400 High St, Poplar Bluff, MO,63901,-90.420528,36.78143,29,23,950300
840,406 Connecticut St, Qulin, MO,63961,-90.248973,36.593214,29,23,950600
841,307 Redwood Dr, New Bloomfield, MO,65063,-92.097102,38.720411,29,27,70600
842,307 Redwood Dr, New Bloomfield, MO,65063,-92.097102,38.720411,29,27,70600
843,10103 State Rd C, Mokane, MO,65059,-91.891785,38.68841,29,27,70600
844,10135 State Rd C, Mokane, MO,65059,-91.890111,38.687574,29,27,70600
845,10105 State Rd C, Mokane, MO,65059,-91.891678,38.68836,29,27,70600
846,10105 State Rd C, Mokane, MO,65059,-91.891678,38.68836,29,27,70600
847,4198 State Hwy E, Oak Ridge, MO,63769,-89.732144,37.501448,29,31,880100
848,4198 State Hwy E, Oak Ridge, MO,63769,-89.732144,37.501448,29,31,880100
849,1701 S Hope St, Jackson, MO,63755,-89.659548,37.362893,29,31,880500
850,1020 S Parkway St, Cape Girardeau, MO,63703,-89.536869,37.290892,29,31,881400
851,520 S Minnesota St, Cape Girardeau, MO,63703,-89.541747,37.298778,29,31,881600
852,8301 E 163rd St, Belton, MO,64012,-94.495015,38.827444,29,37,60003
853,1901 S Halsey Ave, Harrisonville, MO,64701,-94.339841,38.642658,29,37,61400
854,27247 MO 5, Keytesville, MO,65261,-92.929278,39.444727,29,41,470200
855,27247 MO 5, Keytesville, MO,65261,-92.929278,39.444727,29,41,470200
856,1300 N Nicholas Rd, Nixa, MO,65714,-93.326118,37.062352,29,43,20202
857,2117 NE 48th St, Kansas City, MO,64118,-94.553111,39.180861,29,47,20400
858,5300 N Bennington Ave, Kansas City, MO,64119,-94.502763,39.18958,29,47,20603
859,6400 NE 52nd St, Kansas City, MO,64119,-94.505593,39.187873,29,47,20603
860,5900 N Flora Ave, Gladstone, MO,64118,-94.562552,39.200523,29,47,21001
861,9201 N Indiana Ave, Kansas City, MO,64156,-94.53879,39.260257,29,47,21303
862,645 S Commercial Ave, Smithville, MO,64089,-94.579449,39.376835,29,47,22000
863,675 S Commercial Ave, Smithville, MO,64089,-94.57927,39.375181,29,47,22000
864,695 S Commercial Ave, Smithville, MO,64089,-94.579283,39.374077,29,47,22000
865,602 S Harris St, Cameron, MO,64429,-94.243682,39.73505,29,49,960100
866,707 Linden Dr, Jefferson City, MO,65109,-92.184162,38.571197,29,51,10600
867,MO 76 & County Rd 434, Ava, MO,65608,-92.807149,36.850663,29,67,950200
868,505 Burkhart St, Malden, MO,63863,-89.972116,36.567464,29,69,360200
869,505 Burkhart St, Malden, MO,63863,-89.972116,36.567464,29,69,360200
870,1221 W Madison St, Springfield, MO,65806,-93.307005,37.200659,29,77,501
871,2000 N Lyon Ave, Springfield, MO,65803,-93.2948,37.23338,29,77,1900
872,1100 E Kearney St, Springfield, MO,65803,-93.277009,37.240602,29,77,5500
873,409 Hickory St, Maitland, MO,64466,-95.076392,40.204513,29,87,960100
874,5810 Scarritt Ave, Kansas City, MO,64123,-94.513768,39.114185,29,95,600
875,2415 Agnes Ave, Kansas City, MO,64127,-94.547557,39.081546,29,95,3700
876,4747 Flora Ave, Kansas City, MO,64110,-94.566835,39.039513,29,95,7500
877,2015 E 72nd St, Kansas City, MO,64132,-94.563728,38.996451,29,95,9000
878,600 W Mechanic Ave, Independence, MO,64050,-94.421864,39.104123,29,95,11200
879,1403 W Linden Ave, Independence, MO,64052,-94.433604,39.084442,29,95,11700
880,3700 S Delaware Ave, Independence, MO,64055,-94.425565,39.054385,29,95,12200
881,1301 Windsor St, Independence, MO,64055,-94.427671,39.077894,29,95,12200
882,501 SE Todd George Rd, Lees Summit, MO,64063,-94.33939,38.909479,29,95,13904
883,701 SW Eagles Pkwy, Grain Valley, MO,64029,-94.206351,39.0105,29,95,14006
884,6930 Weber Rd, Saint Louis, MO,63123,-90.336114,38.55624,29,189,219700
885,2911 Yaeger Rd, Saint Louis, MO,63129,-90.320426,38.478054,29,189,220432
886,5557 Milburn Rd, Saint Louis, MO,63129,-90.319938,38.472099,29,189,220432
887,6790 Telegraph Rd, Saint Louis, MO,63129,-90.321244,38.441277,29,189,220446
888,100 S Sappington Rd, Saint Louis, MO,63122,-90.385328,38.581098,29,189,221900
889,945 N Miami Ave, Marshall, MO,65340,-93.208553,39.133592,29,195,90200
890,710 Glenn Dr, Sikeston, MO,63801,-89.549559,36.875029,29,201,780600
891,4278 MO 76, Kirbyville, MO,65679,-93.162819,36.6231,29,213,480302
892,6225 MO 76, Kirbyville, MO,65679,-93.172365,36.626783,29,213,480302
893,800 W Hickory St, Nevada, MO,64772,-94.365611,37.843075,29,217,950300
894,900 N Olive St, Nevada, MO,64772,-94.371038,37.848003,29,217,950300
895,900 W Ashland St, Nevada, MO,64772,-94.367475,37.844913,29,217,950300
896,15533 Highway KK, Purdin, MO,64674,-93.118134,39.963821,29,115,490100
897,15533 Highway KK, Purdin, MO,64674,-93.118134,39.963821,29,115,490100
898,600 S Ashland Ave, Palmyra, MO,63461,-91.530023,39.795221,29,127,960300
899,600 W Line St, Palmyra, MO,63461,-91.527729,39.795211,29,127,960300
900,1210 S Maple St, Eldon, MO,65026,-92.579879,38.340308,29,131,962900
901,206 Story St, Matthews, MO,63867,-89.585428,36.761333,29,143,960100
902,200 Pine St, Sikeston, MO,63801,-89.685327,36.851279,29,143,960100
903,200 Pine St, Sikeston, MO,63801,-89.685327,36.851279,29,143,960100
904,511 S Neosho Blvd, Neosho, MO,64850,-94.381045,36.865073,29,145,20100
905,115 W Brook St, Neosho, MO,64850,-94.368553,36.871648,29,145,20100
906,511 S Neosho Blvd, Neosho, MO,64850,-94.381045,36.865073,29,145,20100
907,1503 S Munn Ave, Maryville, MO,64468,-94.883413,40.330248,29,147,470300
1985,\N,\N,\N,\N,\N,\N,\N,\N,\N
908,1515 S Munn Ave, Maryville, MO,64468,-94.883416,40.330114,29,147,470300
909,2416 S Main St, Maryville, MO,64468,-94.874454,40.316944,29,147,470300
910,1317 W MO 84, Hayti, MO,63851,-89.765841,36.233886,29,155,470200
911,1317 W MO 84, Hayti, MO,63851,-89.765841,36.233886,29,155,470200
912,312 N Broadway, Sedalia, MO,65301,-93.228613,38.720892,29,159,480600
913,5801 NW Waukomis Dr, Kansas City, MO,64151,-94.607766,39.199264,29,165,30001
914,200 Porter St, Moberly, MO,65270,-92.43225,39.420503,29,175,490300
915,909 Porter St, Moberly, MO,65270,-92.431791,39.428733,29,175,490300
916,715 S Wellington St, Richmond, MO,64085,-93.973955,39.269829,29,177,80200
917,451 E South St, Richmond, MO,64085,-93.966514,39.2707,29,177,80200
918,8970 Mexico Rd, O'Fallon, MO,63366,-90.716142,38.787866,29,183,311712
919,9 Summit Dr, Farmington, MO,63640,-90.42242,37.796488,29,187,950901
920,1025 Trampe Ln, Saint Louis, MO,63138,-90.197972,38.788079,29,189,210100
921,13311 Bellefontaine Rd, Saint Louis, MO,63138,-90.21745,38.822589,29,189,210100
922,2500 Marshall Ave, Saint Louis, MO,63114,-90.349362,38.702841,29,189,214400
923,9100 Saint Charles Rock Rd, Saint Louis, MO,63114,-90.355161,38.713275,29,189,214400
924,6761 Bartmer Ave, Saint Louis, MO,63130,-90.309443,38.665242,29,189,216000
925,7539 Manchester Rd, Saint Louis, MO,63143,-90.323683,38.61259,29,189,217200
926,7539 Manchester Rd, Saint Louis, MO,63143,-90.323683,38.61259,29,189,217200
927,510 Big Bend Rd, Ballwin, MO,63021,-90.538208,38.567719,29,189,217932
928,211 W Aylor St, Webb City, MO,64870,-94.4639,37.152453,29,97,11400
929,1427 W Aylor St, Webb City, MO,64870,-94.48093,37.152691,29,97,11400
930,652 County Rd 180, Brooklyn Heights, MO,64836,-94.383257,37.171893,29,97,11500
931,1435 S Main St, Carthage, MO,64836,-94.311451,37.16413,29,97,11700
932,101 S 17th St, Sarcoxie, MO,64862,-94.130764,37.06936,29,97,12000
933,201 W Mercer St, Jasper, MO,64755,-94.302719,37.339899,29,97,12200
934,201 W Mercer St, Jasper, MO,64755,-94.302719,37.339899,29,97,12200
935,625 E Clinton Ave, Seymour, MO,65746,-92.75989,37.149416,29,225,470401
936,501 E Clinton Ave, Seymour, MO,65746,-92.76191,37.149455,29,225,470401
937,425 E Center Ave, Seymour, MO,65746,-92.763078,37.147697,29,225,470401
938,5030 Lexington Ave, Saint Louis, MO,63115,-90.253702,38.675073,29,510,106400
939,3021 Hickory St, Saint Louis, MO,63104,-90.227242,38.62238,29,510,127300
940,1000 W 17th St, Kansas City, MO,64108,-94.59572,39.093193,29,95,15300
941,2700 E 18th St, Kansas City, MO,64127,-94.550728,39.090836,29,95,16000
942,2111 Woodland Ave, Kansas City, MO,64108,-94.561168,39.086895,29,95,16100
943,1215 E Truman Rd, Kansas City, MO,64106,-94.568543,39.09526,29,95,16100
944,9915 E 38th Ter, Kansas City, MO,64133,-94.462431,39.052844,29,95,17000
945,10781 Oak St, Kansas City, MO,64114,-94.58761,38.931441,29,95,17300
946,8908 Old Santa Fe Rd, Kansas City, MO,64138,-94.502194,38.964317,29,95,17400
947,6140 Norfleet Rd, Kansas City, MO,64133,-94.430867,39.00996,29,95,17600
948,6707 Woodson Rd, Kansas City, MO,64133,-94.44437,39.000424,29,95,17600
949,24001 E US Highway 24, Independence, MO,64056,-94.298415,39.135892,29,95,17700
950,901 NE Douglas St, Lees Summit, MO,64086,-94.379566,38.9283,29,95,17900
951,1421 Independence Ave, Lees Summit, MO,64086,-94.364462,38.937342,29,95,17900
952,5020 NW Valley View Rd, Blue Springs, MO,64015,-94.321505,39.032319,29,95,19300
953,3575 SW Liggett Rd, Blue Springs, MO,64015,-94.293515,38.987856,29,95,989100
954,717 NW Park Rd, Blue Springs, MO,64015,-94.289753,39.046677,29,95,989200
955,1000 Viking Dr, Hillsboro, MO,63050,-90.555416,38.25842,29,99,700502
956,9501 Gold Finch Ln, Hillsboro, MO,63050,-90.561647,38.247765,29,99,700502
957,6005 Cedar Hill Rd, Cedar Hill, MO,63016,-90.624742,38.371763,29,99,700504
958,30 W Main St, Pevely, MO,63070,-90.397008,38.283715,29,99,700601
959,1800 Hanover Ln, Barnhart, MO,63012,-90.409183,38.335842,29,99,700603
960,5 Merchants Dr, Hillsboro, MO,63050,-90.561405,38.227058,29,99,701000
961,7887 Dittmer Ridge Rd, Dittmer, MO,63023,-90.692421,38.328327,29,99,701102
962,2499 Prairie Hollow Rd, Imperial, MO,63052,-90.408283,38.395659,29,99,700109
963,2800 Seckman Rd, Imperial, MO,63052,-90.428835,38.399115,29,99,700109
964,2824 Seckman Rd, Imperial, MO,63052,-90.429398,38.399302,29,99,700109
965,2810 Seckman Rd, Imperial, MO,63052,-90.429046,38.399174,29,99,700109
966,2500 Tomahawk Dr, Arnold, MO,63010,-90.419111,38.43141,29,99,700113
967,3871 Jeffco Blvd, Arnold, MO,63010,-90.379408,38.4069,29,99,700114
968,1769 Missouri State Rd, Arnold, MO,63010,-90.39908,38.44245,29,99,700118
969,1401 Ridgewood School Rd, Arnold, MO,63010,-90.418591,38.458514,29,99,700119
970,4300 Gravois Rd, House Springs, MO,63051,-90.560468,38.420064,29,99,700207
971,1340 W Outer 21 Rd, Arnold, MO,63010,-90.442097,38.455155,29,99,700208
972,2101 Valley Dr, Murphy, MO,63049,-90.488417,38.482846,29,99,700211
973,300 Myrtle St, Pierce City, MO,65723,-94.000083,36.947818,29,109,470400
974,300 Myrtle St, Pierce City, MO,65723,-94.000083,36.947818,29,109,470400
975,S College Ave & W Odell, Marionville, MO,65705,-93.639662,36.999456,29,109,470500
976,17725 Hwy 14, Marionville, MO,65705,-93.628296,37.008353,29,109,470500
977,S College Ave & W Odell, Marionville, MO,65705,-93.639662,36.999456,29,109,470500
978,178 Tomahawk Dr, Elsberry, MO,63343,-90.795018,39.16242,29,113,810100
979,2400 R-7 School Rd, Festus, MO,63028,-90.366171,38.15862,29,99,701404
980,101 E Adriatic St, Kingsville, MO,64061,-94.070771,38.74109,29,101,960200
981,101 E Adriatic St, Kingsville, MO,64061,-94.070771,38.74109,29,101,960200
982,105 S Maguire St, Warrensburg, MO,64093,-93.735764,38.762612,29,101,960500
983,215 S Ridgeview Dr, Warrensburg, MO,64093,-93.710821,38.760757,29,101,960500
984,405 E Wimer St, Knob Noster, MO,65336,-93.553074,38.763895,29,101,960700
985,211 E Wimer St, Knob Noster, MO,65336,-93.555294,38.764027,29,101,960700
986,504 S Washington Ave, Knob Noster, MO,65336,-93.561518,38.761105,29,101,960700
987,500 N Main St, Leeton, MO,64761,-93.695667,38.586797,29,101,960900
988,500 N Main St, Leeton, MO,64761,-93.695667,38.586797,29,101,960900
989,500 N Main St, Leeton, MO,64761,-93.695667,38.586797,29,101,960900
990,901 Maple Ln, Lebanon, MO,65536,-92.658555,37.672676,29,105,960500
991,1015 N Jefferson Ave, Lebanon, MO,65536,-92.675846,37.688828,29,105,960600
992,400 S 20th St, Lexington, MO,64067,-93.871489,39.182454,29,107,90200
993,2323 High School Dr, Lexington, MO,64067,-93.867687,39.17373,29,107,90200
994,2309 Aull Ln, Lexington, MO,64067,-93.866198,39.175185,29,107,90200
995,1111 S 24th St, Lexington, MO,64067,-93.866687,39.179739,29,107,90200
996,703 W Walnut, Waverly, MO,64096,-93.526258,39.206957,29,107,90300
997,807 W 31st St, Higginsville, MO,64037,-93.729141,39.064419,29,107,90400
998,807 W 31st St, Higginsville, MO,64037,-93.729141,39.064419,29,107,90400
999,1101 W 29th St, Higginsville, MO,64037,-93.737668,39.065814,29,107,90400
1000,110 W 6th St, Miller, MO,65707,-93.843015,37.220145,29,109,470100
1001,400 W Highway 174, Mount Vernon, MO,65712,-93.82218,37.116259,29,109,470200
1002,301 E Blaze Rd, Mount Vernon, MO,65712,-93.816424,37.095974,29,109,470200
1003,260 W Highway 174, Mount Vernon, MO,65712,-93.821113,37.116269,29,109,470200
1004,500 State Dr, Mount Vernon, MO,65712,-93.834157,37.116042,29,109,470200
1005,731 S Landrum St, Mount Vernon, MO,65712,-93.823091,37.09865,29,109,470200
1006,401 E Yale, Liberal, MO,64762,-94.515738,37.558129,29,11,960200
1007,205 N Paine, Liberal, MO,64762,-94.514401,37.561765,29,11,960200
1008,205 N Paine, Liberal, MO,64762,-94.514401,37.561765,29,11,960200
1009,501 Maple St, Lamar, MO,64759,-94.280788,37.502356,29,11,960300
1010,503 Maple St, Lamar, MO,64759,-94.280777,37.502359,29,11,960300
1011,202 W 7th St, Lamar, MO,64759,-94.277022,37.499475,29,11,960300
1012,202 W 7th St, Lamar, MO,64759,-94.277022,37.499475,29,11,960300
1013,2nd St & Maple St, Hume, MO,64752,-94.583568,38.09412,29,13,70200
1014,1484 Boone St, Troy, MO,63379,-91.005648,38.975084,29,113,810201
1015,64 Highway UU, Silex, MO,63377,-91.06175,39.125944,29,113,810202
1016,64 Highway UU, Silex, MO,63377,-91.06175,39.125944,29,113,810202
1017,51 N Main St, Troy, MO,63379,-90.98528,38.987287,29,113,810301
1018,1515 S Cottage Grove Ave, Kirksville, MO,63501,-92.567207,40.184192,29,1,950500
1019,1300 S Cottage Grove Ave, Kirksville, MO,63501,-92.567381,40.1855,29,1,950500
1020,808 W Price Ave, Savannah, MO,64485,-94.834131,39.939288,29,3,10200
1021,10500 State Route T, Savannah, MO,64485,-94.871078,39.91833,29,3,10200
1022,701 State Rte E, Savannah, MO,64485,-94.814837,39.944764,29,3,10200
1023,9120 Highway 48, Rosendale, MO,64483,-94.818892,40.044035,29,3,10400
1024,9120 Highway 48, Rosendale, MO,64483,-94.818892,40.044035,29,3,10400
1025,9120 Highway 48, Rosendale, MO,64483,-94.818892,40.044035,29,3,10400
1026,600 S Nebraska St, Rock Port, MO,64482,-95.517272,40.409649,29,5,950200
1027,600 S Nebraska St, Rock Port, MO,64482,-95.517272,40.409649,29,5,950200
1028,1101 E Anderson St, Mexico, MO,65265,-91.872294,39.174396,29,7,950400
1029,639 N Wade St, Mexico, MO,65265,-91.890024,39.17666,29,7,950500
1030,710 S Clark St, Mexico, MO,65265,-91.88519,39.164926,29,7,950700
1031,201 3rd St, Purdy, MO,65734,-93.920298,36.81728,29,9,960200
1032,201 3rd St, Purdy, MO,65734,-93.920298,36.81728,29,9,960200
1033,201 3rd St, Purdy, MO,65734,-93.920298,36.81728,29,9,960200
1034,5151 S Highway 163, Columbia, MO,65203,-92.335082,38.892232,29,19,1702
1035,713 Rogers St, Columbia, MO,65201,-92.329794,38.956893,29,19,2100
1036,107 E Sexton Rd, Columbia, MO,65203,-92.33714,38.959998,29,19,2100
1037,412 W Highland Ave, St Joseph, MO,64505,-94.866062,39.783223,29,21,300
1038,2812 Saint Joseph Ave, St Joseph, MO,64505,-94.8486,39.789367,29,21,300
1039,320 E Poplar St, Rich Hill, MO,64779,-94.366086,38.101673,29,13,70400
1040,501 N 14th St, Rich Hill, MO,64779,-94.3515,38.098765,29,13,70400
1041,703 N 3rd St, Rich Hill, MO,64779,-94.36626,38.102411,29,13,70400
1042,101 E Lamine St, Lincoln, MO,65338,-93.334505,38.392902,29,15,460200
1043,101 E Lamine St, Lincoln, MO,65338,-93.334505,38.392902,29,15,460200
1044,134 E Kosciusko St, Warsaw, MO,65355,-93.378495,38.245694,29,15,460300
1045,2616 Shepard Blvd, Columbia, MO,65201,-92.29782,38.937596,29,19,1001
1046,3301 New Haven Ave, Columbia, MO,65201,-92.289588,38.912843,29,19,1002
1047,2200 W Nifong Blvd, Columbia, MO,65203,-92.374706,38.9103,29,19,1104
1048,4303 S Providence Rd, Columbia, MO,65203,-92.335178,38.903308,29,19,1104
1049,201 Park de Ville Dr, Columbia, MO,65203,-92.384407,38.958159,29,19,1300
1050,3600 W Worley St, Columbia, MO,65203,-92.388116,38.961252,29,19,1300
1051,111 Parkade Blvd, Columbia, MO,65202,-92.338567,38.974138,29,19,1400
1052,5665 Roger I Wilson Memorial Dr, Columbia, MO,65202,-92.305138,39.008419,29,19,1503
1053,2201 Smiley Ln, Columbia, MO,65202,-92.305005,38.992921,29,19,1504
1054,3405 Oakland Pl, Columbia, MO,65202,-92.304045,38.984603,29,19,1504
1055,1800 Alabama St, St Joseph, MO,64504,-94.885831,39.712325,29,21,2900
1056,8681 SW State Highway 116, Rushville, MO,64484,-95.014435,39.58806,29,21,2900
1057,139 E Lincoln St, Kingston, MO,64650,-94.037098,39.644693,29,25,950200
1058,2954 SE State Route V, Polo, MO,64671,-93.981372,39.538803,29,25,950200
1059,903 N Davis St, Hamilton, MO,64644,-93.998274,39.751815,29,25,950200
1060,300 School St, Polo, MO,64671,-94.042209,39.550274,29,25,950200
1061,300 School St, Polo, MO,64671,-94.042209,39.550274,29,25,950200
1062,300 School St, Polo, MO,64671,-94.042209,39.550274,29,25,950200
1063,2700 US Hwy 54, Kingdom City, MO,65262,-91.908385,38.965215,29,27,70100
1064,706 Hickman Ave, Fulton, MO,65251,-91.959533,38.85,29,27,70400
1065,1415 N 26th St, St Joseph, MO,64506,-94.82951,39.779703,29,21,1100
1066,2900 Duncan St, St Joseph, MO,64507,-94.822228,39.7516,29,21,1500
1067,705 S 31st St, St Joseph, MO,64507,-94.817634,39.759886,29,21,1600
1068,3923 Pickett Rd, St Joseph, MO,64503,-94.798102,39.740776,29,21,1700
1069,4701 Schoolside Ln, St Joseph, MO,64503,-94.7859,39.742426,29,21,1700
1070,509 Thompson St, St Joseph, MO,64504,-94.853788,39.713015,29,21,2300
1071,5910 Mitchell Ave, St Joseph, MO,64507,-94.762629,39.755364,29,21,2700
1072,210 E 5th St, Norborne, MO,64668,-93.674064,39.29998,29,33,960200
1073,308 S Cleveland Ave, Belton, MO,64012,-94.548598,38.812654,29,37,60202
1074,310 S Scott Ave, Belton, MO,64012,-94.535098,38.810894,29,37,60202
1075,500 S Madison St, Raymore, MO,64083,-94.457293,38.799966,29,37,60301
1076,285 S Summit Dr, Holts Summit, MO,65043,-92.117416,38.651541,29,27,70800
1077,4427 Highway 54, Osage Beach, MO,65065,-92.627882,38.146222,29,29,950200
1078,245 State Rd N, Macks Creek, MO,65786,-92.966795,37.971264,29,29,950800
1079,245 State Rd N, Macks Creek, MO,65786,-92.966795,37.971264,29,29,950800
1080,16594 N State Highway 5, Sunrise Beach, MO,65079,-92.799199,38.182308,29,29,951200
1081,377 State Hwy B, Millersville, MO,63766,-89.78045,37.429955,29,31,880200
1082,1651 W Independence St, Jackson, MO,63755,-89.687686,37.394539,29,31,880400
1083,315 S Missouri St, Jackson, MO,63755,-89.66933,37.380609,29,31,880400
1084,1402 Orchard Dr, Jackson, MO,63755,-89.68889,37.388712,29,31,880400
1085,210 N West Ln, Jackson, MO,63755,-89.692467,37.385005,29,31,880400
1086,6547 State Highway 177, Cape Girardeau, MO,63701,-89.473162,37.390974,29,31,880600
1087,10730 State Hwy W, Jackson, MO,63755,-89.629412,37.444387,29,31,880600
1088,650 Conistor Ln, Liberty, MO,64068,-94.45114,39.237667,29,47,20801
1089,8 Victory Ln, Liberty, MO,64068,-94.447331,39.243466,29,47,20801
1090,200 Blue Jay Dr, Liberty, MO,64068,-94.449075,39.242001,29,47,20801
1091,6800 Sobbie Rd, Pleasant Valley, MO,64068,-94.47951,39.216445,29,47,20801
1092,4624 N Norton Ave, Kansas City, MO,64117,-94.531984,39.179162,29,47,20901
1093,5020 NE 58th St, Kansas City, MO,64119,-94.519954,39.199012,29,47,20902
1094,6301 N Michigan Ave, Gladstone, MO,64118,-94.557551,39.207184,29,47,21004
1095,7333 N Wyandotte St, Gladstone, MO,64118,-94.583059,39.227635,29,47,21101
1096,731 NE 76th St, Gladstone, MO,64118,-94.571849,39.231816,29,47,21101
1097,4901 NE Barry Rd, Kansas City, MO,64156,-94.52266,39.245468,29,47,21205
1098,2575 NE Barry Rd, Kansas City, MO,64155,-94.548598,39.247759,29,47,21206
1099,825 NE 79th Ter, Kansas City, MO,64118,-94.57005,39.237859,29,47,21206
1100,221 NE 114th St, Kansas City, MO,64155,-94.57804,39.300467,29,47,21305
1101,515 NE 106th St, Kansas City, MO,64155,-94.571866,39.285606,29,47,21306
1102,17509 E State Route 58, Raymore, MO,64083,-94.389397,38.802331,29,37,60400
1103,327 N McKissock St, Pleasant Hill, MO,64080,-94.265598,38.788967,29,37,60600
1104,1204 E 163rd St, Pleasant Hill, MO,64080,-94.25897,38.820125,29,37,60600
1105,1 Rooster Way, Pleasant Hill, MO,64080,-94.253196,38.783996,29,37,60600
1106,304 Eklund St, Pleasant Hill, MO,64080,-94.257144,38.789059,29,37,60600
1107,201 E 3rd St, Peculiar, MO,64078,-94.456439,38.718305,29,37,61002
1108,20801 S School Rd, Peculiar, MO,64078,-94.459666,38.744277,29,37,61002
1109,11706 E 211th St, Peculiar, MO,64078,-94.45857,38.740157,29,37,61002
1110,5801 E MO 2, Cleveland, MO,64734,-94.539049,38.636031,29,37,61100
1111,5801 E MO 2, Cleveland, MO,64734,-94.539049,38.636031,29,37,61100
1112,33300 S Sherwood Dr, Creighton, MO,64739,-94.084744,38.518003,29,37,61200
1113,33300 S Sherwood Dr, Creighton, MO,64739,-94.084744,38.518003,29,37,61200
1114,33300 S Sherwood Dr, Creighton, MO,64739,-94.084744,38.518003,29,37,61200
1115,18475 MO 11, Mendon, MO,64660,-93.129573,39.586744,29,41,470100
1116,18475 MO 11, Mendon, MO,64660,-93.129573,39.586744,29,41,470100
1117,1000 S Maple Ave, Salisbury, MO,65281,-92.804329,39.414033,29,41,470300
1118,312 N Market St, Nixa, MO,65714,-93.289973,37.045995,29,43,20203
1119,205 North St, Nixa, MO,65714,-93.293453,37.050943,29,43,20203
1120,605 S Gregg Rd, Nixa, MO,65714,-93.317832,37.035646,29,43,20205
1121,514 S Nicholas Rd, Nixa, MO,65714,-93.326873,37.035605,29,43,20205
1122,1250 W South St, Ozark, MO,65721,-93.216,37.004356,29,43,20303
1123,1350 W Bluff Dr, Ozark, MO,65721,-93.215008,37.033555,29,43,20306
1124,1109 W Jackson St, Ozark, MO,65721,-93.213973,37.025431,29,43,20306
1125,13600 Route C, Russellville, MO,65074,-92.447246,38.508974,29,51,20500
1126,301 Hwy 87, Prairie Home, MO,65068,-92.588527,38.811387,29,53,950100
1127,301 Hwy 87, Prairie Home, MO,65068,-92.588527,38.811387,29,53,950100
1128,100 Spring St, Otterville, MO,65348,-93.003653,38.705521,29,53,950500
1129,100 Spring St, Otterville, MO,65348,-93.003653,38.705521,29,53,950500
1130,107 School St, Pilot Grove, MO,65276,-92.908033,38.874784,29,53,950500
1131,107 School St, Pilot Grove, MO,65276,-92.908033,38.874784,29,53,950500
1132,107 School St, Pilot Grove, MO,65276,-92.908033,38.874784,29,53,950500
1133,9000 NE Flintlock Rd, Kansas City, MO,64157,-94.465334,39.255346,29,47,21309
1134,701 Thornton St, Liberty, MO,64068,-94.431993,39.24139,29,47,21403
1135,1407 Nashua Rd, Liberty, MO,64068,-94.442906,39.26429,29,47,21404
1136,600 W Kansas Ave, Liberty, MO,64068,-94.428949,39.246055,29,47,21404
1137,425 Claywoods Pkwy, Liberty, MO,64068,-94.405437,39.240251,29,47,21600
1138,289 Broadway St, Missouri City, MO,64068,-94.301477,39.241373,29,47,21600
1139,289 Broadway St, Missouri City, MO,64068,-94.301477,39.241373,29,47,21600
1140,501 Levenworth, Excelsior Springs, MO,64024,-94.228222,39.337856,29,47,21702
1141,902 S Jefferson St, Kearney, MO,64060,-94.360889,39.364608,29,47,21805
1142,715 E 19th St, Kearney, MO,64060,-94.35215,39.35325,29,47,21805
1143,620 E 23rd Ave, North Kansas City, MO,64116,-94.573477,39.145245,29,47,22100
1144,1400 S Skyline Dr, Liberty, MO,64068,-94.424205,39.231891,29,47,22301
1145,1500 S Withers Rd, Liberty, MO,64068,-94.436955,39.231239,29,47,22302
1146,700 Center St, Lathrop, MO,64465,-94.329122,39.544687,29,49,960200
1147,612 Center St, Lathrop, MO,64465,-94.329089,39.546166,29,49,960200
1148,102 North St, Lathrop, MO,64465,-94.320733,39.557302,29,49,960200
1149,800 W Frost St, Plattsburg, MO,64477,-94.455945,39.561689,29,49,960300
1150,325 Lewis and Clark Dr, Jefferson City, MO,65101,-92.143406,38.556204,29,51,10300
1151,1410 Hough Park Rd, Jefferson City, MO,65101,-92.170267,38.551657,29,51,10400
1152,609 Union St, Jefferson City, MO,65101,-92.177242,38.56238,29,51,10500
1153,605 Union St, Jefferson City, MO,65101,-92.177289,38.562414,29,51,10500
1154,400 Stadium Blvd, Jefferson City, MO,65101,-92.181476,38.562955,29,51,10500
1155,400 W 4th St, Lockwood, MO,65682,-93.957741,37.390031,29,57,480200
1156,315 S Hickory St, Buffalo, MO,65622,-93.09963,37.644023,29,59,480200
1157,413 E 2nd St, Jameson, MO,64647,-93.984389,40.0051,29,61,470100
1158,413 E 2nd St, Jameson, MO,64647,-93.984389,40.0051,29,61,470100
1159,601 W Main St, Maysville, MO,64469,-94.364677,39.88963,29,63,80100
1160,601 W Main St, Maysville, MO,64469,-94.364677,39.88963,29,63,80100
1161,275 Clinton Ave, Osborn, MO,64474,-94.356617,39.749272,29,63,80200
1162,275 Clinton Ave, Osborn, MO,64474,-94.356617,39.749272,29,63,80200
1163,100 S Warfel St, Salem, MO,65560,-91.528687,37.642159,29,65,960400
1164,1601 Doss Rd, Salem, MO,65560,-91.52347,37.626839,29,65,960400
1165,MO 76 & Highway C, Norwood, MO,65717,-92.449935,36.969784,29,67,950100
1166,3340 Highway 19, Owensville, MO,65066,-91.489845,38.31973,29,73,960500
1167,3336 Highway 19, Owensville, MO,65066,-91.489313,38.318852,29,73,960500
1168,300 N Grand St, King City, MO,64463,-94.521356,40.053711,29,75,960200
1169,300 N Grand St, King City, MO,64463,-94.521356,40.053711,29,75,960200
1170,840 S Jefferson Ave, Springfield, MO,65806,-93.289974,37.199414,29,77,200
1171,934 S Kimbrough Ave, Springfield, MO,65806,-93.286948,37.197945,29,77,200
1172,510 College Ave, Kennett, MO,63857,-90.055628,36.24127,29,69,360500
1173,920 Kennett St, Kennett, MO,63857,-90.0555,36.228971,29,69,360500
1174,1400 W Washington St, Kennett, MO,63857,-90.071345,36.238862,29,69,360700
1175,1400 W Washington St, Kennett, MO,63857,-90.071345,36.238862,29,69,360700
1176,2749 Highway T, Labadie, MO,63055,-90.860642,38.524025,29,71,800100
1177,100 Park Dr, New Haven, MO,63068,-91.225382,38.60063,29,71,800401
1178,100 Park Dr, New Haven, MO,63068,-91.225382,38.60063,29,71,800401
1179,100 Park Dr, New Haven, MO,63068,-91.225382,38.60063,29,71,800401
1180,413 W Union St, Pacific, MO,63069,-90.745374,38.483134,29,71,800701
1181,2001 W Osage St, Pacific, MO,63069,-90.766387,38.484519,29,71,800701
1182,195 N Indian Pride Dr, Pacific, MO,63069,-90.752447,38.484105,29,71,800701
1183,425 Indian Warpath Dr, Pacific, MO,63069,-90.779689,38.484304,29,71,800701
1184,2264 Highway Ap, Catawissa, MO,63015,-90.759402,38.409374,29,71,800800
1185,7466 Highway FF, Lonedell, MO,63060,-90.822121,38.285944,29,71,801000
1186,1401 Daily Rd, Bethany, MO,64424,-94.013851,40.279394,29,81,950300
1187,905 S 24th St, Bethany, MO,64424,-94.028261,40.26247,29,81,950300
1188,2213 Beekman St, Bethany, MO,64424,-94.029547,40.262616,29,81,950300
1189,823 SE Hwy 7, Clinton, MO,64735,-93.609245,38.31865,29,83,950200
1190,1193 N Hwy 13, Chilhowee, MO,64733,-93.761492,38.537037,29,83,950300
1191,516 W Meadowmere St, Springfield, MO,65807,-93.299926,37.191107,29,77,400
1192,906 W Portland St, Springfield, MO,65807,-93.301843,37.185914,29,77,400
1193,1111 N Robberson Ave, Springfield, MO,65802,-93.290904,37.220498,29,77,700
1194,1333 E Grand St, Springfield, MO,65804,-93.272968,37.196523,29,77,900
1195,2352 S Weaver Ave, Springfield, MO,65807,-93.305962,37.172324,29,77,1500
1196,2757 E Division St, Springfield, MO,65803,-93.239552,37.224733,29,77,2200
1197,2934 E Bennett St, Springfield, MO,65804,-93.235771,37.187924,29,77,2402
1198,3710 S Jefferson Ave, Springfield, MO,65807,-93.29125,37.147414,29,77,2800
1199,3414 S Mentor Ave, Springfield, MO,65804,-93.231005,37.150511,29,77,3900
1200,4051 S Scenic Ave, Springfield, MO,65807,-93.332456,37.140235,29,77,4102
1201,5005 S Farm Road 135, Springfield, MO,65810,-93.342541,37.123677,29,77,4102
1202,7297 E Farm Road 164, Rogersville, MO,65742,-93.137363,37.144876,29,77,4700
1203,4700 S State Highway 125, Rogersville, MO,65742,-93.119184,37.123277,29,77,4700
1204,512 S Sentry Dr, Rogersville, MO,65742,-93.080728,37.109421,29,77,4700
1205,8225 E Farm Road 174, Rogersville, MO,65742,-93.117246,37.126241,29,77,4700
1206,201 E State Highway 174, Republic, MO,65738,-93.480206,37.126545,29,77,4803
1207,234 E Anderson St, Republic, MO,65738,-93.477871,37.122119,29,77,4803
1208,518 N Hampton Ave, Republic, MO,65738,-93.475724,37.123151,29,77,4803
1209,1 Tiger Dr, Republic, MO,65738,-93.466983,37.125076,29,77,4803
1210,235 E Anderson St, Republic, MO,65738,-93.477298,37.122226,29,77,4803
1211,1813 S Scenic Ave, Springfield, MO,65807,-93.331569,37.182195,29,77,5800
1212,106 W Main St, Laredo, MO,64652,-93.448531,40.025799,29,79,960100
1213,128 SE 20th St, Trenton, MO,64683,-93.575811,40.046515,29,79,960100
1214,804 W 4th Ter, Trenton, MO,64683,-93.623955,40.073105,29,79,960300
1215,3461 County Rd 1710, West Plains, MO,65775,-91.872625,36.771709,29,91,90500
1216,8004 County Road 3010, West Plains, MO,65775,-91.794624,36.755194,29,91,90600
1217,610 E Olden St, West Plains, MO,65775,-91.844496,36.734607,29,91,90700
1218,1715 Wayhaven Dr, West Plains, MO,65775,-91.873838,36.760634,29,91,90800
1219,307 2nd St, Montrose, MO,64770,-93.984673,38.255986,29,83,950400
1220,307 2nd St, Montrose, MO,64770,-93.984673,38.255986,29,83,950400
1221,708 Nebraska St, Mound City, MO,64470,-95.230362,40.133228,29,87,960200
1222,708 Nebraska St, Mound City, MO,64470,-95.230362,40.133228,29,87,960200
1223,708 Nebraska St, Mound City, MO,64470,-95.230362,40.133228,29,87,960200
1224,201 S Barbour Ave, Oregon, MO,64473,-95.138068,39.985898,29,87,960300
1225,412 W Broadway, New Franklin, MO,65274,-92.741386,39.017666,29,89,960200
1226,412 W Broadway, New Franklin, MO,65274,-92.741386,39.017666,29,89,960200
1227,702 Lucky St, Fayette, MO,65248,-92.692944,39.148871,29,89,960300
1228,314 N Elm St, Mountain View, MO,65548,-91.702072,36.997361,29,91,90200
1229,3209 US Hwy 160, West Plains, MO,65775,-91.969858,36.625069,29,91,90400
1230,7078 Young St, Fort Leonard Wood, MO,65473,-92.131199,37.779137,29,169,470390
1231,27600 Highway AA, Laquey, MO,65534,-92.313451,37.757154,29,169,470400
1232,27600 Highway AA, Laquey, MO,65534,-92.313451,37.757154,29,169,470400
1233,27600 Highway AA, Laquey, MO,65534,-92.313451,37.757154,29,169,470400
1234,2350 Saint Clair Ave, Saint Louis, MO,63144,-90.355671,38.61932,29,189,217400
1235,10094 Litzsinger Rd, Saint Louis, MO,63124,-90.404196,38.625609,29,189,217500
1236,11287 Manchester Rd, Saint Louis, MO,63122,-90.420231,38.599163,29,189,217600
1237,715 S Mason Rd, Saint Louis, MO,63141,-90.481058,38.637164,29,189,217702
1238,1215 Dauphine Ln, Ballwin, MO,63011,-90.50132,38.603574,29,189,217702
1239,2650 Kehrs Mill Rd, Chesterfield, MO,63017,-90.577351,38.618497,29,189,217852
1240,390 Tumulty Dr, Ballwin, MO,63021,-90.528568,38.575217,29,189,217931
1241,7700 Fine Rd, Saint Louis, MO,63129,-90.338305,38.417613,29,189,220444
1242,5950 Telegraph Rd, Saint Louis, MO,63129,-90.305996,38.460824,29,189,220445
1243,623 Buckley Rd, Saint Louis, MO,63125,-90.309466,38.504855,29,189,220502
1244,3200 Lemay Ferry Rd, Saint Louis, MO,63125,-90.316734,38.512891,29,189,220502
1245,5000 S Lindbergh Blvd, Saint Louis, MO,63126,-90.372564,38.527659,29,189,220703
1246,11011 Gravois Rd, Saint Louis, MO,63126,-90.363836,38.542002,29,189,220802
1247,205 E Morley, Marquand, MO,63655,-90.167094,37.429618,29,123,960100
1248,205 E Morley, Marquand, MO,63655,-90.167094,37.429618,29,123,960100
1249,714 E Jefferson Ave, Richland, MO,65556,-92.391018,37.859364,29,169,470500
1250,714 E Jefferson Ave, Richland, MO,65556,-92.391018,37.859364,29,169,470500
1251,714 E Jefferson Ave, Richland, MO,65556,-92.391018,37.859364,29,169,470500
1252,1101 S Main St, New London, MO,63459,-91.398829,39.576732,29,173,470100
1253,21622 Highway 19, Center, MO,63436,-91.53594,39.505836,29,173,470200
1254,21622 Highway 19, Center, MO,63436,-91.53594,39.505836,29,173,470200
1255,235 New Ballwin Rd, Ballwin, MO,63021,-90.557731,38.587674,29,189,217943
1256,801 W Essex Ave, Saint Louis, MO,63122,-90.421613,38.589118,29,189,218402
1257,700 S Kirkwood Rd, Saint Louis, MO,63122,-90.406466,38.572592,29,189,218600
1258,765 N Sappington Rd, Glendale, MO,63122,-90.386493,38.595097,29,189,218800
1259,9021 Sappington Rd, Saint Louis, MO,63126,-90.379944,38.546286,29,189,220803
1260,10025 Kennerly Rd, Saint Louis, MO,63128,-90.378276,38.510359,29,189,221202
1261,12111 Tesson Ferry Rd, Saint Louis, MO,63128,-90.366694,38.51689,29,189,221202
1262,1626 Hawkins Rd, Fenton, MO,63026,-90.492869,38.511995,29,189,221421
1263,1628 Hawkins Rd, Fenton, MO,63026,-90.492867,38.512077,29,189,221421
1264,1780 Hawkins Rd, Fenton, MO,63026,-90.489577,38.517221,29,189,221422
1265,3300 Hwy 109, Wildwood, MO,63038,-90.640678,38.552424,29,189,221502
1266,1723 S Main St, Palmyra, MO,63461,-91.523479,39.782459,29,127,960100
1267,2905 Highway D, Philadelphia, MO,63463,-91.744225,39.842266,29,127,960200
1268,2905 Highway D, Philadelphia, MO,63463,-91.744225,39.842266,29,127,960200
1269,312 Munger Ln, Hannibal, MO,63401,-91.400466,39.716185,29,127,960400
1270,2800 Bird St, Hannibal, MO,63401,-91.3855,39.707265,29,127,960600
1271,3716 Market St, Hannibal, MO,63401,-91.397944,39.685484,29,127,960900
1272,301 W Martin St, Cairo, MO,65239,-92.442406,39.511877,29,175,490100
1273,301 W Martin St, Cairo, MO,65239,-92.442406,39.511877,29,175,490100
1274,920 Kwix Rd, Moberly, MO,65270,-92.428332,39.402062,29,175,490500
1275,1625 Gratz Brown St, Moberly, MO,65270,-92.422522,39.395772,29,175,490500
1276,1623 Gratz Brown St, Moberly, MO,65270,-92.42252,39.395814,29,175,490500
1277,600 Bob Gill Rd, Lawson, MO,64062,-94.200428,39.440275,29,177,80000
1278,602 Bob Gill Rd, Lawson, MO,64062,-94.200429,39.440322,29,177,80000
1279,929 Honor Camp Ln, Fordland, MO,65652,-92.878179,37.151693,29,225,470402
1280,8939 Highway 95, Mountain Grove, MO,65711,-92.346349,37.438051,29,229,490100
1281,315 W Ohio St, Mansfield, MO,65704,-92.582579,37.111112,29,229,490300
1282,316 W Ohio St, Mansfield, MO,65704,-92.582585,37.111221,29,229,490300
1283,675 N Hawk St, Norwood, MO,65717,-92.417276,37.112557,29,229,490300
1284,675 N Hawk St, Norwood, MO,65717,-92.417276,37.112557,29,229,490300
1285,320 E 9th St, Mountain Grove, MO,65711,-92.260316,37.136382,29,229,490400
1286,400 E 17th St, Mountain Grove, MO,65711,-92.259964,37.143233,29,229,490400
1287,420 N Main St, Mountain Grove, MO,65711,-92.263183,37.132914,29,229,490400
1288,1400 Industrial Park Rd, Mountain Grove, MO,65711,-92.283753,37.124517,29,229,490400
1986,\N,\N,\N,\N,\N,\N,\N,\N,\N
1289,502 W 5th St, Mountain Grove, MO,65711,-92.271075,37.132985,29,229,490400
1290,516 Loughborough Ave, Saint Louis, MO,63111,-90.256173,38.555106,29,510,101500
1291,1220 Babler Park Dr, Wildwood, MO,63038,-90.664257,38.609586,29,189,221621
1292,17050 Clayton Rd, Wildwood, MO,63011,-90.637144,38.597014,29,189,221626
1293,2730 Valley Rd, Clarkson Valley, MO,63005,-90.594413,38.607293,29,189,221626
1294,2351 Clarkson Rd, Clarkson Valley, MO,63017,-90.580775,38.624661,29,189,221629
1295,17200 Manchester Rd, Wildwood, MO,63040,-90.652742,38.579703,29,189,222100
1296,777 Ridge Rd, Wildwood, MO,63021,-90.600395,38.571953,29,189,222100
1297,1008 E Coleman St, Princeton, MO,64673,-93.583997,40.394389,29,129,470200
1298,1008 E Coleman St, Princeton, MO,64673,-93.583997,40.394389,29,129,470200
1299,1571 Bagnell Dam Blvd, Lakeside, MO,65049,-92.626186,38.20271,29,131,962800
1300,526 School Rd, Tuscumbia, MO,65082,-92.461012,38.236719,29,131,962800
1301,100 Kirkham St, Orrick, MO,64077,-94.128872,39.21436,29,177,80300
1302,100 Kirkham St, Orrick, MO,64077,-94.128872,39.21436,29,177,80300
1303,County Rd 142 & County Rd 142, Gatewood, MO,63942,-91.123514,36.594118,29,181,870200
1304,101 Batten St, Naylor, MO,63953,-90.60354,36.572515,29,181,870400
1305,2165 Highway V, Saint Charles, MO,63301,-90.447915,38.898067,29,183,310100
1306,2165 Highway V, Saint Charles, MO,63301,-90.447915,38.898067,29,183,310100
1307,2165 Highway V, Saint Charles, MO,63301,-90.447915,38.898067,29,183,310100
1308,6031 Southwest Ave, Saint Louis, MO,63139,-90.290395,38.61051,29,510,103700
1309,6124 Enright Ave, Saint Louis, MO,63112,-90.298383,38.656475,29,510,105198
1310,5821 Kennerly Ave, Saint Louis, MO,63112,-90.276879,38.677108,29,510,106200
1311,5511 Wabada Ave, Saint Louis, MO,63112,-90.271709,38.673153,29,510,106300
1312,3033 N Euclid Ave, Saint Louis, MO,63115,-90.251657,38.671853,29,510,106700
1313,805 S Miami Ave, Marshall, MO,65340,-93.20876,39.113283,29,195,90300
1314,411 N Benton Ave, Marshall, MO,65340,-93.203968,39.124681,29,195,90300
1315,900 W Vest St, Marshall, MO,65340,-93.210935,39.115621,29,195,90300
1316,222 School St, Jamestown, MO,65046,-92.475607,38.760305,29,135,385100
1317,222 School St, Jamestown, MO,65046,-92.475607,38.760305,29,135,385100
1318,156 School St, Latham, MO,65050,-92.680693,38.558965,29,135,385300
1319,430 N Washington St, Monroe City, MO,63456,-91.731971,39.655892,29,137,960100
1320,420 N Washington St, Monroe City, MO,63456,-91.73195,39.655829,29,137,960100
1321,625 S 6th St, St Charles, MO,63301,-90.490679,38.779234,29,183,310501
1322,2660 Zumbehl Rd, St Charles, MO,63301,-90.535303,38.799537,29,183,310700
1323,2400 Zumbehl Rd, St Charles, MO,63301,-90.535444,38.794953,29,183,310700
1324,2670 Zumbehl Rd, St Charles, MO,63301,-90.5353,38.799838,29,183,310700
1325,3747 Harry S Truman Blvd, St Charles, MO,63301,-90.561224,38.796853,29,183,310802
1326,4800 Meadows Pkwy, Weldon Spring, MO,63304,-90.665336,38.708768,29,183,311103
1327,3450 Pheasant Meadow Dr, O'Fallon, MO,63368,-90.696811,38.745735,29,183,311124
1328,4470 Finney Ave, Saint Louis, MO,63113,-90.250139,38.653288,29,510,111200
1329,918 Union Blvd, Saint Louis, MO,63108,-90.272896,38.655119,29,510,112200
1330,5329 Columbia Ave, Saint Louis, MO,63139,-90.276697,38.611215,29,510,113500
1331,6020 Pernod Ave, Saint Louis, MO,63139,-90.294275,38.596811,29,510,114102
1332,5031 Potomac St, Saint Louis, MO,63139,-90.276317,38.597688,29,510,114200
1333,4300 Morganford Rd, Saint Louis, MO,63116,-90.26455,38.588777,29,510,115200
1334,5028 Morganford Rd, Saint Louis, MO,63116,-90.267439,38.580602,29,510,115400
1335,3112 Meramec St, Saint Louis, MO,63118,-90.238058,38.580128,29,510,115600
1336,2745 Meramec St, Saint Louis, MO,63118,-90.23211,38.579495,29,510,115700
1337,20794 US Hwy 61, Sikeston, MO,63801,-89.621457,36.98047,29,201,780400
1338,20794 US Hwy 61, Sikeston, MO,63801,-89.621457,36.98047,29,201,780400
1339,4035 State Highway 77, Benton, MO,63736,-89.545709,37.092039,29,201,781000
1340,4035 State Highway 77, Benton, MO,63736,-89.545709,37.092039,29,201,781000
1341,1016 State Hwy A, Benton, MO,63736,-89.563407,37.126381,29,201,781100
1342,230 W Front St, Sikeston, MO,63801,-89.591287,36.876449,29,201,781200
1343,3071 Highway 15, Shelbyville, MO,63469,-92.031466,39.836541,29,205,450100
1344,3071 Highway 15, Shelbyville, MO,63469,-92.031466,39.836541,29,205,450100
1345,725 Cleveland St, Paris, MO,65275,-92.006158,39.470305,29,137,960200
1346,309 S Thomas St, Madison, MO,65263,-92.214775,39.470952,29,137,960300
1347,309 S Thomas St, Madison, MO,65263,-92.214775,39.470952,29,137,960300
1348,11476 Route M, Madison, MO,65263,-92.279057,39.394793,29,137,960300
1349,300 Niedergerke Dr, Montgomery City, MO,63361,-91.497527,38.959997,29,139,970200
1350,817 N Harper St, Montgomery City, MO,63361,-91.513051,38.981185,29,139,970200
1351,394 N Highway 19, Montgomery City, MO,63361,-91.486817,38.955154,29,139,970200
1352,418 N Highway 19, Montgomery City, MO,63361,-91.487855,38.956351,29,139,970200
1353,106 Smith Rd, Jonesburg, MO,63351,-91.297348,38.851529,29,139,970400
1354,7370 Weldon Springs Rd, Dardenne Prairie, MO,63368,-90.722019,38.726964,29,183,311151
1355,7479 Mexico Rd, Saint Peters, MO,63376,-90.640567,38.788567,29,183,311312
1356,4047 Juniata St, Saint Louis, MO,63116,-90.25394,38.60188,29,510,116200
1357,3230 Hartford St, Saint Louis, MO,63118,-90.235949,38.600904,29,510,116500
1358,2900 S Grand Blvd, Saint Louis, MO,63118,-90.241839,38.604463,29,510,116500
1359,4221 Shaw Blvd, Saint Louis, MO,63110,-90.254175,38.616556,29,510,117200
1360,3942 Flad Ave, Saint Louis, MO,63110,-90.247039,38.61192,29,510,117200
1361,3815 Magnolia Ave, Saint Louis, MO,63110,-90.245378,38.607654,29,510,117400
1362,3815 Magnolia Ave, Saint Louis, MO,63110,-90.245378,38.607654,29,510,117400
1987,\N,\N,\N,\N,\N,\N,\N,\N,\N
1363,3815 Magnolia Ave, Saint Louis, MO,63110,-90.245378,38.607654,29,510,117400
1364,3412 Shenandoah Ave, Saint Louis, MO,63104,-90.236699,38.609323,29,510,117400
1365,4015 McPherson Ave, Saint Louis, MO,63108,-90.243142,38.640665,29,510,119300
1366,620 N Grand Blvd, Saint Louis, MO,63103,-90.231237,38.639384,29,510,121100
1367,1000 N Grand Blvd, Saint Louis, MO,63106,-90.229271,38.642338,29,510,121200
1368,2647 Ohio Ave, Saint Louis, MO,63118,-90.225516,38.604838,29,510,123100
1369,2050 Allen Ave, Saint Louis, MO,63104,-90.216058,38.610544,29,510,123200
1370,3641 Missouri Ave, Saint Louis, MO,63118,-90.224136,38.588833,29,510,124300
1371,3017 N 13th St, Saint Louis, MO,63107,-90.196463,38.653927,29,510,126600
1372,310 Church St, Oran, MO,63771,-89.65334,37.087726,29,201,780300
1373,310 Church St, Oran, MO,63771,-89.65334,37.087726,29,201,780300
1374,4154 Highway 36, Shelbina, MO,63468,-92.107006,39.709277,29,205,450200
1375,111 W College Ave, Shelbina, MO,63468,-92.042198,39.689359,29,205,450200
1376,481 N Bedford St, Puxico, MO,63960,-90.154186,36.952729,29,207,470200
1377,481 N Bedford St, Puxico, MO,63960,-90.154186,36.952729,29,207,470200
1378,481 N Bedford St, Puxico, MO,63960,-90.154186,36.952729,29,207,470200
1379,481 N Bedford St, Puxico, MO,63960,-90.154186,36.952729,29,207,470200
1380,505 Court St, Bloomfield, MO,63825,-89.932725,36.884947,29,207,470300
1381,24456 State Hwy 114, Essex, MO,63846,-89.831659,36.81655,29,207,470400
1382,24456 State Hwy 114, Essex, MO,63846,-89.831659,36.81655,29,207,470400
1383,701 N Oak St, Stover, MO,65078,-92.991883,38.446591,29,141,470200
1384,701 N Oak St, Stover, MO,65078,-92.991883,38.446591,29,141,470200
1385,913 W Newton St, Versailles, MO,65084,-92.858863,38.431534,29,141,470300
1386,913 W Newton St, Versailles, MO,65084,-92.858863,38.431534,29,141,470300
1387,913 W Newton St, Versailles, MO,65084,-92.858863,38.431534,29,141,470300
1388,913 W Newton St, Versailles, MO,65084,-92.858863,38.431534,29,141,470300
1389,610 Prince Ruppert Dr, O'Fallon, MO,63366,-90.690763,38.814005,29,183,311602
1390,201 Knaust Rd, Saint Peters, MO,63376,-90.675936,38.783929,29,183,311721
1391,200 Meriwether Lewis Dr, Dardenne Prairie, MO,63368,-90.721259,38.762232,29,183,311732
1392,1099 Mount Hope Ln, O'Fallon, MO,63366,-90.734093,38.838079,29,183,311801
1393,1550 Feise Rd, Dardenne Prairie, MO,63368,-90.753828,38.773524,29,183,311904
1394,310 US Hwy 61, New Madrid, MO,63869,-89.564855,36.576634,29,143,960300
1395,904 King Ave, Portageville, MO,63873,-89.699295,36.432799,29,143,960600
1396,904 King Ave, Portageville, MO,63873,-89.699295,36.432799,29,143,960600
1397,1420 Hale McGinty Dr, Neosho, MO,64850,-94.399992,36.848065,29,145,20200
1398,1111 Wornall St, Neosho, MO,64850,-94.382425,36.855857,29,145,20200
1399,2501 Mexico Rd, O Fallon, MO,63366,-90.792648,38.811673,29,183,312095
1400,1107 Peine Rd, Wentzville, MO,63385,-90.892309,38.837894,29,183,312097
1401,386 W MO 76, Reeds Spring, MO,65737,-93.382765,36.733958,29,209,90602
1402,300 Wolves Ln, Reeds Spring, MO,65737,-93.389861,36.730676,29,209,90602
1403,20277 MO 413, Reeds Spring, MO,65737,-93.381553,36.722466,29,209,90602
1404,175 Elementary Rd, Reeds Spring, MO,65737,-93.384183,36.731403,29,209,90602
1405,257 Elementary Rd, Reeds Spring, MO,65737,-93.384419,36.731064,29,209,90602
1406,21016 Main St, Reeds Spring, MO,65737,-93.383048,36.73313,29,209,90602
1407,306 N Main St, Newtown, MO,64667,-93.335175,40.377856,29,211,480200
1408,306 N Main St, Newtown, MO,64667,-93.335175,40.377856,29,211,480200
1409,373 S Market St, Milan, MO,63556,-93.125501,40.199461,29,211,480300
1410,373 S Market St, Milan, MO,63556,-93.125501,40.199461,29,211,480300
1411,373 S Market St, Milan, MO,63556,-93.125501,40.199461,29,211,480300
1412,1815 Saint Eugene St, Seneca, MO,64865,-94.603713,36.837081,29,145,20700
1413,1110 Neosho St, Seneca, MO,64865,-94.606636,36.837935,29,145,20700
1414,1817 Saint Eugene St, Seneca, MO,64865,-94.603715,36.837038,29,145,20700
1415,925 Oneida St, Seneca, MO,64865,-94.610768,36.839184,29,145,20700
1416,705 E Barnard St, Hopkins, MO,64461,-94.814555,40.550874,29,147,470100
1417,318 S Taylor St, Graham, MO,64455,-95.039744,40.199181,29,147,470200
1418,460 McMenamy Rd, Saint Peters, MO,63376,-90.628883,38.796385,29,183,312400
1419,S Beech St & E Burbank St, Appleton City, MO,64724,-94.023565,38.185397,29,185,480100
1420,76 SE Highway WW, Osceola, MO,64776,-93.70634,38.044941,29,185,480300
1421,76 SE Highway WW, Osceola, MO,64776,-93.70634,38.044941,29,185,480300
1422,4333 Goodfellow Blvd, Saint Louis, MO,63120,-90.268887,38.69191,29,510,126900
1423,37707 US Hwy 160, Rueter, MO,65744,-92.837725,36.595434,29,213,480402
1424,30227 US Hwy 136, Maryville, MO,64468,-94.806997,40.344627,29,147,470500
1425,126 S High School Ave, Ravenwood, MO,64479,-94.670161,40.351071,29,147,470500
1426,126 S High School Ave, Ravenwood, MO,64479,-94.670161,40.351071,29,147,470500
1427,1212 E Main St, Linn, MO,65051,-91.839434,38.477147,29,151,490200
1428,1212 E Main St, Linn, MO,65051,-91.839434,38.477147,29,151,490200
1429,7151 Raider Rd, Bonne Terre, MO,63628,-90.526655,37.906079,29,187,950101
1430,405 Hillcrest Dr, Bonne Terre, MO,63628,-90.534056,37.920224,29,187,950300
1431,1224 S 14th St, Saint Louis, MO,63104,-90.20489,38.617906,29,510,127400
1432,1301 Hogan St, Saint Louis, MO,63106,-90.202508,38.641071,29,510,127500
1433,1731 S Broadway, Saint Louis, MO,63104,-90.199841,38.608735,29,510,127600
1434,1731 S Broadway, Saint Louis, MO,63104,-90.199841,38.608735,29,510,127600
1435,2156 Russell Blvd, Saint Louis, MO,63104,-90.218847,38.610245,29,510,123300
1436,125 College Ave, Licking, MO,65542,-91.85718,37.49024,29,215,480100
1437,313 S Main St, Licking, MO,65542,-91.856905,37.496725,29,215,480100
1988,\N,\N,\N,\N,\N,\N,\N,\N,\N
1989,\N,\N,\N,\N,\N,\N,\N,\N,\N
1438,135 W Highway B, Raymondville, MO,65555,-91.838081,37.339787,29,215,480200
1439,10645 Plato Dr, Plato, MO,65552,-92.219889,37.503847,29,215,480300
1440,10645 Plato Dr, Plato, MO,65552,-92.219889,37.503847,29,215,480300
1441,102 School St, Wardell, MO,63879,-89.822376,36.351087,29,155,470100
1442,128 State Hwy A, Portageville, MO,63873,-89.707346,36.350013,29,155,470100
1443,708 S Fleming St, Farmington, MO,63640,-90.412849,37.771849,29,187,950800
1444,1040 Forster St, Farmington, MO,63640,-90.410945,37.774591,29,187,950800
1445,406 E Chestnut St, Desloge, MO,63601,-90.523631,37.871699,29,187,951100
1446,100 N Parkside St, Desloge, MO,63601,-90.531236,37.870757,29,187,951100
1447,1218 Shepley Dr, Saint Louis, MO,63137,-90.212378,38.757519,29,189,210200
1448,10242 Prince Dr, Saint Louis, MO,63136,-90.243248,38.756499,29,189,210501
1449,9801 Edgefield Dr, Moline Acres, MO,63136,-90.250597,38.746675,29,189,210502
1450,9800 Patricia Barkalow Dr, Moline Acres, MO,63137,-90.236673,38.745368,29,189,210600
1451,544 Wabash Ave, Kansas City, MO,64124,-94.552676,39.107058,29,95,1000
1452,6400 E 23rd St, Kansas City, MO,64129,-94.509153,39.083065,29,95,2100
1453,2830 Holmes St, Kansas City, MO,64109,-94.576398,39.075092,29,95,4300
1454,3400 Paseo Blvd, Kansas City, MO,64109,-94.56704,39.064853,29,95,5200
1455,4201 Indiana Ave, Kansas City, MO,64130,-94.544591,39.049659,29,95,6000
1456,216 E Leslie Ave, Walker, MO,64790,-94.23024,37.897313,29,217,950100
1457,836 South St, Warrenton, MO,63383,-91.130951,38.810556,29,219,820102
1458,326 College St, Perryville, MO,63775,-89.859844,37.720438,29,157,470400
1459,326 College St, Perryville, MO,63775,-89.859844,37.720438,29,157,470400
1460,326 College St, Perryville, MO,63775,-89.859844,37.720438,29,157,470400
1461,326 College St, Perryville, MO,63775,-89.859844,37.720438,29,157,470400
1462,16215 Highway H, Hughesville, MO,65334,-93.292913,38.842833,29,159,480100
1463,407 W Tuck St, Houstonia, MO,65333,-93.358771,38.897088,29,159,480100
1464,201 S Washington St, La Monte, MO,65337,-93.419584,38.772795,29,159,480200
1465,301 S Washington St, La Monte, MO,65337,-93.419623,38.772076,29,159,480200
1466,22675 Depot Rd, Sedalia, MO,65301,-93.335686,38.750738,29,159,480200
1467,2505 W 32nd St, Sedalia, MO,65301,-93.256635,38.684024,29,159,480200
1468,505 S Myrtle Ave, Smithton, MO,65350,-93.093234,38.679017,29,159,480400
1469,505 S Myrtle Ave, Smithton, MO,65350,-93.093234,38.679017,29,159,480400
1470,13750 Old Jamestown Rd, Black Jack, MO,63033,-90.254903,38.81037,29,189,210804
1471,11230 Old Halls Ferry Rd, Saint Louis, MO,63136,-90.263961,38.776813,29,189,210805
1472,11950 Old Halls Ferry Rd, Black Jack, MO,63033,-90.270733,38.788383,29,189,210806
1473,405 Jana Dr, Florissant, MO,63031,-90.319874,38.815308,29,189,210926
1474,4420 Vaile Ave, Florissant, MO,63034,-90.28781,38.838514,29,189,210927
1475,705 Waterford Dr, Florissant, MO,63033,-90.301558,38.789274,29,189,211000
1476,2800 Parker Rd, Florissant, MO,63033,-90.301722,38.795339,29,189,211000
1477,955 Derhake Rd, Florissant, MO,63033,-90.305973,38.780875,29,189,211101
1478,1700 Derhake Rd, Florissant, MO,63033,-90.293565,38.780708,29,189,211102
1479,1520 Derhake Rd, Florissant, MO,63033,-90.296381,38.780738,29,189,211102
1480,7220 N Lindbergh Blvd, Hazelwood, MO,63042,-90.355384,38.78354,29,189,211201
1481,975 Lindsay Ln, Florissant, MO,63031,-90.344237,38.805643,29,189,211301
1482,1830 Charbonier Rd, Florissant, MO,63031,-90.354998,38.806502,29,189,211331
1483,3301 E 75th St, Kansas City, MO,64132,-94.549105,38.990319,29,95,8900
1484,8111 Oak St, Kansas City, MO,64114,-94.58543,38.980858,29,95,9400
1485,9801 Grand Ave, Kansas City, MO,64114,-94.589113,38.949916,29,95,10002
1486,4900 Pittman Rd, Kansas City, MO,64133,-94.462286,39.033734,29,95,10600
1487,4400 Sterling Ave, Kansas City, MO,64133,-94.447988,39.040983,29,95,10702
1488,800 E Main St, Marthasville, MO,63357,-91.050683,38.627711,29,219,820202
1489,303 S Lead St, Potosi, MO,63664,-90.792783,37.937236,29,221,460300
1490,205 State Hwy P, Potosi, MO,63664,-90.777337,37.928019,29,221,460300
1491,1 Trojan Dr, Potosi, MO,63664,-90.79051,37.935243,29,221,460300
1492,1901 S New York Ave, Sedalia, MO,65301,-93.208973,38.693843,29,159,481000
1493,2205 S Ingram Ave, Sedalia, MO,65301,-93.22296,38.691649,29,159,481000
1494,314 S Jefferson St, St James, MO,65559,-91.613441,37.995926,29,161,890200
1495,900 Bulldog Run, Rolla, MO,65401,-91.767569,37.949902,29,161,890300
1496,1304 E 10th St, Rolla, MO,65401,-91.752215,37.951427,29,161,890300
1497,701 Wolf Pride Dr, Newburg, MO,65550,-91.899414,37.91906,29,161,890500
1498,701 Wolf Pride Dr, Newburg, MO,65550,-91.899414,37.91906,29,161,890500
1499,585 Coachway Ln, Hazelwood, MO,63042,-90.35924,38.790751,29,189,211332
1500,7350 Howdershell Rd, Hazelwood, MO,63042,-90.3699,38.796087,29,189,211332
1501,2015 Mullanphy Ln, Florissant, MO,63031,-90.348704,38.815363,29,189,211334
1502,1605 Shackelford Rd, Florissant, MO,63031,-90.344271,38.817055,29,189,211334
1503,1825 Crown Point Dr, Saint Louis, MO,63136,-90.2688,38.756808,29,189,211802
1504,1910 Exuma Dr, Saint Louis, MO,63136,-90.265088,38.741915,29,189,211900
1505,9865 Winkler Dr, Saint Louis, MO,63136,-90.264353,38.747786,29,189,211900
1506,8850 Cozens Ave, Saint Louis, MO,63136,-90.256123,38.728113,29,189,212001
1507,8831 Cozens Ave, Saint Louis, MO,63136,-90.256942,38.727772,29,189,212001
1508,8920 Cozens Ave, Saint Louis, MO,63136,-90.252965,38.729569,29,189,212001
1509,4315 Cardwell Dr, Saint Louis, MO,63121,-90.29417,38.709299,29,189,212300
1510,685 January Ave, Saint Louis, MO,63135,-90.313878,38.753043,29,189,212600
1511,401 Powell Ave, Saint Louis, MO,63135,-90.300044,38.7568,29,189,212600
1512,2601 N Liberty St, Independence, MO,64050,-94.415974,39.125476,29,95,11300
1990,\N,\N,\N,\N,\N,\N,\N,\N,\N
1513,1525 N Noland Rd, Independence, MO,64050,-94.412442,39.107285,29,95,11300
1514,1656 S Speck Rd, Independence, MO,64057,-94.362165,39.085382,29,95,11401
1515,509 Jennings Rd, Independence, MO,64056,-94.374668,39.112379,29,95,11406
1516,2437 S Hardy Ave, Independence, MO,64052,-94.455559,39.077998,29,95,11900
1517,6019 Blue Ridge Blvd, Kansas City, MO,64133,-94.460721,39.013767,29,95,12501
1518,10601 E 59th St, Kansas City, MO,64133,-94.456564,39.015486,29,95,12502
1519,6325 Hunter St, Kansas City, MO,64133,-94.477849,39.008962,29,95,12600
1520,8211 Sterling Ave, Kansas City, MO,64138,-94.450947,38.973359,29,95,12802
1521,10900 Marsh Ave, Kansas City, MO,64134,-94.494102,38.925914,29,95,13203
1522,301 Rumsey St, Niangua, MO,65713,-92.832198,37.392338,29,225,470101
1523,301 Rumsey St, Niangua, MO,65713,-92.832198,37.392338,29,225,470101
1524,370 State Hwy DD, Marshfield, MO,65706,-92.901811,37.337313,29,225,470201
1525,660 N Locust St, Marshfield, MO,65706,-92.898666,37.345214,29,225,470201
1526,180 State Hwy DD, Marshfield, MO,65706,-92.90493,37.337348,29,225,470201
1527,306 S Mill St, Rogersville, MO,65742,-93.056961,37.112646,29,225,470301
1528,17790 State Rte M, Edgar Springs, MO,65462,-91.889597,37.717698,29,161,890600
1529,1111 Soest Rd, Rolla, MO,65401,-91.753359,37.944323,29,161,890900
1530,1360 Soest Rd, Rolla, MO,65401,-91.748997,37.94421,29,161,890900
1531,500 Forum Dr, Rolla, MO,65401,-91.748074,37.944466,29,161,890900
1532,500 Haley Ave, Louisiana, MO,63353,-91.069539,39.440654,29,163,460100
1533,3321 Georgia St, Louisiana, MO,63353,-91.070402,39.433696,29,163,460100
1534,3321 Georgia St, Louisiana, MO,63353,-91.070402,39.433696,29,163,460100
1535,201 Brotherton Ln, Saint Louis, MO,63135,-90.305508,38.731488,29,189,212700
1536,3199 Parkwood Ln, Maryland Heights, MO,63043,-90.434314,38.737083,29,189,213202
1537,195 Fee Fee Rd, Maryland Heights, MO,63043,-90.424806,38.716401,29,189,213202
1538,4301 Edmundson Rd, Saint Louis, MO,63134,-90.365364,38.730929,29,189,213300
1539,3510 Woodson Rd, Saint Louis, MO,63114,-90.359273,38.717777,29,189,213500
1540,7837 Natural Bridge Rd, Saint Louis, MO,63121,-90.307125,38.707368,29,189,213700
1541,6701 Saint Charles Rock Rd, Saint Louis, MO,63133,-90.297345,38.681742,29,189,213700
1542,7855 Natural Bridge Rd, Saint Louis, MO,63121,-90.30766,38.707436,29,189,213700
1543,6347 Plymouth Ave, Saint Louis, MO,63133,-90.296216,38.668744,29,189,213900
1544,11600 Food Ln, Kansas City, MO,64134,-94.505457,38.913515,29,95,13208
1545,8925 Longview Rd, Kansas City, MO,64134,-94.485373,38.915522,29,95,13208
1546,7010 E 136th St, Grandview, MO,64030,-94.513011,38.877735,29,95,13313
1547,201 E 133rd St, Kansas City, MO,64145,-94.59279,38.886376,29,95,13405
1548,2600 SW Ward Rd, Lees Summit, MO,64082,-94.397694,38.872088,29,95,13504
1549,1001 SW Longview Park Dr, Lees Summit, MO,64081,-94.451256,38.904653,29,95,13612
1550,525 SE 2nd St, Lees Summit, MO,64063,-94.368531,38.915891,29,95,13703
1551,110 SE Green St, Lees Summit, MO,64063,-94.376593,38.915851,29,95,13703
1552,400 SE Blue Pkwy, Lees Summit, MO,64063,-94.368254,38.903201,29,95,13703
1553,600 SE Miller St, Lees Summit, MO,64063,-94.374618,38.907833,29,95,13703
1554,600 N Bynum Rd, Lone Jack, MO,64070,-94.170988,38.880754,29,95,13902
1555,313 S Bynum Rd, Lone Jack, MO,64070,-94.173464,38.865452,29,95,13902
1556,201 W Lone Jack Lees Summit Rd, Lone Jack, MO,64070,-94.175737,38.872101,29,95,13902
1557,80 Elm Tree Rd, Moscow Mills, MO,63362,-90.928528,38.939686,29,113,810303
1558,101 W Crandall St, Meadville, MO,64659,-93.302109,39.788249,29,115,490200
1559,101 W Crandall St, Meadville, MO,64659,-93.302109,39.788249,29,115,490200
1560,314 E Santa Fe Ave, Marceline, MO,64658,-92.945255,39.715191,29,115,490500
1561,314 E Santa Fe Ave, Marceline, MO,64658,-92.945255,39.715191,29,115,490500
1562,902 Independence Dr, Bowling Green, MO,63334,-91.196691,39.331687,29,163,460400
1563,430 Vo Tech Rd, Eolia, MO,63344,-91.019687,39.244913,29,163,460500
1564,4500 NW River Park Dr, Riverside, MO,64150,-94.633992,39.17444,29,165,30101
1565,6720 NW 64th St, Parkville, MO,64151,-94.659417,39.210679,29,165,30103
1566,6501 NW 72nd St, Platte Woods, MO,64151,-94.654812,39.225094,29,165,30103
1567,7642 N Green Hills Rd, Kansas City, MO,64151,-94.631188,39.232895,29,165,30207
1568,7701 NW Barry Rd, Kansas City, MO,64153,-94.671369,39.246878,29,165,30209
1569,8101 NW Belvidere Pkwy, Kansas City, MO,64152,-94.672474,39.232477,29,165,30209
1570,1836 Dyer Ave, Saint Louis, MO,63114,-90.384086,38.692934,29,189,214602
1571,2634 Sims Ave, Saint Louis, MO,63114,-90.376837,38.706793,29,189,214700
1572,11097 Saint Charles Rock Rd, Bridgeton, MO,63074,-90.39732,38.736741,29,189,214800
1573,3721 Saint Bridget Ln, St Ann, MO,63074,-90.387912,38.727525,29,189,214800
1574,12860 Fee Fee Rd, Saint Louis, MO,63146,-90.470398,38.690601,29,189,215103
1575,224 River Valley Dr, Chesterfield, MO,63017,-90.504195,38.683348,29,189,215105
1576,1751 McKelvey Rd, Maryland Heights, MO,63043,-90.455704,38.709785,29,189,215142
1577,2497 Creve Coeur Mill Rd, Maryland Heights, MO,63043,-90.45376,38.740049,29,189,215143
1578,2905 Rose Acres Ln, Maryland Heights, MO,63043,-90.457347,38.736734,29,189,215143
1579,15399 Appalachian Trl, Chesterfield, MO,63017,-90.539684,38.656966,29,189,215232
1580,800 NE Blackwell Pkwy, Lees Summit, MO,64086,-94.318425,38.926152,29,95,13916
1581,501 SE 12th St, Oak Grove, MO,64075,-94.123354,39.004543,29,95,14005
1582,401 SE 12th St, Oak Grove, MO,64075,-94.124909,39.00464,29,95,14005
1583,500 SE 17th St, Oak Grove, MO,64075,-94.124736,38.999191,29,95,14005
1584,605 SE 12th St, Oak Grove, MO,64075,-94.122002,39.004413,29,95,14005
1585,144 E McQuerry Rd, Grain Valley, MO,64029,-94.193968,39.02126,29,95,14007
1586,201 NE Sunnyside School Rd, Blue Springs, MO,64014,-94.258708,39.014071,29,95,14101
1587,27600 Colborn Rd, Lees Summit, MO,64086,-94.26125,38.943617,29,95,14112
1588,900 SW Bishop Dr, Blue Springs, MO,64015,-94.277575,38.985977,29,95,14114
1589,205 Waite St, Chula, MO,64635,-93.482062,39.920082,29,117,480100
1590,1801 Branch St, Platte City, MO,64079,-94.768959,39.356477,29,165,30500
1591,1601 Branch St, Platte City, MO,64079,-94.769445,39.35754,29,165,30500
1592,1501 Branch St, Platte City, MO,64079,-94.770294,39.360441,29,165,30500
1593,1009 2nd St, Platte City, MO,64079,-94.780827,39.35917,29,165,30500
1594,300 Scout St, Camden Point, MO,64018,-94.745478,39.449709,29,165,30600
1595,900 Lewis St, Edgerton, MO,64444,-94.636468,39.50569,29,165,30600
1596,212 W 6th St, Dearborn, MO,64439,-94.771511,39.524635,29,165,30600
1597,212 W 6th St, Dearborn, MO,64439,-94.771511,39.524635,29,165,30600
1598,212 W 6th St, Dearborn, MO,64439,-94.771511,39.524635,29,165,30600
1599,300 N Oak St, Humansville, MO,65674,-93.574262,37.797825,29,167,960100
1600,311 W McCurry St, Pleasant Hope, MO,65725,-93.281709,37.456101,29,167,960300
1601,515 W McCurry St, Pleasant Hope, MO,65725,-93.281638,37.458476,29,167,960300
1602,303 N Main St, Pleasant Hope, MO,65725,-93.272953,37.464572,29,167,960300
1603,5309 S Main Ave, Morrisville, MO,65710,-93.427941,37.481436,29,167,960400
1604,5309 S Main Ave, Morrisville, MO,65710,-93.427941,37.481436,29,167,960400
1605,5309 S Main Ave, Morrisville, MO,65710,-93.427941,37.481436,29,167,960400
1606,1201 S Warson Rd, Saint Louis, MO,63124,-90.395894,38.63893,29,189,215400
1607,9701 Conway Rd, Saint Louis, MO,63124,-90.387185,38.639992,29,189,215400
1608,9060 Ladue Rd, Saint Louis, MO,63124,-90.362561,38.653368,29,189,215400
1609,9661 Old Bonhomme Rd, Saint Louis, MO,63132,-90.389396,38.668469,29,189,215500
1610,737 Kingsland Ave, Saint Louis, MO,63130,-90.308251,38.659597,29,189,216100
1611,7400 Balson Ave, Saint Louis, MO,63130,-90.32875,38.664109,29,189,216200
1612,6345 Northwood Ave, Saint Louis, MO,63105,-90.306515,38.63875,29,189,216300
1613,400 S Meramec Ave, Saint Louis, MO,63105,-90.340415,38.644337,29,189,216400
1614,501 S Brentwood Blvd, Saint Louis, MO,63105,-90.342777,38.644616,29,189,216500
1615,1800 Princeton Pl, Richmond Heights, MO,63117,-90.315077,38.622958,29,189,216800
1616,2801 Oakland Ave, Saint Louis, MO,63143,-90.326216,38.611881,29,189,217000
1617,8636 Litzsinger Rd, Saint Louis, MO,63144,-90.343106,38.616962,29,189,217300
1618,111 NE Roanoke Dr, Blue Springs, MO,64014,-94.259776,39.045153,29,95,14904
1619,7550 MacKenzie Rd, Saint Louis, MO,63123,-90.319562,38.57351,29,189,219800
1620,318 Sulphur St, Noel, MO,64854,-94.485727,36.540832,29,119,70300
1621,14762 W State Highway 90, Noel, MO,64854,-94.513276,36.549158,29,119,70300
1622,201 W Moore St, La Plata, MO,63549,-92.4926,40.023502,29,121,960100
1623,201 W Moore St, La Plata, MO,63549,-92.4926,40.023502,29,121,960100
1624,702 N Missouri St, Macon, MO,63552,-92.465006,39.744871,29,121,960400
1625,702 N Missouri St, Macon, MO,63552,-92.465006,39.744871,29,121,960400
1626,702 N Missouri St, Macon, MO,63552,-92.465006,39.744871,29,121,960400
1627,702 N Missouri St, Macon, MO,63552,-92.465006,39.744871,29,121,960400
1628,1619 E 24th Ter, Kansas City, MO,64108,-94.563558,39.082227,29,95,16200
1629,2122 Audrain Road 557, Vandalia, MO,63382,-91.514726,39.306102,29,7,950100
1630,1101 E US 54, Vandalia, MO,63382,-91.471651,39.31636,29,7,950100
1631,1101 E US 54, Vandalia, MO,63382,-91.471651,39.31636,29,7,950100
1632,1101 E US 54, Vandalia, MO,63382,-91.471651,39.31636,29,7,950100
1633,1410 Hinkson Ave, Columbia, MO,65201,-92.319831,38.956589,29,19,200
1634,10 E Broadway, Columbia, MO,65203,-92.338706,38.951522,29,19,600
1635,319 West Blvd N, Columbia, MO,65203,-92.352846,38.9577,29,19,700
1636,9327 Highway 51, Broseley, MO,63932,-90.24264,36.67642,29,23,950600
1637,1506 NW Englewood Rd, Kansas City, MO,64118,-94.595517,39.195854,29,47,21204
1638,423 N Chestnut St, Cameron, MO,64429,-94.238326,39.742568,29,49,960100
1639,812 Saint Marys Blvd, Jefferson City, MO,65109,-92.185394,38.579667,29,51,10600
1640,904 W Auberry Grv, Jamesport, MO,64648,-93.808669,39.975085,29,61,470200
1641,904 W Auberry Grv, Jamesport, MO,64648,-93.808669,39.975085,29,61,470200
1642,1630 N Weller Ave, Springfield, MO,65803,-93.268095,37.228266,29,77,800
1643,4035 W Weaver Rd, Battlefield, MO,65619,-93.363557,37.12432,29,77,4101
1644,3850 N Farm Road 159, Springfield, MO,65803,-93.281402,37.268,29,77,4400
1645,501 S Main St, Windsor, MO,65360,-93.526,38.529358,29,83,950100
1646,210 North St, Windsor, MO,65360,-93.525559,38.538282,29,83,950100
1647,215 W 4th St, Willow Springs, MO,65793,-91.968865,36.99399,29,91,90100
1648,215 W 4th St, Willow Springs, MO,65793,-91.968865,36.99399,29,91,90100
1649,215 W 4th St, Willow Springs, MO,65793,-91.968865,36.99399,29,91,90100
1650,11400 Cleveland Ave, Kansas City, MO,64137,-94.546677,38.918376,29,95,10204
1651,8650 Ruskin Way, Kansas City, MO,64134,-94.490603,38.919119,29,95,13210
1652,4300 S Phelps Rd, Independence, MO,64055,-94.402492,39.042441,29,95,14501
1653,222 W Cedar Ave, Saint Louis, MO,63119,-90.361586,38.592188,29,189,219300
1654,5011 Ambs Rd, Saint Louis, MO,63128,-90.367569,38.49369,29,189,221302
1655,5165 Ambs Rd, Saint Louis, MO,63128,-90.371373,38.490609,29,189,221302
1656,901 W Ashland St, Nevada, MO,64772,-94.367481,37.844804,29,217,950300
1657,100 Bell Rd, Wright City, MO,63390,-91.045098,38.832305,29,219,820103
1658,100 Wildcat Dr, Wright City, MO,63390,-91.040433,38.83256,29,219,820103
1659,520 Westwoods Rd, Wright City, MO,63390,-91.023335,38.830404,29,219,820103
1660,5301 NW Tiffany Springs Rd, Kansas City, MO,64154,-94.640716,39.261081,29,165,30210
1661,401 Matt Waller Dr, Richmond, MO,64085,-93.950501,39.27825,29,177,80200
1662,209 W College St, Farmington, MO,63640,-90.422693,37.782684,29,187,950902
1663,510 S Franklin St, Farmington, MO,63640,-90.423418,37.776595,29,187,950902
1664,918 Prigge Rd, Saint Louis, MO,63138,-90.195273,38.78033,29,189,210100
1665,13312 Bellefontaine Rd, Saint Louis, MO,63138,-90.217301,38.822627,29,189,210100
1666,13316 Bellefontaine Rd, Saint Louis, MO,63138,-90.217282,38.822732,29,189,210100
1667,11831 Bellefontaine Rd, Saint Louis, MO,63138,-90.217062,38.78505,29,189,210702
1668,5323 Ville Maria Ln, Hazelwood, MO,63042,-90.396648,38.782549,29,189,211401
1669,12834 Missouri Bottom Rd, Hazelwood, MO,63042,-90.410621,38.781972,29,189,211401
1670,200 Church St, Saint Louis, MO,63135,-90.302886,38.745067,29,189,212500
1671,11022 Schuetz Rd, Saint Louis, MO,63146,-90.409174,38.684386,29,189,215004
1672,425 N Spoede Rd, Saint Louis, MO,63141,-90.415088,38.66247,29,189,215301
1673,807 W 1st St, Webb City, MO,64870,-94.471495,37.145104,29,97,11400
1674,621 N Madison St, Webb City, MO,64870,-94.474256,37.151702,29,97,11400
1675,603 W Aylor St, Webb City, MO,64870,-94.467783,37.152572,29,97,11400
1676,700 N Main St, Webb City, MO,64870,-94.462883,37.151653,29,97,11400
1677,1814 E Fir Rd, Carthage, MO,64836,-94.169774,37.138296,29,97,12000
1678,214 S 11th St, Sarcoxie, MO,64862,-94.121918,37.067488,29,97,12000
1679,5000 Davison Ave, Saint Louis, MO,63120,-90.251477,38.693551,29,510,107400
1680,5421 Thekla Ave, Saint Louis, MO,63120,-90.24562,38.695132,29,510,107400
1681,1033 Whittier St, Saint Louis, MO,63113,-90.243683,38.649422,29,510,111100
1682,3035 Cass Ave, Saint Louis, MO,63106,-90.22084,38.646826,29,510,111500
1683,1109 S Arlington Ave, Independence, MO,64053,-94.464158,39.096669,29,95,15600
1684,1601 Forest Ave, Kansas City, MO,64108,-94.56877,39.094022,29,95,16100
1685,4600 Elmwood Ave, Kansas City, MO,64130,-94.531239,39.042738,29,95,17100
1686,8500 E 77th St, Kansas City, MO,64138,-94.489337,38.984508,29,95,17200
1687,20404 E Truman Rd, Independence, MO,64056,-94.337645,39.091113,29,95,17700
1688,200 SW Ward Rd, Lees Summit, MO,64063,-94.39504,38.912965,29,95,18000
1689,1125 NE Colbern Rd, Lees Summit, MO,64086,-94.349837,38.945836,29,95,18600
1690,5000 NW Valley View Rd, Blue Springs, MO,64015,-94.321181,39.032305,29,95,19300
1691,650 Vineland School Rd, De Soto, MO,63020,-90.569469,38.126346,29,99,701200
1692,4485 Sunrise School Rd, De Soto, MO,63020,-90.550073,38.045207,29,99,701401
1693,2109 Gravois Rd, Murphy, MO,63049,-90.511438,38.480663,29,99,700211
1694,1265 Dooling Hollow Rd, Festus, MO,63028,-90.340957,38.155917,29,99,701404
1695,522 E Gay St, Warrensburg, MO,64093,-93.725533,38.764337,29,101,960500
1696,205 S Ridgeview Dr, Warrensburg, MO,64093,-93.710816,38.76087,29,101,960500
1697,1411 S Ridgeview Dr, Warrensburg, MO,64093,-93.711901,38.741185,29,101,960500
1698,640 E Gay St, Warrensburg, MO,64093,-93.721365,38.764648,29,101,960500
1699,438 E Market St, Warrensburg, MO,64093,-93.728877,38.763758,29,101,960600
1700,120 Houx Dr, Whiteman AFB, MO,65305,-93.575395,38.735703,29,101,980000
1701,800 Hwy 131, Wellington, MO,64097,-93.982492,39.130589,29,107,90100
1702,800 Hwy 131, Wellington, MO,64097,-93.982492,39.130589,29,107,90100
1703,2309 Aull Ln, Lexington, MO,64067,-93.866198,39.175185,29,107,90200
1704,109 W Kelling Ave, Waverly, MO,64096,-93.517718,39.209519,29,107,90300
1705,101 E Ella St, Verona, MO,65769,-93.786762,36.960957,29,109,470300
1706,101 E Ella St, Verona, MO,65769,-93.786762,36.960957,29,109,470300
1707,1190 Old Cap au Gris Rd, Troy, MO,63379,-90.965985,38.97717,29,113,810301
1708,713 W College St, Troy, MO,63379,-90.986511,38.979317,29,113,810301
1709,1201 Pine St, Tarkio, MO,64491,-95.391811,40.437359,29,5,950100
1710,529 E Pineville Rd, Washburn, MO,65772,-93.959527,36.586776,29,9,960401
1711,529 E Pineville Rd, Washburn, MO,65772,-93.959527,36.586776,29,9,960401
1712,529 E Pineville Rd, Washburn, MO,65772,-93.959527,36.586776,29,9,960401
1713,809 S Henry Clay Blvd, Ashland, MO,65010,-92.262427,38.764596,29,19,1701
1714,14520 S Crump Ln, Ashland, MO,65010,-92.262484,38.77904,29,19,1701
1715,803 S Henry Clay Blvd, Ashland, MO,65010,-92.262409,38.765804,29,19,1701
1716,303 N Main St, Ashland, MO,65010,-92.262165,38.775411,29,19,1701
1717,210 W Patton St, Sturgeon, MO,65284,-92.282464,39.232809,29,19,1902
1718,210 W Patton St, Sturgeon, MO,65284,-92.282464,39.232809,29,19,1902
1719,210 W Patton St, Sturgeon, MO,65284,-92.282464,39.232809,29,19,1902
1720,MO 34 & County Rd 800, Marble Hill, MO,63764,-90.018616,37.311537,29,17,950200
1721,MO 34 & County Rd 800, Marble Hill, MO,63764,-90.018616,37.311537,29,17,950200
1722,MO 34 & County Rd 800, Marble Hill, MO,63764,-90.018616,37.311537,29,17,950200
1723,Mill St & King St, Zalma, MO,63787,-90.079342,37.143579,29,17,950300
1724,401 Clinkscales Rd, Columbia, MO,65203,-92.362227,38.959426,29,19,1300
1725,5450 N Route Z, Columbia, MO,65202,-92.182049,39.011507,29,19,1602
1726,9400 Sears Ln, Poplar Bluff, MO,63901,-90.508851,36.861395,29,23,950201
1727,3401 Faraon St, St Joseph, MO,64506,-94.812892,39.769704,29,21,600
1728,3401 Faraon St, St Joseph, MO,64506,-94.812892,39.769704,29,21,600
1729,3227 Olive St, St Joseph, MO,64507,-94.814706,39.758994,29,21,1600
1730,5802 S 22nd St, St Joseph, MO,64503,-94.834026,39.714539,29,21,2300
1731,902 Broadway St, Van Buren, MO,63965,-91.012038,37.001118,29,35,960200
1732,310 E Calico Dr, Raymore, MO,64083,-94.448761,38.815143,29,37,60302
1733,900 S Foxridge Dr, Raymore, MO,64083,-94.483527,38.790797,29,37,60305
1734,7584 State Rd T, Stoutland, MO,65567,-92.514899,37.815412,29,29,950900
1735,7584 State Rd T, Stoutland, MO,65567,-92.514899,37.815412,29,29,950900
1736,338 N West Ln, Jackson, MO,63755,-89.692246,37.38642,29,31,880400
1737,4433 N Topping Ave, Kansas City, MO,64117,-94.512087,39.174741,29,47,20604
1738,5815 NE 48th St, Kansas City, MO,64119,-94.509741,39.180611,29,47,20604
1739,4531 NE 44th Ter, Kansas City, MO,64117,-94.526587,39.17443,29,47,20604
1740,800 Midjay Dr, Liberty, MO,64068,-94.462232,39.226539,29,47,20801
1741,1000 Midjay Dr, Liberty, MO,64068,-94.461264,39.223759,29,47,20801
1742,906 South St, Stockton, MO,65785,-93.796249,37.694309,29,39,870300
1743,906 South St, Stockton, MO,65785,-93.796249,37.694309,29,39,870300
1744,301 S Main St, Nixa, MO,65714,-93.294885,37.041177,29,43,20204
1745,217 Division St, Sparta, MO,65753,-93.083627,37.004907,29,43,20400
1746,522 State Highway 125 N, Sparta, MO,65753,-93.085889,37.007033,29,43,20400
1747,1130 Spokane Rd, Spokane, MO,65754,-93.29749,36.864596,29,43,20500
1748,1123 Spokane Rd, Spokane, MO,65754,-93.297648,36.864647,29,43,20500
1749,500 N Jesse James Rd, Excelsior Springs, MO,64024,-94.240861,39.345585,29,47,21701
1750,1251 Camille St, Liberty, MO,64068,-94.439039,39.272699,29,47,21803
1751,1101 Jackson St, Jefferson City, MO,65101,-92.177344,38.564515,29,51,10500
1752,1201 Fairgrounds Rd, Jefferson City, MO,65109,-92.271197,38.569783,29,51,10701
1753,100 DIX Rd, Jefferson City, MO,65109,-92.201998,38.590355,29,51,10900
1754,902 Buchanan St, Stewartsville, MO,64490,-94.501557,39.754028,29,63,80200
1755,902 Buchanan St, Stewartsville, MO,64490,-94.501557,39.754028,29,63,80200
1756,6132 NW State Route Z, Union Star, MO,64494,-94.59874,39.982961,29,63,80200
1757,6132 NW State Route Z, Union Star, MO,64494,-94.59874,39.982961,29,63,80200
1758,101 N Main St, Salem, MO,65560,-91.536359,37.643786,29,65,960300
1759,202 S East St, Albany, MO,64402,-94.329796,40.247095,29,75,960100
1760,610 N Park St, Stanberry, MO,64489,-94.541291,40.218483,29,75,960200
1761,610 N Park St, Stanberry, MO,64489,-94.541291,40.218483,29,75,960200
1762,500 S Main St, Cardwell, MO,63829,-90.293231,36.043081,29,69,361000
1763,500 S Main St, Cardwell, MO,63829,-90.293231,36.043081,29,69,361000
1764,2300 Southbend Dr, Washington, MO,63090,-90.980394,38.542649,29,71,800201
1765,600 Blue Jay Dr, Washington, MO,63090,-91.010431,38.548642,29,71,800201
1766,1570 W 5th St, Washington, MO,63090,-91.03816,38.556966,29,71,800300
1767,9374 Hwy 185, Sullivan, MO,63080,-91.234692,38.28919,29,71,800500
1768,4640 Highway H, Sullivan, MO,63080,-91.299423,38.263479,29,71,800500
1769,503 W End Ave, Union, MO,63084,-91.013339,38.447865,29,71,800601
1770,1 Wildcat Dr, Union, MO,63084,-91.030617,38.446616,29,71,800601
1771,101 Indian Warpath Dr, Pacific, MO,63069,-90.779638,38.486463,29,71,800701
1772,255 S Indian Pride Dr, Pacific, MO,63069,-90.753452,38.4817,29,71,800701
1773,1015 High School Dr, St Clair, MO,63077,-90.978511,38.3373,29,71,800902
1774,895 Bardot St, St Clair, MO,63077,-90.982076,38.342243,29,71,800902
1775,925 High School Dr, St Clair, MO,63077,-90.978508,38.337903,29,71,800902
1776,104 W Washington St, Sullivan, MO,63080,-91.158462,38.208481,29,71,801101
1777,1073 E Vine St, Sullivan, MO,63080,-91.136336,38.217403,29,71,801101
1778,1156 Elmont Rd, Sullivan, MO,63080,-91.182312,38.209706,29,71,801102
1779,1132 Elmont Rd, Sullivan, MO,63080,-91.181895,38.209492,29,71,801102
1780,421 E Sunshine St, Springfield, MO,65807,-93.290246,37.18229,29,77,300
1781,1461 N Douglas Ave, Springfield, MO,65802,-93.299443,37.22516,29,77,600
1782,2343 W Olive St, Springfield, MO,65802,-93.323683,37.210023,29,77,1700
1783,2526 S Hillsboro Ave, Springfield, MO,65804,-93.231209,37.166788,29,77,2502
1784,415 S Golden Ave, Springfield, MO,65802,-93.339363,37.207452,29,77,3100
1785,4100 S Fremont Ave, Springfield, MO,65804,-93.271942,37.140242,29,77,4001
1786,3992 W Sunshine St, Springfield, MO,65807,-93.362733,37.180201,29,77,4201
1787,4595 W Farm Road 140, Springfield, MO,65802,-93.374051,37.19791,29,77,4301
1788,4151 W Division St, Springfield, MO,65802,-93.364393,37.227034,29,77,4302
1789,211 W McCabe St, Strafford, MO,65757,-93.119362,37.270745,29,77,4600
1790,213 W McCabe St, Strafford, MO,65757,-93.119425,37.270745,29,77,4600
1791,201 W McCabe St, Strafford, MO,65757,-93.119049,37.270742,29,77,4600
1792,2625 N Farm Road 101, Springfield, MO,65802,-93.418099,37.245825,29,77,4900
1793,300 E College St, Walnut Grove, MO,65770,-93.546708,37.412395,29,77,5001
1794,300 E College St, Walnut Grove, MO,65770,-93.546708,37.412395,29,77,5001
1795,407 Farmer Rd, Willard, MO,65781,-93.433099,37.301459,29,77,5002
1796,515 E Jackson St, Willard, MO,65781,-93.420302,37.300329,29,77,5002
1797,518 Kime St, Willard, MO,65781,-93.420981,37.306541,29,77,5002
1798,409 Farmer Rd, Willard, MO,65781,-93.433101,37.301405,29,77,5002
1799,732 W Talmage St, Springfield, MO,65803,-93.298123,37.244341,29,77,5600
1800,2205 W Kearney St, Springfield, MO,65803,-93.320258,37.241182,29,77,5600
1801,1417 Oklahoma Ave, Trenton, MO,64683,-93.599789,40.079157,29,79,960400
1802,1415 Oklahoma Ave, Trenton, MO,64683,-93.599779,40.079143,29,79,960400
1803,1136 Allen St, West Plains, MO,65775,-91.840937,36.739775,29,91,90700
1804,730 E Olden St, West Plains, MO,65775,-91.842957,36.73457,29,91,90700
1805,602 E Olden St, West Plains, MO,65775,-91.844676,36.734612,29,91,90700
1806,509 N Center St, Weaubleau, MO,65774,-93.543025,37.89448,29,85,470500
1807,509 N Center St, Weaubleau, MO,65774,-93.543025,37.89448,29,85,470500
1808,201 S Barbour Ave, Oregon, MO,64473,-95.138068,39.985898,29,87,960300
1809,704 Lucky St, Fayette, MO,65248,-92.692966,39.148878,29,89,960300
1810,1001 Historic 66 W, Waynesville, MO,65583,-92.212059,37.822646,29,169,470400
1811,1416 Woodgate Dr, Saint Louis, MO,63122,-90.424332,38.605714,29,189,217600
1812,760 Woods Mill Rd, Ballwin, MO,63011,-90.511122,38.609652,29,189,217702
1813,908 Crestland Dr, Ballwin, MO,63011,-90.56684,38.603315,29,189,217806
1814,2312 Baxter Rd, Chesterfield, MO,63017,-90.545839,38.622949,29,189,217842
1991,\N,\N,\N,\N,\N,\N,\N,\N,\N
1992,\N,\N,\N,\N,\N,\N,\N,\N,\N
1815,14653 Clayton Rd, Chesterfield, MO,63011,-90.535596,38.620357,29,189,217842
1816,314 New Ballwin Rd, Ballwin, MO,63021,-90.557667,38.580301,29,189,217923
1817,801 Hanna Rd, Ballwin, MO,63021,-90.51067,38.575763,29,189,217941
1818,701 Wren Ave, Ballwin, MO,63021,-90.520098,38.576942,29,189,217941
1819,655 Wren Ave, Ballwin, MO,63021,-90.52138,38.576908,29,189,217941
1820,5966 Telegraph Rd, Saint Louis, MO,63129,-90.30603,38.460384,29,189,220445
1821,17507 Highway T, Richland, MO,65556,-92.330655,37.907938,29,169,470500
1822,7076 Pulaski Ave, Fort Leonard Wood, MO,65473,-92.147723,37.779849,29,169,470600
1823,1 Main St, Valley Park, MO,63088,-90.4969,38.551572,29,189,218102
1824,1 Main St, Valley Park, MO,63088,-90.4969,38.551572,29,189,218102
1825,1 Main St, Valley Park, MO,63088,-90.4969,38.551572,29,189,218102
1826,725 N Geyer Rd, Saint Louis, MO,63122,-90.415976,38.592122,29,189,218402
1827,701 N Rock Hill Rd, Saint Louis, MO,63119,-90.36445,38.604121,29,189,218900
1828,701 N Rock Hill Rd, Saint Louis, MO,63119,-90.36445,38.604121,29,189,218900
1829,100 Selma Ave, Saint Louis, MO,63119,-90.348781,38.589708,29,189,219200
1830,11660 Eddie and Park Rd, Saint Louis, MO,63126,-90.381569,38.54415,29,189,220803
1831,11660 Eddie and Park Rd, Saint Louis, MO,63126,-90.381569,38.54415,29,189,220803
1832,12225 Eddie and Park Rd, Saint Louis, MO,63127,-90.397909,38.544493,29,189,220803
1833,12721 W Watson Rd, Saint Louis, MO,63127,-90.412823,38.541033,29,189,221201
1834,1430 Flora del Dr, Fenton, MO,63026,-90.481825,38.521183,29,189,221422
1835,1600 Uthoff Dr, Fenton, MO,63026,-90.465772,38.536378,29,189,221423
1836,210 W Depot St, Huntsville, MO,65259,-92.546742,39.439596,29,175,490200
1837,622 Harlan St, Clifton Hill, MO,65244,-92.66528,39.441462,29,175,490200
1838,701 S 4th St, Moberly, MO,65270,-92.440646,39.41207,29,175,490400
1839,307 W Moss St, Lawson, MO,64062,-94.206733,39.434043,29,177,80000
1840,414 W Ohio St, Mansfield, MO,65704,-92.583035,37.11123,29,229,490300
1841,6131 Leona St, Saint Louis, MO,63116,-90.268227,38.569591,29,510,101300
1842,725 Bellerive Blvd, Saint Louis, MO,63111,-90.249731,38.565198,29,510,101400
1843,16695 Wild Horse Creek Rd, Chesterfield, MO,63005,-90.584868,38.657912,29,189,221629
1844,17401 Manchester Rd, Wildwood, MO,63038,-90.661185,38.581728,29,189,222100
1845,526 School Rd, Tuscumbia, MO,65082,-92.461012,38.236719,29,131,962800
1846,5140 Riverview Blvd, Saint Louis, MO,63120,-90.256018,38.701288,29,510,107200
1847,215 E Mitchell St, Marshall, MO,65340,-93.194709,39.112156,29,195,90400
1848,600 E Marshall St, Sweet Springs, MO,65351,-93.408959,38.964785,29,195,90700
1849,105 Main St, Sweet Springs, MO,65351,-93.41529,38.963884,29,195,90700
1850,1015 Plant Rd, Charleston, MO,63834,-89.346667,36.913879,29,133,950200
1851,3601 Droste Rd, St Charles, MO,63301,-90.53184,38.802231,29,183,310602
1852,4265 Athlone Ave, Saint Louis, MO,63115,-90.228117,38.67506,29,510,110200
1853,4248 Cottage Ave, Saint Louis, MO,63113,-90.238621,38.65984,29,510,111300
1854,1130 N Euclid Ave, Saint Louis, MO,63113,-90.259617,38.656384,29,510,112300
1855,4035 State Highway 77, Benton, MO,63736,-89.545709,37.092039,29,201,781000
1856,900 Burlington St, Wellsville, MO,63384,-91.566899,39.081965,29,139,970100
1857,900 Burlington St, Wellsville, MO,63384,-91.566899,39.081965,29,139,970100
1858,7396 Twin Chimneys Blvd, O'Fallon, MO,63368,-90.728519,38.763986,29,183,311154
1859,647 Tower Grove Ave, Saint Louis, MO,63110,-90.254409,38.632138,29,510,118600
1860,4011 Papin St, Saint Louis, MO,63110,-90.249747,38.629586,29,510,118600
1861,4011 Papin St, Saint Louis, MO,63110,-90.249747,38.629586,29,510,118600
1862,4011 Papin St, Saint Louis, MO,63110,-90.249747,38.629586,29,510,118600
1863,801 N 11th St, Saint Louis, MO,63101,-90.194495,38.632913,29,510,125600
1864,1921 Prather Ave, Saint Louis, MO,63139,-90.304105,38.621507,29,510,126800
1865,4154 Highway 36, Shelbina, MO,63468,-92.107006,39.709277,29,205,450200
1866,4152 Highway 36, Shelbina, MO,63468,-92.107098,39.709298,29,205,450200
1867,900 Homefield Blvd, O'Fallon, MO,63366,-90.685251,38.825561,29,183,311601
1868,141 Weiss Rd, Saint Peters, MO,63376,-90.653339,38.756808,29,183,311736
1869,915 W Grant St, Dexter, MO,63841,-89.969579,36.788989,29,207,470600
1870,1107 Brown Pilot Ln, Dexter, MO,63841,-89.974518,36.787007,29,207,470600
1871,658 State Hwy EE, Blue Eye, MO,65611,-93.384414,36.50178,29,209,90400
1872,559 E Highway N, Wentzville, MO,63385,-90.846586,38.767176,29,183,312193
1873,561 E Highway N, Wentzville, MO,63385,-90.846523,38.767169,29,183,312193
1874,405 Campus Dr, Wentzville, MO,63385,-90.867328,38.813444,29,183,312195
1875,7441 Westview Rd, Neosho, MO,64850,-94.510506,36.837594,29,145,20800
1876,131 Lentz St, Stella, MO,64867,-94.196241,36.766785,29,145,21000
1877,17665 US Hwy 136, Burlington Junction, MO,64428,-95.028313,40.44162,29,147,470200
1878,17665 US Hwy 136, Burlington Junction, MO,64428,-95.028313,40.44162,29,147,470200
1879,302 Myrtle St, Taneyville, MO,65759,-93.035676,36.740257,29,213,480401
1880,34471 State Hwy M, Guilford, MO,64457,-94.729547,40.170311,29,147,470500
1881,209 Morehouse St, Barnard, MO,64423,-94.822421,40.177241,29,147,470500
1882,725 Washington St, Sainte Genevieve, MO,63670,-90.052894,37.981054,29,186,960200
1883,715 Washington St, Sainte Genevieve, MO,63670,-90.052773,37.981071,29,186,960200
1884,7163 Raider Rd, Bonne Terre, MO,63628,-90.527252,37.906086,29,187,950101
1885,5279 Fyler Ave, Saint Louis, MO,63139,-90.27991,38.600797,29,510,127200
1886,1118 S 7th St, Saint Louis, MO,63104,-90.196059,38.616461,29,510,127400
1887,365 E Walnut St, Thayer, MO,65791,-91.532088,36.523739,29,149,480300
1888,401 E Walnut St, Thayer, MO,65791,-91.531324,36.523732,29,149,480300
1889,5704 N Northwood Rd, Kansas City, MO,64151,-94.631622,39.198409,29,165,30102
1890,525 Rogers Ave, Summersville, MO,65571,-91.658122,37.181939,29,215,480200
1891,10341 Hwy 17, Success, MO,65570,-92.073365,37.389259,29,215,480300
1892,MO 95 & County Rd 844, Thornfield, MO,65762,-92.652265,36.709639,29,153,470100
1893,400 E Cleveland St, Hayti, MO,63851,-89.74611,36.241279,29,155,470100
1894,625 Chariton Ave, Park Hills, MO,63601,-90.613013,37.86131,29,187,950400
1895,768 Highway M, Park Hills, MO,63601,-90.609709,37.867772,29,187,950400
1896,409 N Washington St, Farmington, MO,63640,-90.420255,37.783676,29,187,950800
1897,403 W Fite St, Park Hills, MO,63601,-90.537374,37.837849,29,187,951000
1898,519 8th St, Park Hills, MO,63601,-90.495338,37.847913,29,187,951100
1899,210 School St, Annapolis, MO,63620,-90.699146,37.35988,29,93,950400
1900,210 School St, Annapolis, MO,63620,-90.699146,37.35988,29,93,950400
1901,1012 Bales Ave, Kansas City, MO,64127,-94.541012,39.100743,29,95,1800
1902,6201 E 17th St, Kansas City, MO,64126,-94.510145,39.090172,29,95,2100
1903,800 Warrior Ave, Warrenton, MO,63383,-91.142274,38.795886,29,219,820102
1904,803 Pinckney St, Warrenton, MO,63383,-91.131868,38.801009,29,219,820102
1905,611 Beasley Rd, Steele, MO,63877,-89.824415,36.080767,29,155,470600
1906,611 Beasley Rd, Steele, MO,63877,-89.824415,36.080767,29,155,470600
1907,6645 Parker Rd, Florissant, MO,63033,-90.238177,38.797697,29,189,210804
1908,14275 New Halls Ferry Rd, Florissant, MO,63033,-90.300312,38.811229,29,189,210925
1909,1250 Humes Ln, Florissant, MO,63031,-90.336893,38.814937,29,189,211301
1910,1215 E 59th St, Kansas City, MO,64110,-94.57285,39.019862,29,95,8100
1911,6512 Wornall Rd, Kansas City, MO,64113,-94.593257,39.009958,29,95,8500
1912,6801 Holmes Rd, Kansas City, MO,64131,-94.579601,39.003811,29,95,8600
1913,6801 Holmes Rd, Kansas City, MO,64131,-94.579601,39.003811,29,95,8600
1914,6801 Holmes Rd, Kansas City, MO,64131,-94.579601,39.003811,29,95,8600
1915,610 S Engineer Ave, Sedalia, MO,65301,-93.21356,38.705337,29,159,480900
1916,3201 W 16th St, Sedalia, MO,65301,-93.269441,38.699099,29,159,481100
1917,101 E Scioto St, St James, MO,65559,-91.612866,37.995352,29,161,890200
1918,1248 N Florissant Rd, Saint Louis, MO,63135,-90.314141,38.765413,29,189,211600
1919,1950 Nemnich Rd, Saint Louis, MO,63136,-90.261945,38.742433,29,189,211900
1920,8420 Sunbury Ave, Saint Louis, MO,63136,-90.27125,38.725274,29,189,212001
1921,11424 Gill St, Sugar Creek, MO,64054,-94.440811,39.113861,29,95,11100
1922,1223 N Noland Rd, Independence, MO,64050,-94.412676,39.103059,29,95,11300
1923,18400 E Salisbury Rd, Independence, MO,64056,-94.362463,39.106746,29,95,11406
1924,429 S Leslie St, Independence, MO,64050,-94.406464,39.087853,29,95,11500
1925,11801 E 32nd St S, Independence, MO,64052,-94.437802,39.063577,29,95,12100
1926,8015 Raytown Rd, Kansas City, MO,64138,-94.46475,38.977213,29,95,12802
1927,8401 E 83rd St, Kansas City, MO,64138,-94.490636,38.973498,29,95,12804
1928,8838 E 83rd St, Kansas City, MO,64138,-94.480675,38.973213,29,95,12804
1929,102 Fee Fee Rd, Maryland Heights, MO,63043,-90.423377,38.718895,29,189,213202
1930,1730 N Hanley Rd, Saint Louis, MO,63114,-90.328702,38.684551,29,189,214200
1931,2200 Brown Rd, Saint Louis, MO,63114,-90.357346,38.693966,29,189,214500
1932,3500 SW Windemere Dr, Lees Summit, MO,64082,-94.387344,38.854516,29,95,13504
1933,13100 E 147th St, Kansas City, MO,64149,-94.435629,38.85441,29,95,13504
1934,3651 SW Windemere Dr, Lees Summit, MO,64082,-94.387239,38.853876,29,95,13504
1935,12709 Smart Rd, Lees Summit, MO,64086,-94.303696,38.880354,29,95,13901
1936,121 Hampel Rd, Moscow Mills, MO,63362,-90.929023,38.93527,29,113,810303
1937,3920 E Hwy 47, Winfield, MO,63389,-90.751543,38.989725,29,113,810400
1938,420 E California Ave, Marceline, MO,64658,-92.943269,39.712944,29,115,490500
1939,7100 NW Hampton Rd, Kansas City, MO,64152,-94.733341,39.223447,29,165,30306
1940,1101 SE Sunnyside School Rd, Blue Springs, MO,64014,-94.256261,39.004916,29,95,14105
1941,1812 NW Vesper St, Blue Springs, MO,64015,-94.285153,39.020506,29,95,14108
1942,201 NE Anderson Dr, Lees Summit, MO,64064,-94.377645,39.01697,29,95,14203
1943,4944 Highway DD, Ludlow, MO,64656,-93.708784,39.655207,29,117,480200
1944,4944 Highway DD, Ludlow, MO,64656,-93.708784,39.655207,29,117,480200
1945,1530 Clay St, Chillicothe, MO,64601,-93.562813,39.792372,29,117,480400
1946,1113 E MO 90, Pineville, MO,64856,-94.307884,36.545103,29,119,70100
1947,1103 Washington St, Weston, MO,64098,-94.900717,39.419869,29,165,30700
1948,7401 Balson Ave, Saint Louis, MO,63130,-90.328719,38.664316,29,189,215900
1949,6500 Wydown Blvd, Saint Louis, MO,63105,-90.310974,38.642638,29,189,216300
1950,15208 E 39th St S, Independence, MO,64055,-94.39765,39.049474,29,95,14601
1951,3301 S Noland Rd, Independence, MO,64055,-94.414642,39.060494,29,95,14601
1952,3920 NW RD Mize Rd, Blue Springs, MO,64015,-94.312762,39.044639,29,95,14804
1953,3930 NW RD Mize Rd, Blue Springs, MO,64015,-94.311742,39.043463,29,95,14804
1954,411 Academy St, South West City, MO,64863,-94.616148,36.516356,29,119,70300